Name,Divisions,Latitude,Longitude,Address,Normal_site,Auto_site,Glamping,Caravan,Restroom,Shower_room,Sink,Homepage
W글램핑,"일반야영장,글램핑",35.3932118,127.8873465,경상남도 산청군 산청읍 내리 ,1,0,14,0,2,2,2,http://www.wglamping.com/default/
진안풍경 소리 펜션 캠핑장,일반야영장,35.9025407,127.5711562,전북 진안군 안천면 상배실길 36-19,1,0,0,1,1,1,1,http://noricamp.com/site/%EC%A7%84%EC%95%88%ED%92%8D%EA%B2%BD%20%EC%86%8C%EB%A6%AC%20%ED%8E%9C%EC%85%98%20%EC%BA%A0%ED%95%91%EC%9E%A5
초락나루펜션&글램핑,"일반야영장,글램핑",36.9955832,126.5271023,충청남도 당진시 석문면 감목길 154,1,0,10,0,6,6,3,http://crnr.idkorea.biz/
가평글램핑클럽레스피아 (구 (주)라벤트리코리아),글램핑,37.6622328,127.5434061,경기도 가평군 설악면 위곡리 ,1,0,21,0,2,2,1,http://lespia.co.kr/intro.html
아쿠아마린캠핑장,"일반야영장,글램핑",38.0477085,127.3765695,경기 포천시 이동면 성장로1289번길 204,1,0,22,0,0,0,0,http://aquamarineglamping.com/
광릉해오름캠핑장&글램핑,"일반야영장,글램핑",37.778773,127.146514,경기 포천시 소흘읍 광릉수목원로874번길 9,1,0,8,0,0,0,0,http://heorumps.com/
산중호걸 글램핑,"일반야영장,카라반,글램핑",38.0907243,127.3715966,경기 포천시 이동면 금강로6263번길 182-73,1,0,18,2,0,0,0,https://sjhkglamping.modoo.at/
(주)디노담양힐링파크 지점,"일반야영장,카라반,글램핑",35.2715103,126.961211,전남 담양군 봉산면 탄금길 9-26,2,0,22,2,4,3,2,http://xn--jk1bk1k8rgckfrnam9heta617d.kr/
랩도그빌애견캠핑장 ,자동차야영장,38.0079579,127.0801557,경기도 연천군 청창로200번길 33-0 ,2,0,0,0,1,1,1,http://lapdogvill.xyz/
명지산카라반오토캠핑장,"일반야영장,자동차야영장,카라반,글램핑",37.9814614,127.4474625,경기도 가평군 북면 적목리 ,2,0,15,26,5,5,5,http://mgocamping.com/
블루마운틴 ,"자동차야영장,카라반,글램핑",35.9641281,128.7408376,대구광역시 동구 능성동 산 47-1,2,0,7,1,9,9,1,http://bluemauntain.itrocks.kr/
흙집섬진강풍경 ,일반야영장,35.1848235,127.6306998,경상남도 하동군 화개면 덕은리 ,2,0,0,0,1,1,1,http://mudhouse.maan.kr/
MK골드캠프(골드펫리조트),"일반야영장,카라반,글램핑",37.2169109,127.1369537,경기도 용인시 기흥구 고매동 기흥단지로 398 ,2,0,17,3,2,2,2,http://www.noricamp.com/site/MK%20%EA%B3%A8%EB%93%9C%20%EC%BA%A0%ED%94%84
에이스카라반,"자동차야영장,카라반",37.1650174,127.2437891,경기 용인시 처인구 이동읍 이원로 547,2,0,0,5,2,2,2,http://www.acepensions.co.kr/
대덕산농원캠핑장 ,"일반야영장,글램핑",35.3492738,126.4505761,전남 영광군 법성면 대덕길2길 105,3,0,11,0,6,6,1,http://noricamp.com/site/%EB%8C%80%EB%8D%95%EC%82%B0%EB%86%8D%EC%9B%90%EC%BA%A0%ED%95%91%EC%9E%A5
오커빌리지,"자동차야영장,카라반,글램핑",37.5087212,127.5641006,경기도 양평군 용문면 연수리 ,3,0,2,5,2,1,1,http://www.ocher.co.kr/
프로방스펜션,"일반야영장,카라반,글램핑",35.331738,126.380373,전라남도 영광군 백수읍 해안로 677,3,0,3,0,2,2,1,https://pvg.modoo.at/
화니캠핑앤글램핑 ,"자동차야영장,글램핑",37.6467049,128.0343107,강원도 홍천군 동면 좌운리 120-1,3,0,10,0,2,2,1,http://www.hwaniglamping.co.kr/
동물카라반,"카라반,글램핑",37.747109,127.359949,경기 가평군 상면 임초밤안골로 313,3,0,5,3,0,0,0,http://www.xn--2q1b02ej2dgza95qi9ucii.com/default/
양평 플라워카라반펜션,"일반야영장,카라반",37.6461649,127.6170725,경기도 양평군 석산로 1543-9 ,3,0,0,6,0,0,0,http://xn--oi2ba456avvgmyh9lmcyi71c.com/Home/index
휴림,"일반야영장,카라반",37.4159894,127.4272904,경기 여주시 주어로 204,3,0,0,3,0,0,0,https://booking.naver.com/booking/3/bizes/159055
무도글램핑,"자동차야영장,글램핑",37.1718178,128.2619269,충북 제천시 송학면 무도리 573번지,4,0,7,0,1,1,2,http://www.xn--bj0b92iotdyted56b.com/main/index.html
햇살정원 제주캠핑&민박,일반야영장,33.2404153,126.6081516,제주특별자치도 서귀포시 보목동 보목포로65번길 6 ,4,0,0,0,1,1,1,https://cafe.naver.com/gottkfalsqkr
파인 글램핑 (파인 관광농원),"자동차야영장,글램핑",37.2143767,127.5317816,경기도 여주시 가남읍 신해리 ,4,0,10,0,2,2,1,https://www.pinenongwon.com/
형원레져 ,일반야영장,34.5271203,126.7666339,전남 강진군 도암면 월곶로 426,4,0,0,0,1,1,1,https://hwl.modoo.at/
대부도나라캠핑장,일반야영장,37.1997701,126.5603735,경기 안산시 단원구 장불길 31-23 (대부남동),4,0,0,0,0,0,0,http://www.narapension.co.kr/
해자연캠핑장,일반야영장,37.7017905,127.2640635,경기 남양주시 오남읍 팔현로175번길 310-60,4,0,0,0,0,0,0,https://booking.naver.com/booking/3/bizes/1648
별빛마루 야영장,일반야영장,36.2189407,127.271646,충남 논산시 벌곡면 대둔로 970,4,0,0,0,0,0,0,http://www.starrymaru.com/page/main.html
해오름 글램핑,"일반야영장,글램핑",37.7776565,127.146051,경기 포천시 소흘읍 광릉수목원로874번길 5,4,0,1,0,0,0,0,http://heorumps.com/
가우도카라반펜션,"일반야영장,카라반",34.5276559,126.7917474,전남 강진군 대구면 저두바닷길 3,5,0,0,6,2,2,3,http://www.gaudopension.com/
금오산힐링타운 ,"일반야영장,글램핑",36.10021,128.2757727,경상북도 김천시 남면 오봉리 ,5,0,19,0,3,1,1,http://herbtown.alltheway.kr/
논산 탑정호글램핑 ,일반야영장,36.1751734,127.1537943,충청남도 논산시 가야곡면 종연리 ,5,0,9,0,1,1,1,https://nonsancamping.modoo.at/
산아래 캠핑장 ,일반야영장,37.035477,128.6762554,경상북도 영주시 부석면 영부로890번길 132 ,5,0,0,0,2,2,2,https://booking.naver.com/booking/3/bizes/408220
어울림펜션 캠핑장,자동차야영장,37.1986218,128.3731132,강원 영월군 한반도면 문둔길 106,5,0,0,0,2,2,1,https://www.campingtalk.me/booking/camp/3384
아트앤 (원조캠핑장),"일반야영장,자동차야영장",35.5307228,129.0097777,울산광역시 울주군 상북면 이천리 ,5,0,0,0,1,1,1,https://artandcamp.modoo.at/
힐링아일랜드 글램핑,"일반야영장,글램핑",34.8289692,127.9873806,경남 남해군 삼동면 지족리 1149-2번지,5,0,17,0,1,1,0,http://xn--bj0b23klocpbz0oh4zvudrr0bwpe.com/
꽃내라팜,일반야영장,38.349023,128.426997,강원도 고성군 간성읍 꽃내마루길 75 ,5,0,0,0,1,1,1,http://www.peacefarm.net/
골체오름캠핑 ,자동차야영장,33.4516147,126.7049375,제주특별자치도 제주시 조천읍 선흘리 ,6,0,0,0,1,1,2,https://www.gocamping.or.kr/bsite/camp/info/read.do?c_no=299&viewType=read01
물한계곡소나무펜션,"자동차야영장,카라반",36.0621547,127.8750004,충북 영동군 상촌면 물한6길 8-1,6,0,0,0,2,2,1,https://sonamoopension.modoo.at/
비학산자연휴양림 ,"일반야영장,카라반",36.1474462,129.2108045,경상북도 포항시 북구 기북면 탑정리 ,6,0,0,5,4,4,2,https://www.foresttrip.go.kr/indvz/main.do?hmpgId=ID02030052
수희재 캠프,자동차야영장,37.350745,128.279203,강원도 영월군 무릉도원면 법흥리 97-2,6,0,0,0,1,1,1,https://booking.naver.com/booking/3/bizes/389719
아담펜션&캠핑장,"자동차야영장,글램핑",37.8653684,127.5566167,경기도 가평군 개곡리 382-3 외 1필지,6,0,0,0,2,2,2,https://www.gocamping.or.kr/bsite/camp/info/read.do?c_no=1960&viewType=read03
얏호캠핑장,자동차야영장,37.5877754,126.5120391,인천 광역시 강화군 길상면 동검길 159-27,6,0,0,0,2,2,2,https://blog.naver.com/tank5599
올리브 그린 펜션 글램핑,글램핑,37.3335076,128.2825981,강원도 영월군 수주면 무릉법흥로 852-24 ,6,0,4,0,1,1,2,http://www.analoger.co.kr/
용추돌모리캠핑장,일반야영장,35.6742764,127.7833354,경상남도 함양군 안의면 하원리 1565-1번지 ,6,0,0,0,4,3,1,https://cafe.naver.com/green8n6ph
어거스트캠핑장,일반야영장,37.8181789,127.2275313,경기 포천시 가산면 우금3길 142-29,6,0,0,0,0,0,0,https://booking.naver.com/booking/3/bizes/267090
늘편한캠핑장,"자동차야영장,카라반",37.864023,128.1067125,강원도 홍천군 두촌면 괘석리 421-1,7,0,0,3,0,0,0,https://ahealingcamping.modoo.at/
돌집야영장(문기석) ,자동차야영장,38.0226318,127.8058815,강원도 화천군 간동면 춘양로 777-9 ,7,0,0,0,1,1,2,https://gocamping.or.kr/bsite/camp/info/read.do?c_no=859
백야자연휴양림 오토캠핑장 ,자동차야영장,36.9563721,127.6086301,충청북도 음성군 금왕읍 백야리 ,7,0,0,0,2,2,1,https://www.foresttrip.go.kr/pot/rm/fa/selectCmpgrArmpListView.do?hmpgId=ID02030016&menuId=002002002
천하마을야영장 ,일반야영장,34.7242982,128.0132576,경남 남해군 미조면 송정리 1379 외2 ,7,0,0,0,1,1,1,https://gocamping.or.kr/bsite/camp/info/read.do?c_no=2873
청평다감캠핑장 ,자동차야영장,37.7107695,127.4821699,경기도 가평군 호반로 886 ,7,0,0,0,3,2,2,https://pscamping.modoo.at/
화왕산자연휴양림 ,일반야영장,35.5419122,128.5649672,경상남도 창녕군 고암면 감리 ,7,0,0,0,1,1,1,https://www.foresttrip.go.kr/indvz/main.do?hmpgId=ID02030015
가야경 오토캠핑장 ,"일반야영장,카라반",35.851937,128.1192188,경상북도 성주군 가천면 용사리 ,7,0,0,3,3,2,2,http://www.gayagyeong.co.kr/
백운힐링 캠핑장 ,일반야영장,38.0762131,127.4182271,경기도 포천시 이동면 도평리 26 ,7,0,0,0,2,2,3,https://www.gocamping.or.kr/bsite/camp/info/read.do?c_no=7151&viewType=read01
캠플레이,자동차야영장,37.7807003,127.2887655,상서면 갈목길,7,0,0,0,1,0,10,https://cafe.naver.com/campplay3333
마곡사힐링캠프,일반야영장,36.5613582,127.0376832,충청남도 공주시 사곡면 회학리 ,8,0,0,0,1,1,2,http://xn--399a57vta171evya469cf5h7pdzvg.com/
사지목 나무그늘 ,일반야영장,35.3948556,128.9470211,경상남도 양산시 원동면 내포리 ,8,0,0,0,1,0,1,https://www.gocamping.or.kr/bsite/camp/info/read.do?c_no=1467&viewType=read01
성당포구금강체험관야영장,일반야영장,36.1306862,126.9213199,전라북도 익산시 성당면 성당리 ,8,0,0,0,1,1,1,https://www.gocamping.or.kr/bsite/camp/info/read.do?c_no=1684&viewType=read01
솔방울캠핑장,자동차야영장,38.1943958,128.3350852,강원도 인제군 북면 만해로 307 ,8,0,0,0,1,1,2,http://www.sol114.com/
청도감꽃 국민여가캠핑장 (청도군농촌체험관광센터 아가야 체험가자),"일반야영장,카라반",35.6126733,128.8223722,경상북도 청도군 매전면 청매로 825,8,0,0,4,2,2,2,https://www.gocamping.or.kr/bsite/camp/info/read.do?c_no=2894&viewType=read01
프린세스 캠핑장,일반야영장,36.4759817,127.124494,충청남도 공주시 신관동 ,8,0,0,0,1,1,1,https://www.gocamping.or.kr/bsite/camp/info/read.do?c_no=3320&viewType=read01
해오름펜션야영장,자동차야영장,35.3868598,126.991175,전남 담양군 용면 월계길 50,8,0,0,0,2,2,1,http://www.sunps.kr/
욜로캠프,"자동차야영장,카라반,글램핑",37.987266,127.0211427,경기 연천군 전곡읍 양원로 108-37,8,0,6,3,1,1,1,https://booking.naver.com/booking/3/bizes/246181
(주)태평소금 천일염 힐링캠프,일반야영장,34.9968071,126.1776166,전라남도 신안군 증도면 지도증도로 1053-11 ,9,0,0,10,1,1,2,https://site.onda.me/6748
강당골캠핑파크,일반야영장,36.7162118,127.0159079,충남 아산시 송악면 강당로 187-17,9,0,0,0,4,2,2,http://camping.designtu.kr/
봉바위농원 ,자동차야영장,37.7406333,126.6113229,경기도 김포시 하성면 평화공원로70번길 290-97 ,9,0,0,0,1,1,1,https://cafe.naver.com/tlsg001
숲속캠핑장 ,일반야영장,36.9963374,128.7306273,경상북도 봉화군 물야면 오록리 ,9,0,0,0,1,1,1,https://cafe.naver.com/supsokcamp
칠갑산도림휴게소캠핑장 ,"일반야영장,글램핑",36.3926819,126.898002,충청남도 청양군 장평면 적곡리 ,9,0,0,0,2,2,2,https://blog.naver.com/dlen2795
플레이랜드 캠핑장,자동차야영장,37.7557045,126.9091064,경기도 파주시 광탄면 보광로 538번길 21,9,0,0,1,2,2,1,https://www.gocamping.or.kr/bsite/camp/info/read.do?c_no=3323&viewType=read01
마검포 힐링캠핑장 ,"일반야영장,글램핑",36.609231,126.2907009,충청남도 태안군 남면 마검포길 313-30 ,9,0,13,0,1,1,1,http://healingcamping.net/page/main.html
깊이울유원지 캠핑장,"일반야영장,카라반",37.9238045,127.1753182,경기 포천시 신북면 깊이울로 71,9,0,0,7,3,1,2,http://gipiulvillage.co.kr/default/main/main.php
알파고글램핑,"자동차야영장,글램핑",37.8220186,127.3204562,경기 가평군 상면 청군로 1565,9,0,7,0,4,2,6,https://alphago.modoo.at/
청포대숲속야영장,일반야영장,36.6397846,126.3045466,충남 태안군 남면 청포대길 32-8,9,0,0,0,0,0,0,http://01084871552.wazzang.com/
가은해솔캠핑장,일반야영장,36.7005829,128.0186437,경상북도 문경시 가은읍 원북리 177-6,10,0,0,0,4,2,1,https://gocamping.or.kr/bsite/camp/info/read.do?c_no=86
가평 사과나무 캠핑장 ,자동차야영장,37.7895015,127.358428,경기도 가평군 상면 항사리 ,10,0,0,0,2,2,6,https://cafe.naver.com/appletreecamping
늘솔길캠핑촌 ,일반야영장,36.0652321,129.159661,경상북도 포항시 북구 기계면 봉계리 ,10,0,0,0,1,1,1,https://nscamping.modoo.at/
담터오지캠핑장,일반야영장,38.1656895,127.1878004,경기도 포천시 관인면 삼율리 40-1번지,10,0,0,0,1,1,1,http://www.ojicamping.com/
대호레져글램핑 ,"자동차야영장,글램핑",37.0090121,128.0490433,충청북도 충주시 동량면 지동리 ,10,0,6,0,2,4,2,http://daehopension.co.kr/
더숲관광농원캠핑장,일반야영장,37.6272648,126.4875571,인천광역시 강화군 길상면 선두리 ,10,0,0,0,6,4,6,https://cafe.naver.com/thesoupcamp
둥지캠핑장,"자동차야영장,글램핑",37.6011132,127.531371,경기 가평군 설악면 묵안로 976-62,10,0,41,0,2,2,10,http://www.xn--2u1b287agqbwwiztj.com/
러브팩토리펜션캠핑장,자동차야영장,37.3197186,128.679724,강원도 정선군 남면 낙동리 ,10,0,0,0,2,1,1,https://cafe.naver.com/amasjj
물마루 캠핑장 ,자동차야영장,37.3121647,128.1800362,강원도 영월군 수주면 두산리 ,10,0,0,0,2,2,1,https://cafe.naver.com/mulmarucamping
봉화구마낚시야영장 ,일반야영장,36.9500136,128.9975815,경상북도 봉화군 소천면 현동리 ,10,0,0,0,1,1,2,https://www.gocamping.or.kr/bsite/camp/info/read.do?c_no=1387
산정호수 가족글램핑장 ,"일반야영장,글램핑",38.066029,127.3167571,경기도 포천시 영북면 산정호수로411번길 13 ,10,0,10,2,1,1,1,http://www.xn--zf4buzn5kvnq.com/default/prologue/prologue_01.php
쌍곡예당 ,일반야영장,36.7456517,127.9024229,충청북도 괴산군 칠성면 쌍곡리 ,10,0,0,0,2,2,2,http://r.camperstory.com/resMain.hbb?reserve_path=RP&campseq=2219
약수농원,"일반야영장,카라반",35.5532499,128.5705796,경남 창녕군 고암면 감리 317,10,0,0,0,1,1,1,http://r.camperstory.com/resMain.hbb?reserve_path=RP&campseq=3296
어름치마을캠핑장,"자동차야영장,카라반",37.2925072,128.5416306,강원도 평창군 미탄면 마하길 42-5,10,0,0,6,1,1,1,http://www.mahari.kr/theme/websre21/shop/sub4_2.php?top=4&sub=2
오수애견캠핑장 ,"일반야영장,카라반",35.5410205,127.3336365,전라북도 임실군 오수면 금암리 ,10,0,0,8,2,1,2,https://cafe.naver.com/osucamping
모드니애캠핑장펜션,자동차야영장,37.1655767,128.1096115,충청북도 제천시 봉양읍 제원로 528 ,10,0,0,0,2,2,2,http://xn--9y5bi6fiyb8vl.com/
천문대 별빛정원 ,일반야영장,36.1509808,128.9965764,경상북도 영천시 화북면 정각길 150 ,10,0,0,0,4,4,2,https://cafe.naver.com/star1566
천하장사골야영장 ,일반야영장,35.3814083,128.1756466,"경남 의령군 대의면 신전리 276,277 ",10,0,0,0,1,1,1,https://www.gocamping.or.kr/bsite/camp/info/read.do?c_no=2874&viewType=read01
첫물내기야영장 ,자동차야영장,37.3178616,128.2603527,강원 영월군 무릉도원면 무릉법흥로 516,10,0,0,0,1,1,1,https://cafe.naver.com/cmng727
펜션벨뷰캠핑장,자동차야영장,37.6627056,128.3074941,강원도 평창군 봉평면 흥정리 82번지 ,10,0,0,0,10,10,4,http://natureworld.penbang.com/
포레스트소울 ,자동차야영장,37.8917181,127.3683603,경기 가평군 조종면 명지산로 206-7,10,0,0,0,2,2,5,https://gocamping.or.kr/bsite/camp/info/read.do?c_no=3254
호반 캠핑장,"자동차야영장,카라반,글램핑",37.9339721,127.7178084,강원도 춘천시 신동 970-1번지,10,0,6,2,2,1,2,http://hobancamping.com/contents/main.html
백사장사계절 숲속야영장,일반야영장,36.579401,126.313817,충남 태안군 안면읍 창기리 1292-10번지,10,0,0,0,1,0,1,http://xn--989an60allda04ij2ab6r47cfa00hv44ckpibpm.gajagaja.co.kr/
동강아름캠프 ,자동차야영장,37.1152828,128.6413563,강원도 영월군 김삿갓면 외룡리 ,10,0,0,0,1,1,1,https://swcamp.modoo.at/
엘림펜션 오토캠핑장 ,일반야영장,36.9124691,128.1186009,충청북도 제천시 덕산면 월악산로2길 70-17 ,10,0,0,0,4,2,4,https://elimps.modoo.at/
올래캠핑장 ,자동차야영장,37.5924611,127.5117841,경기 가평군 설악면 어비산길 203,10,0,0,0,4,2,3,https://ddoolleh.itpage.kr/
유명산밸리 캠핑장 ,자동차야영장,37.5933173,127.4899222,경기 가평군 설악면 유명산길 79-28,10,0,0,0,4,2,4,https://www.gocamping.or.kr/bsite/camp/info/read.do?c_no=7194&viewType=read01
은하캠핑장 ,자동차야영장,37.8428257,127.5087902,경기 가평군 가평읍 잎너비길 18-91,10,0,0,0,2,2,6,https://booking.naver.com/booking/3/bizes/83706/search
주작산자연휴양림 야영장,일반야영장,34.5151967,126.6861219,전남 강진군 신전면 주작산길 262,10,0,0,0,1,1,1,https://www.foresttrip.go.kr/pot/rm/fa/selectCmpgrArmpListView.do?hmpgId=ID02030060&menuId=002002002
청포대 휴 야영장,일반야영장,36.6397842,126.3019994,충남 태안군 남면 청포대길 63-6,10,0,0,0,0,0,0,http://xn--vk1bn50bmudc8bxxkj8bt2e.com/
낙동강레포츠밸리구지오토캠핑장,"일반야영장,카라반",35.671999,128.371533,대구광역시 달성군 구지면 구지서로 199 ,11,0,0,12,2,1,1,http://www.dssiseol.or.kr/pages/sisul/page.html?mc=1193
부재산방 캠핑장,일반야영장,35.1524195,128.406657,경남 창원시 마산합포구 진전면 미천2길 148,11,0,0,0,1,1,2,https://bujae.modoo.at/
성주자연오토캠핑장 ,일반야영장,35.8683648,128.1630932,경상북도 성주군 가천면 화죽리 ,11,0,0,0,2,2,4,https://sjnature.campingt.me/2324/home/index
써니아일랜드 야영장,일반야영장,34.5050012,127.7812864,전라남도 여수시 남면 금오로 1139 ,11,0,0,0,2,2,1,https://blog.naver.com/sunnysugar1139
와라캠핑장 ,자동차야영장,37.8753319,128.2798607,강원도 인제군 상남면 내린천로 2181,11,0,0,0,1,1,1,https://waracamping.modoo.at/
월포해수욕장야영장 ,일반야영장,34.7671729,127.9050428,경상남도 남해군 남면 석교리 ,11,0,0,0,2,2,2,https://www.gocamping.or.kr/bsite/camp/info/read.do?c_no=2498&viewType=read01
마노힐링캠프,"일반야영장,카라반",37.1977373,127.2732285,경기 용인시 처인구 동부로729번길 112 (해곡동),11,0,0,11,0,0,0,https://goormsan.modoo.at/
갈기산펜션캠핑장 ,자동차야영장,37.5594165,127.7882815,경기도 양평군 청운면 신론리 ,12,0,0,0,1,1,1,http://galgisanpensioncamp.com/
구름포해수욕장카라반,"일반야영장,카라반,글램핑",36.8354752,126.1537895,충청남도 태안군 소원면 의항리 ,12,0,16,10,1,2,2,http://lespia.net/?intro=OK
국립검마산자연휴양림,일반야영장,36.7454151,129.2332593,경북 영양군 수비면 검마산길 191 ,12,0,0,0,2,1,2,https://www.foresttrip.go.kr/indvz/main.do?hmpgId=0184
노동오토캠핑장 ,자동차야영장,36.9559257,128.3734499,충청북도 단양군 단양읍 노동리 ,12,0,0,0,2,2,1,https://autorok.modoo.at/
달이머무는집 ,일반야영장,36.2324502,127.8892665,충청북도 영동군 황간면 월류봉길 57 ,12,0,0,0,4,2,1,https://blog.naver.com/moonstayhous
돌담캠핑장,"일반야영장,글램핑",35.1359472,128.5167768,경상남도 창원시 마산합포구 진동면 인곡리 ,12,0,9,0,1,1,1,https://doldamcamping.modoo.at/
두리캠핑장,일반야영장,37.3539309,127.5070566,경기도 여주시 이여로 778-10,12,0,0,0,1,1,1,https://duricamp.modoo.at/
벳소캠프 ,자동차야영장,37.4321541,128.1062214,강원도 횡성군 우천면 오원리 ,12,0,0,0,1,1,1,https://cafe.naver.com/betsocamp
산내들민박&오토캠핑장,일반야영장,37.114044,128.1120619,충청북도 제천시 국사봉로 260-0 ,12,0,0,0,1,1,1,http://www.xn--220bl3f24m34nz1h.com/
산내별빛오토캠핑장 ,일반야영장,35.6640559,129.058118,경상북도 경주시 산내면 대현리 ,12,0,0,0,1,1,1,http://www.starlightcamp.kr/
산내편안관광농원,일반야영장,35.7578172,129.0410068,경상북도 경주시 산내면 외칠리 ,12,0,0,0,2,2,2,https://cafe.naver.com/vusdkszoavld
산청별천지캠핑장,일반야영장,35.3329003,127.8949944,경상남도 산청군 단성면 호암로701번길 139,12,0,0,0,2,1,2,https://cafe.naver.com/byeolcheonji
샘골솔밭야영장,자동차야영장,37.8337987,128.475875,강원도 홍천군 내면 광원리 ,12,0,0,0,1,1,3,https://blog.naver.com/bks5487
석양마을 주포,일반야영장,35.0947361,126.4630334,전라남도 함평군 함평읍 주포로 403-6,12,0,0,0,1,1,1,https://jupo.modoo.at/
설래림야영장,자동차야영장,37.4682203,128.9368805,강원도 정선군 임계면 내도전길 418,12,0,0,0,1,2,2,https://seolcamp.modoo.at/
섬뜰아래 ,자동차야영장,37.3961219,126.4248224,인천광역시 중구 대무의로 229 ,12,0,0,0,2,2,1,http://www.xn--ig2bths6x29d.com/
섬진강 마실휴양숙박시설단지,"일반야영장,카라반",35.45899,127.2024421,전라북도 순창군 적성면 강경길 76-165 ,12,0,0,3,1,1,1,https://blog.naver.com/happyinki1
숲속 동키마을 캠핑장 ,자동차야영장,37.6407663,127.8054067,강원도 홍천군 홍천읍 며느리고개길 148-18 ,12,0,0,0,1,1,1,http://www.donkeycastle.com/
신불산폭포 자연휴양림 ,자동차야영장,35.5415204,129.0217459,울산광역시 울주군 상북면 청수골길 175 ,12,0,0,0,1,1,1,https://www.foresttrip.go.kr/indvz/main.do?hmpgId=0105
지리산 숲속의 쉼터,일반야영장,35.2824202,127.7208856,경상남도 산청군 시천면 세석길 195-15,12,0,0,0,2,2,2,https://jirisanshelterwoods.modoo.at/
행복숲 체험원 ,자동차야영장,37.0289848,127.7553375,충청북도 충주시 노은면 우성1길 191 ,12,0,0,0,1,1,1,https://www.cjfmc.or.kr/hbf/index.do
백운계곡캠핑장 ,일반야영장,35.2951495,127.8875797,경상남도 산청군 단성면 백운로 51본길,12,0,0,0,1,1,2,https://www.gocamping.or.kr/bsite/camp/info/read.do?c_no=7150
스마일캠핑장,자동차야영장,37.6458616,127.6176689,경기도 양평군 단월면 석산리 ,12,0,0,0,1,1,2,http://smilecamping.co.kr/
연지곤지 캠핑장 ,일반야영장,35.6735432,128.9994893,경상북도 청도군 운문면 신원리 301-12 ,12,0,0,0,4,2,1,https://cafe.daum.net/ygcamping
엄둔솔밭빌리지,일반야영장,37.299824,128.233115,강원도 영월군 수주면 도원운학로 376 ,12,0,0,0,3,2,4,http://www.solbatvillage.co.kr/
휴일엔캠핑,일반야영장,35.7917283,127.7891925,경남 거창군 북상면 병곡길 187번지,12,0,0,0,2,8,8,http://www.holidayn.co.kr/
금다래캠핑장 ,"일반야영장,자동차야영장",37.9500696,127.533725,경기 가평군 북면 화악산로 1087-24,12,0,0,0,3,2,4,https://cafe.naver.com/1234camping/
DMZ캠핑장 ,자동차야영장,38.2201219,127.1806653,강원도 철원군 철원읍 독서당길 225-134 ,13,0,0,0,1,1,2,https://www.gocamping.or.kr/bsite/camp/info/read.do?c_no=39
㈜씨스테이 야영장 ,자동차야영장,37.2801027,126.4683211,인천광역시 옹진군 영흥면 내리 ,13,0,0,0,2,2,2,https://gocamping.or.kr/bsite/camp/info/read.do?c_no=66
태백산 고원자연휴양림 야영장,일반야영장,37.1292651,129.0685628,강원도 태백시 철암동 머리골길 153 ,13,0,0,0,1,0,1,https://www.foresttrip.go.kr/indvz/main.do?hmpgId=ID02030022
내리금봉캠핑장 ,자동차야영장,37.1089277,128.6718332,강원도 영월군 김삿갓면 내리계곡로 1146 ,13,0,0,0,1,1,1,https://blog.naver.com/nrvalley
별드림캠핑장 ,일반야영장,37.8724804,127.5657964,경기도 가평군 가평읍 개곡리 ,13,0,0,0,3,5,3,https://cafe.naver.com/50286019
보성드림캠핑장 ,일반야영장,34.7031175,127.1883822,전라남도 보성군 득량면 공룡로 751,13,0,0,2,1,1,5,https://dreamcam.modoo.at/
상주보 캠프존 휴 ,"일반야영장,글램핑",36.4564624,128.2523191,경상북도 상주시 도남동 ,13,0,6,0,2,2,1,https://cafe.naver.com/camphue
아날로그데이,자동차야영장,36.0499435,128.6547756,경상북도 군위군 부계면 원효길 1,13,0,2,0,2,2,1,http://analogday.co.kr/
월악산광천민박펜션 ,일반야영장,36.8831031,128.1503074,충청북도 제천시 덕산면 월악리 ,13,0,0,0,4,2,2,https://blog.naver.com/solnemi
이태백 야영장 ,일반야영장,36.8421876,126.1595539,충청남도 태안군 소원면 송의로 809-68 ,13,0,0,0,2,2,2,https://www.gocamping.or.kr/bsite/camp/info/read.do?c_no=2562&viewType=read01
칡소폭포 캠핑장 ,자동차야영장,37.8234056,128.4536264,강원도 홍천군 내면 을수길 27 ,13,0,0,0,2,2,1,https://blog.naver.com/heo4387
캄파슬로우캠핑장,자동차야영장,37.2735112,127.9490077,강원도 원주시 판부면 서곡리 ,13,0,2,0,1,1,1,https://campaslow2014.modoo.at/
파라다이스캠핑장,자동차야영장,37.8912754,127.1276105,"경기도 동두천시 탑신로 368(탑동동 208-6, 207-5)",13,0,0,0,1,1,1,http://www.campingparadise.co.kr/default/
하랑캠핑장,자동차야영장,37.7256645,126.4171552,인천 강화군 내가면 고천리 1259-14번지,13,0,0,0,1,1,3,https://booking.naver.com/booking/3/bizes/107951/search
국립지리산 자연휴양림 ,일반야영장,35.3470909,127.642338,경상남도 함양군 마천면 마천삼정로 1256 ,14,0,0,0,1,1,1,https://www.foresttrip.go.kr/indvz/main.do?hmpgId=0190
국망봉 자연휴양림캠핑장,일반야영장,38.0258175,127.4025027,경기도 포천시 이동면 장암리 산74,14,0,0,0,4,1,4,https://cafe.naver.com/kookmang
누룽지,일반야영장,35.4267609,126.9990666,전라남도 담양군 용면 추월산로 1316 ,14,0,0,0,1,2,3,https://cafe.naver.com/nooroongjicamping/
덕유산700휠링캠프(무주 네버랜드내),"일반야영장,카라반",35.876952,127.822151,전라북도 무주군 무풍면 삼거리 ,14,0,0,3,1,1,4,http://wap.noricamp.com/site/%EB%8D%95%EC%9C%A0%EC%82%B0700%ED%9C%A0%EB%A7%81%EC%BA%A0%ED%94%84(%EB%AC%B4%EC%A3%BC%20%EB%84%A4%EB%B2%84%EB%9E%9C%EB%93%9C%EB%82%B4)
두메관광농원 ,자동차야영장,37.3751652,129.0683002,강원 삼척시 미로면 준경길 459,14,0,0,0,3,2,2,https://blog.naver.com/electopi
든해솔 계곡캠핑장,일반야영장,35.4026731,127.9639396,경상남도 산청군 신등면 정곡척지로 475번길 142-12,14,0,0,0,0,0,0,http://xn--ly1by4vdqp.com/
로하스캠핑,일반야영장,35.5338423,127.0819153,전라북도 정읍시 산내면 종성리 662,14,0,0,15,1,1,1,https://golohas.kr/
봉황산자연휴양림 야영장,일반야영장,34.6147024,127.7617999,전라남도 여수시 돌산읍 신복리 ,14,0,0,0,1,1,1,https://www.foresttrip.go.kr/indvz/main.do?hmpgId=ID02030097
소풍가는날펜션 오토캠핑장 ,자동차야영장,37.196086,127.983682,충청북도 제천시 백운면 덕동로 131 ,14,0,0,0,2,2,2,http://www.ddpicnic.com/
송정솔바람야영장 ,일반야영장,34.7230795,128.023,경남 남해군 미조면 미송로 483,14,0,0,0,2,1,1,https://gocamping.or.kr/bsite/camp/info/read.do?c_no=1797
웨스턴캠프,,36.8329734,127.012013,충청남도 아산시 음봉면 충무로604번길 12 ,14,0,0,0,2,2,2,https://cafe.daum.net/westerncamp
은해사권역 은해로운 휴양마을 캠핑장 ,일반야영장,35.991146,128.8011458,경상북도 영천시 청통면 치일리 ,14,0,0,0,2,2,1,https://www.gocamping.or.kr/bsite/camp/info/read.do?c_no=2541&viewType=read01
화천 휴캠핑장 ,자동차야영장,38.1187675,127.7240959,강원도 화천군 화천읍 중리 ,14,0,0,0,1,1,2,https://huepark88.modoo.at/
거창 국민여가캠핑장 ,자동차야영장,35.7612032,127.7240007,경상남도 거창군 북상면 덕유월성로 1312-96,14,0,0,0,2,2,2,https://gccamp.kr:59427/index.htm
주작산 별소리캠핑장 ,"일반야영장,글램핑",34.5143097,126.7030382,전남 강진군 신전면 삼인길 102-79,14,0,8,0,2,1,4,http://www.xn--oy2bp0d6yf.kr/
강촌포도펜션&캠핑장,자동차야영장,37.808534,127.5729974,강원도 춘천시 남산면 백양리 ,15,0,0,0,2,2,1,https://podops.modoo.at/
고라데이마을,일반야영장,37.6489313,128.1392439,강원도 횡성군 청일면 봉명리 ,15,0,0,0,1,1,2,https://goraday.modoo.at/
농업회사법인주식회사 긴들마당,일반야영장,37.7487741,128.0607696,강원도 홍천군 화촌면 구룡령로 1199 ,15,0,0,0,2,2,2,https://cafe.naver.com/ginduel
늘푸른펜션캠핑장,일반야영장,37.1078541,128.6755331,강원도 영월군 김삿갓면 내리계곡로 1116-4 ,15,0,0,0,1,1,1,http://www.egreenpension.kr/
다람쥐 쉼터 ,일반야영장,36.0296611,127.3485769,전라북도 완주군 운주면 금고당로 1016 ,15,0,0,0,2,2,2,http://www.daramg.kr/
마방캠핑장 ,일반야영장,36.9895827,128.9605563,경상북도 봉화군 소천면 고선리 510,15,0,0,0,1,1,1,https://www.gocamping.or.kr/bsite/camp/info/read.do?c_no=1016&viewType=read01
캠핑플래닛 (구 명덕 관광농원),"일반야영장,글램핑",37.8868061,127.2853634,경기도 포천시 화현면 명덕리 ,15,0,16,0,1,1,1,https://gocamping.or.kr/bsite/camp/info/read.do?c_no=1057
밤별생각 낮달이야기,자동차야영장,37.213017,127.958008,충북 제천시 백운면 덕동리 산 21-9,15,0,0,0,2,4,2,https://blog.naver.com/byeoldal275
별빛두레펜션 캠핑장,자동차야영장,35.855211,127.4279539,전라북도 진안군 석원로 24-0 석정휴게소 ,15,0,0,0,2,2,2,http://xn--hu1bo4emykn4s.com/
산애 캠핑장,일반야영장,35.6413353,127.7413647,경상남도 함양군 서하면 우전길 112-2 ,15,0,0,0,2,2,6,https://cafe.naver.com/sanaecamp
살둔산장 ,자동차야영장,37.8314424,128.3691494,강원도 홍천군 살둔길 30-15 ,15,0,0,0,2,2,2,http://www.saldun.co.kr/
삼산야영장 ,자동차야영장,37.8458423,128.6808832,강원도 강릉시 연곡면 삼산리 ,15,0,0,0,1,1,2,https://www.gocamping.or.kr/bsite/camp/info/read.do?c_no=1551&viewType=read04
샬롬빌리지 캠핑장 ,자동차야영장,37.6979763,128.4757375,강원도 평창군 용평면 노동리 ,15,0,0,0,1,1,2,https://www.gocamping.or.kr/bsite/camp/info/read.do?c_no=1605&viewType=read01
서천 금빛노을 서울캠핑장,일반야영장,36.0455656,126.7189118,충청남도 서천군 장선리 128-3,15,0,0,0,2,2,1,https://www.gocamping.or.kr/bsite/camp/info/read.do?c_no=1628&viewType=read01
선달산계곡캠핑장,일반야영장,37.0357641,128.6765205,영주시 부석면 영부로 890번길 61-50,15,0,0,0,2,2,2,https://sundalsan.modoo.at/
소석힐링캠핑장,일반야영장,35.404333,129.0516327,경상남도 양산시 상북면 소석리 163번지,15,0,0,0,1,1,1,http://xn--9y2bp8krjg2sjvjxnk61d.com/
승봉도 캠핑장,"자동차야영장,카라반",37.1686608,126.3087528,인천광역시 옹진군 자월면 승봉리 ,15,0,0,3,1,1,1,https://seungbongcamp.modoo.at/
염포야영장,일반야영장,34.4306314,127.4944808,전라남도 고흥군 봉래면 우주로 3844 ,15,0,0,0,1,1,1,https://reservation.knps.or.kr/information/campInfo.action?seqId=B091003
참숯골 캠핑장 ,일반야영장,36.9514895,126.6232276,충청남도 당진시 고대면 보덕포로 545 ,15,0,0,0,2,2,1,https://www.gocamping.or.kr/bsite/camp/info/read.do?c_no=2848&viewType=read01
청옥야영장,일반야영장,36.947636,128.997699,경상북도 봉화군 소천면 현동리 744-6,15,0,0,0,2,1,1,https://www.foresttrip.go.kr/indvz/main.do?hmpgId=0183
춘천Believing(빌리빙)캠핑장 ,자동차야영장,37.9767025,127.6278216,강원도 춘천시 사북면 지암리 ,15,0,0,0,1,1,1,http://www.cccamp.kr/
툇골 캠핑장 ,자동차야영장,37.9353909,127.6578864,강원도 춘천시 툇골길 413-52 ,15,0,0,0,1,1,1,https://booking.naver.com/booking/3/bizes/496339
파피루스 캠핑장 ,"일반야영장,글램핑",38.0267957,127.2820284,경기도 포천시 영중면 성동리 75 ,15,0,10,0,2,3,2,https://papyruscamp.modoo.at/
피플앤독 힐링캠핑장 ,일반야영장,36.6453291,126.872565,충남 예산군 신양면 귀곡동절길 28-1,15,0,0,0,1,1,1,https://cafe.naver.com/doghealingcamp
하늘바다캠핑장,"일반야영장,글램핑",34.6916236,126.1465239,전라남도 신안군 안좌면 존포길 234-63,15,0,5,0,2,2,4,https://cafe.naver.com/polarisleisure
한마음오토캠핑장 ,일반야영장,36.4232666,126.3608963,충청남도 태안군 고남면 장곡리 ,15,0,0,0,2,3,2,http://1maum.anmyondo.kr/
별빛마을,일반야영장,35.694051,128.971636,"경북 청도군 운문면 오진리 1007 외2 (1007-1 , 998-12)",15,0,0,0,1,1,1,https://www.ansanstar.net/
명돈골 캠핑장 ,"일반야영장,자동차야영장",37.9674803,127.4588927,경기 가평군 북면 논남기길 19-36,15,0,0,0,4,2,12,http://www.mdgolcamp.co.kr/
공릉관광지 캠핑장 ,"자동차야영장,카라반",37.7498499,126.8335561,경기도 파주시 조리읍 장곡로 218 ,16,0,0,10,2,2,2,https://www.gocamping.or.kr/bsite/camp/info/read.do?c_no=306&viewType=read01
녹색 오토캠핑장,일반야영장,36.6701762,127.9867937,경상북도 문경시 가은읍 대야로 1560 ,16,0,0,0,2,2,2,https://greenautocamp.modoo.at/
농업회사법인 주식회사 봉산권역 (봉산극기체험권역캠핑장),일반야영장,35.9300896,129.4821544,경상북도 포항시 남구 장기면 창지리 ,16,0,0,0,2,2,1,http://www.bongsan.kr/html/index.php
달자캠핑장 ,일반야영장,36.0927391,127.9073245,충청북도 영동군 상촌면 대해길 239-58 ,16,0,0,0,8,2,1,https://cafe.naver.com/daljacamping.cafe
비학농원캠핑장 ,자동차야영장,37.8911692,126.9144968,경기도 파주시 만월로613번길 217-0 ,16,0,0,0,4,2,2,http://xn--980b34vutgmyaj9wxnkrb.kr/
진경원민박캠핑장 ,일반야영장,36.817898,126.6811,충청남도 당진시 순성면 양유리 ,16,0,0,0,2,2,2,https://booking.naver.com/booking/3/bizes/262386
포천이동 생태공원 캠핑장 ,일반야영장,38.0413855,127.3686896,경기도 포천시 이동면 성장로,16,0,0,0,1,1,1,https://www.gocamping.or.kr/bsite/camp/info/read.do?c_no=3286&viewType=read01
스톤밸리캠핑장,일반야영장,37.8589316,127.0814725,경기 양주시 칠봉산로228번길 126-5 (봉양동),16,0,0,0,6,4,1,https://cafe.naver.com/bongyanstonevalley
더엠캠프(엠글램핑),"일반야영장,글램핑",37.632977,127.475518,경기도 가평군 설악면 천안리 714-1번지 외 8필지,16,0,3,0,1,1,8,https://gocamping.or.kr/bsite/camp/info/read.do?c_no=7020
계명산 자연휴양림 ,일반야영장,36.4131868,128.9472567,경상북도 안동시 길안면 고란리 ,17,0,0,0,0,0,0,https://www.foresttrip.go.kr/indvz/main.do?hmpgId=ID02030042
고인돌 펜션/캠핑장 (고인돌 오토캠핑장),자동차야영장,37.7524155,128.0009542,강원도 홍천군 화촌면 구룡령로 578-10 ,17,0,0,0,1,1,2,http://dhc34.co.kr/
국립낙안민속자연휴양림야영장,일반야영장,34.9140201,127.3539854,전라남도 순천시 낙안면 민속마을길 1600 ,17,0,0,0,2,1,1,https://www.foresttrip.go.kr/pot/rm/fa/selectCmpgrArmpListView.do?hmpgId=0200&menuId=002002002
대기리산촌체험학교야영장,자동차야영장,37.5879453,128.7770882,강원도 강릉시 왕산면 대기리 953번지,17,0,0,0,1,1,2,http://www.daegiri.com/
산디마을 생태공원 캠핑장 ,자동차야영장,36.3969703,127.4385337,대전광역시 대덕구 장동 685-1 ,17,0,0,0,2,1,2,https://www.daedeok.go.kr/dpt/goContents.do?link=/dpt/dpt06/DPT06030501&menuId=DPT06030501
섬지캠핑장,일반야영장,35.2036854,127.5895058,전라남도 구례군 토지면 외곡리 963-4,17,0,0,0,1,3,1,https://seomji.modoo.at/
용대 자연휴양림 캠핑장,자동차야영장,38.2332334,128.3490597,강원도 인제군 북면 용대리 ,17,0,0,0,1,1,1,https://www.foresttrip.go.kr/indvz/main.do?hmpgId=0102
추억촌,자동차야영장,37.7173613,128.8031974,강원도 강릉시 성산면 대관령옛길 10 ,17,0,0,0,1,1,2,https://cafe.naver.com/chueogchun/
코끼리관광농원 ,일반야영장,35.7635713,128.2489,경상북도 고령군 덕곡면 반성리 ,17,0,0,0,1,1,1,http://kokkirips.com/
팔공산금화자연휴양림 ,"일반야영장,카라반",36.0517597,128.5637769,경상북도 칠곡군 가산면 금화리 ,17,0,0,6,2,0,1,https://www.foresttrip.go.kr/indvz/main.do?hmpgId=ID02030006
곤달비캠프 ,일반야영장,35.7324672,129.0006737,경북 경주시 산내면 하신길 58-31,17,0,0,0,2,2,1,https://cafe.naver.com/gondalbicamp
개암벌 용소 관광농원 캠핑장,자동차야영장,37.8607003,128.0711731,강원도 홍천군 두촌면 괘석리 ,18,0,0,0,3,1,3,http://www.xn--h49ayqtb69zcsqp7gt5g8zcfk.com/
거북바위 야영장,자동차야영장,37.569537,127.4298365,경기도 양평군 서종면 서후리 234-1 번지,18,0,0,0,1,1,1,http://www.turtlecamp.co.kr/
김삿갓휴게소 체험 캠핑장,자동차야영장,37.1213937,128.6100905,강원도 영월군 김삿갓면 와석리 327-2 ,18,0,0,0,2,5,3,https://ksgcamping.modoo.at/
반디하우스캠핑장,자동차야영장,37.8763863,128.2714774,강원도 인제군 상남면 내린천로 2355 ,18,0,0,0,1,1,1,http://www.bandihouse.com/default/
부례관광지,"일반야영장,카라반",35.6728733,128.3602522,경북 고령군 우곡면 우곡강변길 672,18,0,0,10,6,2,2,https://mall.goryeong.go.kr/BuryePlace
삼남매와 뭉치네 캠핑장 ,자동차야영장,37.6312479,128.358277,강원도 평창군 봉평면 원길리 ,18,0,0,0,2,2,2,https://cafe.naver.com/sncamp
솔바다 캠핑장 ,일반야영장,37.2744298,126.4528625,인천광역시 옹진군 영흥서로 527-12 솔밭민박 ,18,0,0,0,2,2,3,http://www.xn--2j1b67oxqet7gjvjxnk.kr/
시냇가 캠핑장,일반야영장,36.7824334,127.8875494,충북 괴산군 칠성면 연풍로 쌍곡길 75,18,0,0,0,2,2,3,https://streamcamping.modoo.at/
운문 사계절 캠핑장,"일반야영장,카라반",35.6948473,128.9721717,경상북도 청도군 운문면 오진리 997,18,0,0,2,2,2,2,http://xn--989a27yx6da138eo5b.kr/
청도군 자전거공원 캠핑장,일반야영장,35.587208,128.7662481,청도군 청도읍 유호리 39-5,18,0,0,0,1,2,1,https://www.gocamping.or.kr/bsite/camp/info/read.do?c_no=2895&viewType=read01
추동캠프 ,일반야영장,37.9915799,127.1556949,경기도 포천시 창수면 추동리 ,18,0,0,0,5,2,4,https://gocamping.or.kr/bsite/camp/info/read.do?c_no=2974
휴가를 부탁해 캠핑장 ,자동차야영장,37.1036128,128.6826743,강원도 영월군 김삿갓면 내리계곡로 1024 ,18,0,0,0,2,2,5,https://vacancebutak.modoo.at/
아트캠핑빌리지,일반야영장,36.2645474,127.1526444,충청남도 논산시 상월면 한천길 15-11 ,19,0,0,0,2,2,1,https://www.sangsangmadang.com/camping/reserve
영덕 칠보산 오토캠핑장 ,일반야영장,36.6357124,129.3938249,경상북도 영덕군 병곡면 백석리 ,19,0,0,0,1,1,1,http://chilbocamp.co.kr/
융프라우오토캠핑장 ,일반야영장,37.5925212,127.5129381,경기도 가평군 설악면 어비산길 201-27 ,19,0,0,0,2,2,5,https://www.gocamping.or.kr/bsite/camp/info/read.do?c_no=2529&viewType=read01
팔리봉캠핑장,자동차야영장,38.1787065,128.1950568,강원도 인제군 북면 월학리 ,19,0,0,0,1,1,2,https://cafe.daum.net/weolhakcamping
네스트 캠핑장,자동차야영장,37.9363178,127.5412067,경기 가평군 북면 화악산로 943-50,19,0,0,0,4,4,4,https://www.gocamping.or.kr/bsite/camp/info/read.do?c_no=7125&viewType=read01
신안우전설레미캠핑장 ,"일반야영장,자동차야영장,카라반",34.9675274,126.1388314,전남 신안군 증도면 지도증도로 1797-1,19,0,0,6,1,1,2,https://www.gocamping.or.kr/bsite/camp/info/read.do?c_no=7170&viewType=read01
우리들 캠핑장,"일반야영장,글램핑",37.9092335,127.5534473,경기도 가평군 북면 화악산로 243,19,0,7,0,2,2,9,http://r.camperstory.com/resMain.hbb?reserve_path=RP&campseq=2069
감 이야기 캠핑장,일반야영장,35.6659701,129.001225,경상북도 청도군 운문면 신원리 ,20,0,0,0,4,3,3,http://www.xn--hq1b009amudc8bzxn.kr/
강진자연드림팜핑관광농원 ,"일반야영장,글램핑",34.5351298,126.8000499,전라남도 강진군 대구면 저두리 ,20,0,8,0,1,1,1,https://cafe.naver.com/0081bm
계림정야영장 ,일반야영장,35.3518707,127.8416895,경상남도 산청군 삼장면 홍계리 ,20,0,0,0,8,2,5,https://www.gocamping.or.kr/bsite/camp/info/read.do?c_no=236&viewType=read01
공주계곡캠핑장 ,일반야영장,36.557951,127.019957,충청남도 공주시 사곡면 운암리 ,20,0,0,0,2,2,2,http://xn--ob0b391cn3ab7lzkj.kr/
공주산림휴양마을 ,자동차야영장,36.4227364,127.1201901,충남 공주시 금학동 140-1 ,20,0,0,0,2,2,1,https://www.foresttrip.go.kr/indvz/main.do?hmpgId=ID02030011
국립남해편백자연휴양림 ,일반야영장,34.7517334,128.0170286,경상남도 남해군 삼동면 금암로 658 ,20,0,0,0,0,0,0,https://www.foresttrip.go.kr/indvz/main.do?hmpgId=0192
국립천관산자연휴양림,일반야영장,34.5451015,126.8997834,전라남도 장흥군 관산읍 칠관로 842-1150 ,20,0,0,0,1,1,1,https://www.foresttrip.go.kr/indvz/main.do?hmpgId=0196
꽃주렁나무주렁캠핑장 ,자동차야영장,37.1143322,127.2100891,경기 용인시 처인구 이동읍 경기동로1024번길 40,20,0,0,0,2,2,6,https://cafe.naver.com/jureong/
나그네캠핑장 ,일반야영장,36.2664844,127.1888456,충청남도 논산시 연산면 어은리 ,20,0,0,0,2,2,2,https://cafe.naver.com/nagenecamping
남양주 휴림캠핑장 ,자동차야영장,37.7143513,127.3003375,경기도 남양주시 지둔로 344-0 ,20,0,0,0,2,2,1,https://cafe.naver.com/likecampingcamping
내평계곡야영장,자동차야영장,37.3249097,129.2357561,강원도 삼척시 내평길 190-0 ,20,0,0,0,2,2,2,https://www.gocamping.or.kr/bsite/camp/info/read.do?c_no=592&viewType=read01
너와나 야영장 ,자동차야영장,37.381619,128.2706209,강원 영월군 무릉도원면 백년계곡길 193,20,0,0,0,1,1,1,https://www.gocamping.or.kr/bsite/camp/info/read.do?c_no=596
농어바위캠핑장,일반야영장,37.2817996,126.4587725,인천 옹진군 영흥면 영흥서로 420-19,20,0,0,5,1,1,1,http://www.xn--980br3rgwhpkb9wl02avxl.com/?ty=1&ct=2
당진해양캠핑공원 ,일반야영장,36.8953511,126.8188355,충청남도 당진시 신평면 산정길 112 ,20,0,0,0,2,2,2,http://camping.dpto.or.kr/main/main.php
더시크릿가든 캠프지라운드 ,자동차야영장,37.7690737,127.5530818,강원도 춘천시 남산면 방하리 ,20,0,12,4,2,2,6,https://happyglamper.modoo.at/
더캠프 렌탈캠핑 ,일반야영장,36.1023026,128.0533571,경상북도 김천시 대항면 덕전리 ,20,0,0,0,2,2,1,https://cafe.naver.com/thecamprentalcamping
돌배야영장(제1야영장) ,자동차야영장,38.1924742,128.3220762,강원도 인제군 북면 용대리 ,20,0,0,0,1,1,1,https://dolbae.kr/
돌배야영장(제2야영장) ,자동차야영장,38.1902526,128.3189906,강원도 인제군 북면 용대리 ,20,0,0,0,1,1,1,https://dolbae.kr/
동막골야영장 ,자동차야영장,37.3240644,129.234428,강원도 삼척시 근덕면 동막리 ,20,0,0,0,2,2,2,https://www.gocamping.or.kr/bsite/camp/info/read.do?c_no=874&viewType=read01
둥글이네 ,자동차야영장,37.6623783,126.9488461,경기도 고양시 덕양구 북한산로 386-0 ,20,0,0,0,2,2,1,https://cafe.naver.com/dongglecamping
라포레캠핑장 ,일반야영장,36.8545512,127.0148204,충청남도 아산시 음봉면로 87 ,20,0,0,0,3,2,6,https://cafe.naver.com/laforetcamp
맑은누리 캠핑장 ,자동차야영장,36.0623862,127.8750978,충청북도 영동군 상촌면 물한계곡로 1212 ,20,0,0,0,2,2,1,http://uccboom.com/tent/
묵림산방,일반야영장,35.4769206,127.1298836,전북 순창군 구림면 안정리 233,20,0,0,0,2,2,2,https://booking.naver.com/booking/3/bizes/325468
문배골 캠핑장 ,자동차야영장,37.7986639,127.5894989,강원도 춘천시 서백길 691-83 ,20,0,0,0,1,1,1,http://monbaegol.com/
문장대 야영장,일반야영장,36.5580922,127.9221936,경상북도 상주시 화북면 용유리 ,20,0,0,0,4,1,3,https://www.mjdcamp.kr:455/
문화사랑채,자동차야영장,38.0583229,127.9430533,강원도 양구군 양구읍 소양웅진길 35-6 ,20,0,0,0,1,1,2,https://cafe.naver.com/srche
물소리풍경 캠핑장,일반야영장,36.7576735,127.8961331,충청북도 괴산군 칠성면 쌍곡리 ,20,0,0,0,2,2,2,https://gocamping.or.kr/bsite/camp/info/read.do?c_no=1157
박석 캠핑장 ,자동차야영장,37.8412567,126.7215514,경기도 파주시 탄현면 낙하리 ,20,0,0,0,2,2,1,https://cafe.naver.com/baksukcamping
사과랑 관광농원,일반야영장,36.8314115,126.7434068,충남 당진시 순성면 가화로 136,20,0,0,0,1,1,1,https://www.gocamping.or.kr/bsite/camp/info/read.do?c_no=1453&viewType=read01
산음숲자연학교 힐링캠핑장(참사람생태예술치유센터),일반야영장,37.6057269,127.6005389,경기도 양평군 단월면 봉미산샘골길 1 ,20,0,0,0,1,1,1,https://cafe.naver.com/ahcenter
설하관광농원 ,자동차야영장,38.1384029,128.2403601,강원 인제군 북면 설악로 3208,20,0,0,0,1,1,5,https://cafe.naver.com/seolhacamp
센티마르글램핑,"일반야영장,글램핑",36.8982769,126.211085,충청남도 태안군 원북면 방갈리 515-43 ,20,0,9,0,4,4,6,https://www.gocamping.or.kr/bsite/camp/info/read.do?c_no=1701&viewType=read01
솔밭관광농원 ,일반야영장,36.8394764,127.8505069,충청북도 괴산군 괴산읍 능촌리 ,20,0,0,0,2,2,1,http://www.yongchu-pine.com/
송도오토캠핑장 ,일반야영장,36.7780664,126.1346297,충남 태안군 소원면 모항항길 106-22,20,0,0,0,0,0,0,http://songdocamping.anmyondo.co.kr/
싸리목캠핑장 ,자동차야영장,38.0341077,128.2904731,강원도 인제군 인제읍 하추리 ,20,0,0,0,1,1,1,https://dbsglee.modoo.at/
타이거스피드 안녕오토캠핑장,일반야영장,35.1078798,128.6006434,경상남도 창원시 마산합포구 구산면 안녕로 329,20,0,0,0,1,1,1,https://www.gocamping.or.kr/bsite/camp/info/read.do?c_no=2014&viewType=read01
아산 영인산자연휴양림 숲속야영장,일반야영장,36.8405946,126.9500195,충남 아산시 영인면 아산온천로 16-24,20,0,0,0,1,1,1,http://forest.asanfmc.or.kr/forest/
예다움 캠핑장 ,자동차야영장,37.1097398,128.6709712,강원 영월군 김삿갓면 내리계곡로 1162-1,20,0,0,0,1,1,1,http://www.yedaumcamping.co.kr/
오투캐빈,자동차야영장,37.8174819,128.4605077,강원도 홍천군 내면 을수길,20,0,0,0,10,2,3,https://www.gocamping.or.kr/bsite/camp/info/read.do?c_no=2315&viewType=read01
왕산가족오토캠핑장 ,"일반야영장,카라반,글램핑",37.4594355,126.364195,인천광역시 중구 을왕동 ,20,0,10,23,4,4,2,http://wangsanautocamp.com/
용문산 자연휴양림 ,자동차야영장,37.5170241,127.5196435,경기도 양평군 양평읍 백안3리 ,20,0,0,0,1,1,1,https://www.foresttrip.go.kr/indvz/main.do?hmpgId=ID02030087
용현 자연휴양림 야영장,일반야영장,36.7485134,126.609427,충청남도 서산시 운산면 용현리 ,20,0,0,0,1,1,2,https://www.foresttrip.go.kr/pot/rm/fa/selectCmpgrArmpListView.do?hmpgId=0220&menuId=002002002
운장산 자연휴양림 ,일반야영장,35.8890123,127.4324183,전라북도 진안군 정천면 휴양림길 77 ,20,0,0,0,1,1,1,https://www.foresttrip.go.kr/indvz/main.do?hmpgId=0194
은사시캠핑장 ,자동차야영장,37.9565977,126.8443182,경기도 파주시 적성면 자장로 115 ,20,0,0,0,2,2,1,http://www.xn--9y2bn0k9ybo6gsoa784avxlmle.kr/
은행마을,일반야영장,36.4271667,126.6755923,충청남도 보령시 청라면 오서산길 150-65 ,20,0,0,0,2,1,10,http://www.xn--hz2b99vna427l.org/
인제자연학교캠핑장 ,자동차야영장,37.9724782,128.0181177,강원도 인제군 남면 수산리 ,20,0,0,0,1,1,2,https://cafe.naver.com/injaecamping/
정선애 펜션 캠핑장 ,"자동차야영장,글램핑",37.3187992,128.6827088,강원도 정선군 남면 낙동리 ,20,0,5,0,1,1,2,http://www.jeongseoni.com/
지내울 야영장,자동차야영장,37.8848024,126.8350089,경기도 파주시 문산읍 이천리 340-2,20,0,0,0,2,20,1,https://cafe.naver.com/jinaeulcamp
백무동파크펜션&글램핑야영장,"일반야영장,글램핑",35.3929733,127.6612496,경남 함양군 마천면 가홍리 628번지 ,20,0,10,0,8,4,7,http://www.xn--2q1bm3lxva24mp0f2wa97fr7y1rfgqb.kr/
지지밸리야영장,자동차야영장,37.6166201,127.4921883,경기 가평군 설악면 유명로 794-46,20,0,0,0,2,2,8,http://www.ggvalley.co.kr/
진고개계곡야영장 ,자동차야영장,37.8400023,128.6566871,강원도 강릉시 연곡면 삼산리 ,20,0,0,0,2,2,2,http://www.xn--h49ammucg9062a2wa97f6xf.com/
쪽빛하늘 캠핑장,"자동차야영장,카라반",37.6235904,128.3515125,강원도 평창군 봉평면 흥정계곡길 20-5 ,20,0,0,5,2,2,2,https://www.bluesky700.com/
청도 지오오토캠핑장 ,일반야영장,35.6472933,128.848812,경상북도 청도군 매전면 호화리 ,20,0,0,0,1,1,1,https://cafe.naver.com/campingogo
청풍명월 캠핑장,일반야영장,37.8319763,126.7258205,경기도 파주시 탄현면 문지리 ,20,0,0,0,2,2,1,https://coolbreeze.modoo.at/?pc=1
충청남도 산림환경연구소(금강자연휴양림),일반야영장,36.434399,127.2330595,세종특별자치시 금남면 산림박물관길 110 ,20,0,0,0,4,4,2,https://www.foresttrip.go.kr/indvz/main.do?hmpgId=ID02030085
팔영산 자연휴양림 야영장,일반야영장,34.6217505,127.4409542,전라남도 고흥군 영남면 팔영로 1347-418 ,20,0,0,0,3,1,1,https://www.foresttrip.go.kr/pot/rm/fa/selectCmpgrArmpListView.do?hmpgId=ID02030069&menuId=002002002
횡성 별빛마을 서울캠핑장,자동차야영장,37.3494536,128.1581667,강원도 횡성군 강림면 월현리 ,20,0,0,0,1,1,1,https://blog.naver.com/seoulcamp7
힐스톤 캠핑장 ,자동차야영장,37.2493721,128.2927459,강원도 영월군 주천면 금마리 ,20,0,0,0,1,1,2,https://cafe.naver.com/hillstones
숲속야영장 휴림,"일반야영장,카라반,글램핑",33.443436,126.4289921,제주도 제주시 애월읍 광령남서길 40,20,0,10,4,2,1,3,http://huerim.kr/
밤골야영장 ,자동차야영장,37.340913,128.2801227,강원 영월군 무릉도원면 무릉법흥로 940,20,0,0,0,5,2,3,http://r.camperstory.com/resMain.hbb?reserve_path=RP&campseq=2225
궁지골 농원 ,일반야영장,35.2776013,126.5545604,전남 영광군 묘량면 밀재로7길 140,20,0,0,0,2,2,1,http://061-351-3592.itmk.kr/mobile_pc.php/
명성가족캠핑촌 ,자동차야영장,37.2730657,126.4563127,인천 옹진군 영흥면 영흥로722번길 39,20,0,0,0,2,1,2,https://msgogogo.modoo.at/
추월산골드캠핑장 ,"일반야영장,카라반",35.4271059,127.0146694,전남 담양군 용면 가마골로 221-4,20,0,0,3,1,1,1,http://www.goldautocamp.com/
캠핑포유 캠핑장 ,"일반야영장,자동차야영장",37.9377719,127.5613279,경기 가평군 북면 화악산로 686-41,20,0,0,0,7,2,9,http://www.camping4u.co.kr/
아이뜰관광농원,일반야영장,36.8449284,127.9024629,충북 괴산군 장연면 충민로 1193,20,0,0,0,12,14,10,https://iddeulcamping.modoo.at/
은빛모래야영장,일반야영장,36.8971075,126.203977,충남 태안군 원북면 옥파로 1157-17,20,0,0,0,0,0,0,https://www.gocamping.or.kr/bsite/camp/info/read.do?c_no=7557&viewType=read05
대부관광농원 오캠핑,일반야영장,37.207208,126.54624,경기 안산시 단원구 대남로 642 (대부남동),20,0,0,0,0,0,0,http://ocamping.co.kr/
가루실캠프 ,일반야영장,36.6562383,126.6436775,충청남도 예산군 덕산면 둔리 ,21,0,2,0,3,2,2,https://cafe.naver.com/48119613
국립회문산자연휴양림,일반야영장,35.5011323,127.1154018,전라북도 순창군 구림면 안심길 249 ,21,0,0,0,1,1,1,https://www.foresttrip.go.kr/indvz/main.do?hmpgId=0188
금오도 야영장 ,일반야영장,34.5351616,127.7612922,전라남도 여수시 대유길 36-2 ,21,0,3,0,0,0,0,https://campgold.modoo.at/
무주홀리데이파크 ,일반야영장,35.8393446,127.6853322,전라북도 무주군 안성면 공정리 ,21,0,0,0,3,3,2,http://mujuholidaypark.com/default/
봉무공원야영장,일반야영장,35.9192416,128.651488,대구시 동구 팔공로 50길 66,21,0,0,0,1,0,1,https://www.nabipark.or.kr/pages/sub.htm?nav_code=but1486532571
씨앗골캠핑장 ,일반야영장,36.6294626,127.6065734,충청북도 청주시 상당구 낭성면 호정대신로 69-34 ,21,0,0,0,1,1,1,https://seedcounty.wixsite.com/seedcounty
지리산오도재힐링캠핑장,일반야영장,35.4559403,127.6965511,경상남도 함양군 휴천면 월평리 지리산가는길 811-1,21,0,0,0,2,1,7,http://www.jocamp.co.kr/main/main.php
햇살가득애견캠핑장,일반야영장,37.763933,127.2916528,경기도 남양주시 수동면 내방리 368-5번지 ,21,0,0,0,2,2,1,https://cafe.naver.com/youngsmom2738
회문산 캠핑장,일반야영장,35.476333,127.1024908,전라북도 순창군 구림면 구림로 791 ,21,0,0,0,1,1,1,https://www.foresttrip.go.kr/indvz/main.do?hmpgId=0188
부귀농원 가족캠프 ,일반야영장,35.8489904,127.4219875,전라북도 진안군 부귀면 귀상로 708-33 ,21,0,0,0,4,6,8,http://gajokcamp.com/default/
505펜션&캠핑(오공오),일반야영장,36.5013917,127.0202,충청남도 공주시 사곡면 호계리 ,22,0,0,0,2,2,3,https://gocamping.or.kr/bsite/camp/info/read.do?c_no=28
금동산야,일반야영장,37.9391579,127.128047,경기도 포천시 신북면 금동리 ,22,0,0,0,2,2,1,https://cafe.daum.net/gumdongc
깊이울달빛캠핑장 ,일반야영장,37.9214643,127.1690031,경기도 포천시 신북면 심곡리 ,22,0,0,0,2,2,1,http://www.gipiuldalbit.co.kr/
두모마을야영장,일반야영장,34.7412176,127.9580998,경상남도 남해군 상주면 양아로533번길 18 ,22,0,0,0,1,1,1,https://www.gocamping.or.kr/bsite/camp/info/read.do?c_no=908&viewType=read01
룰루랄라 캠핑장 ,일반야영장,36.5859923,129.3415295,경상북도 영덕군 창수면 오서로 471 ,22,0,0,0,2,2,2,https://cafe.naver.com/in5819
반딧골캠핑장,일반야영장,35.9850668,127.7869327,전라북도 무주군 설천면 두길리 ,22,0,0,0,1,1,1,http://bandicamp.co.kr/
삼화리 동광 캠핑장,자동차야영장,38.0221896,126.9798112,경기도 연천군 미산면 어삼로 447-30,22,0,0,0,1,1,1,https://blog.naver.com/dg_camping
소나무숲아래 ,자동차야영장,36.8238656,128.0898577,충청북도 충주시 수안보면 미륵리사지길 29 ,22,0,0,0,1,1,1,https://sonamusoop.modoo.at/
솔바람 야영장,자동차야영장,37.9581423,128.5132557,강원도 양양군 서면 얼음골길 76 ,22,0,0,0,1,1,1,http://www.ckdcamp.kr/camp/
송백농원캠핑장 ,일반야영장,35.4444609,129.0485301,경상남도 양산시 상북면 외석리 ,22,0,0,0,2,2,1,https://cafe.naver.com/songbaekfarm
연풍연가캠핑장 ,일반야영장,36.6693317,127.0025767,충남 아산시 송악면 종곡길96번길 90,22,0,0,0,2,2,2,https://cafe.naver.com/lovewindlovesong
천사봉오토캠핑장 ,자동차야영장,37.5955439,127.5971032,경기도 양평군 단월면 산음리 ,22,0,0,0,1,1,6,https://cafe.naver.com/camping1004bong
학암포 퍼스트 캠핑장 ,"일반야영장,카라반,글램핑",36.8992942,126.2053482,충청남도 태안군 원북면 옥파로 1169-3 ,22,0,10,15,2,2,1,http://firstcamp.kr/
호두나무캠핑장,자동차야영장,36.6744096,127.0361375,충청남도 천안시 동남구 광덕면 광덕리 ,22,0,0,0,2,2,3,https://kwangdeoksannongwon.modoo.at/
국립황정산 자연휴양림,일반야영장,36.8405814,128.3482948,충청북도 단양군 대강면 황정산로 239-11 ,23,0,0,0,1,1,2,https://www.foresttrip.go.kr/indvz/main.do?hmpgId=0242
다옴 햇골 캠핑장 ,자동차야영장,38.0598,127.5184915,강원도 화천군 사내면 사창리 ,23,0,0,0,1,1,2,http://m.xn--bb0bm7i11shlbj5qxnkzka.com/
더불어사는터 ,자동차야영장,37.3103886,128.173768,강원도 영월군 수주면 두산길 199-8 ,23,0,0,0,2,2,1,https://doosanrips.modoo.at/
동검도노을캠핑장,일반야영장,37.5874129,126.5096141,인천 강화군 길상면 동검길 159-13,23,0,0,0,3,2,2,http://www.xn--939a570c96ahypy2db4gy0b.kr/
맑은개울 캠핑장 ,일반야영장,36.4860165,127.9588028,경상북도 상주시 화서면 하송3길 178-5,23,0,0,0,2,2,2,http://www.xn--h49ay3xf5jrpa1p095avxl.com/
미루밸리 캠핑장 ,일반야영장,35.8606724,128.1331151,경상북도 성주군 가천면 법전리 ,23,0,0,0,2,2,2,http://www.miruvalley.co.kr/
미산분교 캠핑장 ,자동차야영장,37.8712442,128.3182191,강원도 인제군 상남면 미산리 376-6 ,23,0,0,0,2,2,1,https://cafe.naver.com/camptool
백운오양골캠핑장 ,"일반야영장,글램핑",38.068163,127.381801,경기도 포천시 이동면 화동로2457번길 92 ,23,0,10,0,1,1,1,https://booking.naver.com/booking/3/bizes/437139
사과향기캠핑장,일반야영장,35.5789627,128.9805981,경상남도 밀양시 산내면 얼음골옛길 347-12 ,23,0,0,0,1,1,1,https://cafe.naver.com/iceapple1
산새소리캠핑장,일반야영장,36.7406022,127.7587293,충북 괴산군 청천면 도경로여사왕 2길 4-67,23,0,0,0,2,2,2,https://cafe.naver.com/sansaesoristory
잉카마야박물관&캠핑장 ,일반야영장,36.6116423,128.0250224,경상북도 문경시 가은읍 전곡길 13-10 ,23,0,0,0,2,2,1,http://www.xn--hz2b27s7rbowm.kr/
편백힐(치유의숲)야영장,일반야영장,35.3795806,126.8971743,전라남도 장성군 북하면 하남실길 212,23,0,0,0,2,2,2,https://heal3001.modoo.at/
화이트 오토캠핑장 ,일반야영장,35.644024,128.850206,경상북도 청도군 매전면 호화리 ,23,0,0,0,1,1,1,https://cafe.daum.net/White-autocamping
화야캠핑장 ,일반야영장,37.6808405,127.4689423,경기 가평군 설악면 유명로 1907-41,23,0,0,0,2,2,6,http://www.hwayacamp.com/
회산백련지 오토캠핑장,"일반야영장,카라반",34.8600889,126.5298981,전라남도 무안군 일로읍 백련로 333,23,0,0,20,1,1,1,https://www.muan.go.kr/lotus
국민여가캠핑장,자동차야영장,36.1049416,127.5691925,충청남도 금산군 제원면 닥실길 16 ,24,0,0,1,2,2,1,https://www.xn--jj0bv76ax6ehwhz2i.com/
산장펜션 캠핑장,일반야영장,35.7213059,129.0690552,경상북도 경주시 산내면 대현리 ,24,0,0,0,2,2,2,http://www.sjcamp.co.kr/xe/
스톤엑스 캠핑장,일반야영장,37.6810128,127.7568353,강원도 홍천군 남면 남노일리 ,24,0,0,0,2,2,1,http://www.stoneaxe.co.kr/mobile/index.html
자연이랑캠프 ,자동차야영장,37.360788,128.2746199,강원도 영월군 수주면 무릉법흥로 1174 ,24,0,0,0,1,1,1,https://withnaturecamp.modoo.at/
초원오토캠핑장 ,자동차야영장,37.0394174,127.8166349,충청북도 충주시 중앙탑면 감노로 2003 ,24,0,0,0,2,1,2,https://cafe.naver.com/grasslandcamping
합천휴테마파크 ,일반야영장,35.5496146,128.0565838,경남 합천군 용주면 영상로 172 ,24,0,0,0,1,1,2,http://huethemepark.com/
행복한소풍캠핑장,"자동차야영장,글램핑",37.6391609,126.4007982,인천시 강화군 화도면 내리 1498-1,24,0,4,0,1,1,2,https://cafe.naver.com/sopoongcamp
더좋은 펜션 캠핑장,자동차야영장,37.3120928,128.2327938,강원도 영월군 수주면 엄둔길 180 ,24,0,0,0,1,1,2,http://thegoodcamping.co.kr/camping/
메타파크 ,"일반야영장,카라반",35.3707606,127.0215244,전남 담양군 금성면 금성산성길 260,24,0,0,10,5,2,1,http://www.metapark.co.kr/
가족쉼터,자동차야영장,37.7548248,127.2720936,경기도 남양주시 수동면 수산리 ,25,0,0,0,2,2,2,https://www.ktourmap.com/spotDetails.jsp?contentId=2738718
국립두타산자연휴양림,자동차야영장,37.5543001,128.5737,강원도 평창군 진부면 아차골길 ,25,0,0,0,1,1,1,https://www.foresttrip.go.kr/indvz/main.do?hmpgId=0243
굼벵이캠핑농원 ,일반야영장,36.9363123,126.2938045,충청남도 태안군 이원면 내리 ,25,0,0,0,1,1,1,https://cafe.naver.com/gumbang2
꿈꾸는시계 ,일반야영장,36.1879223,127.28752,충청남도 논산시 벌곡면 대덕리 ,25,0,0,0,2,2,2,http://www.xn--989a09cmb43qp92a.com/
느티나무야영장 ,일반야영장,35.3715548,127.781667,경상남도 산청군 삼장면 유평리 ,25,0,0,0,3,3,3,https://gocamping.or.kr/bsite/camp/info/read.do?c_no=2963
대가야역사테마관광지 캠핑장,일반야영장,35.721096,128.2601414,경상북도 고령군 고령읍 대가야로 1216 ,25,0,0,0,6,4,2,http://www.daegayacamp.com/
무지개펜션&캠핑,자동차야영장,37.2411795,126.4744529,인천 옹진군 영흥면 영흥남로9번길 355-20,25,0,0,0,2,2,5,http://xn--hq1bn1xhsdd4qnoe.xn--mk1bu44c/
별수하야영장,일반야영장,37.2083997,127.9983323,충청북도 제천시 백운면 운학리 ,25,0,0,0,1,1,3,https://cafe.naver.com/starskycamping
살둔마을 생둔분교 캠핑장,자동차야영장,37.8316611,128.3711752,강원도 홍천군 내면 율전리 ,25,0,0,0,1,1,2,http://saldun.invil.org/index.html?menuno=6850&lnb=20101
상우농장 야영장,자동차야영장,37.3476024,128.2791269,강원 영월군 무릉도원면 무릉법흥로 994-23,25,0,0,0,2,2,5,https://www.gocamping.or.kr/bsite/camp/info/read.do?c_no=1575
서당골캠핑장 ,"일반야영장,자동차야영장",35.5153999,128.6009586,경상남도 밀양시 무안면 삼화길 680-23 ,25,0,0,0,1,1,1,https://cafe.daum.net/tjekd999
석문 오토캠핑장 ,자동차야영장,37.0136929,128.8767911,경상북도 봉화군 춘양면 애당리 ,25,0,0,0,1,1,1,https://www.bonghwa.go.kr/open.content/tour/
스토리캠프,일반야영장,35.2804724,126.5270809,전라남도 영광군 영광읍 물무로3길 185-19 ,25,0,0,0,3,1,2,https://campstory.modoo.at/
영우네 농어촌 관광농원,일반야영장,36.4963642,127.0349629,충청남도 공주시 사곡면 월은길 40 ,25,0,0,0,2,2,1,https://cafe.naver.com/owoofarm
예손농원캠핑장 ,일반야영장,38.061803,127.3273369,경기도 포천시 영북면 여우고개로 7 ,25,0,0,0,1,1,1,http://xn--zf4buz25j0mag4yxnkerb.com/
용인 자연휴양림 야영장,자동차야영장,37.3150348,127.2695911,경기도 용인시 처인구 모현면 초부로 220 ,25,0,0,0,2,2,2,https://www.foresttrip.go.kr/indvz/main.do?hmpgId=ID02030031
지리산천왕봉야영장 ,일반야영장,35.3985666,127.5997797,전라북도 남원시 지리산로 1241 천왕봉식당,25,0,0,0,1,1,1,https://www.gocamping.or.kr/bsite/camp/info/read.do?c_no=2815
태기산 아름채 관광공원 ,자동차야영장,37.5900259,128.2341084,강원도 횡성군 청일면 청일로 1030 ,25,0,0,0,1,1,1,http://www.alumche.com/
포시즌파크,일반야영장,37.3368741,128.1539157,강원도 횡성군 강림면 월현리 ,25,0,0,0,2,1,3,https://cafe.naver.com/4seasonpark
포천자연마을 서울캠핑장 ,일반야영장,38.1239264,127.2530487,경기도 포천시 관인면 사정리 ,25,0,0,0,1,0,1,https://www.seoul.go.kr/storyw/campingjang/pocheon.do
해솔캠핑장,자동차야영장,37.8077091,128.0783544,강원도 홍천군 내촌면 논골길 91,25,0,0,0,2,2,2,https://booking.naver.com/booking/3/bizes/155269
호식이 캠핑장 ,자동차야영장,37.3116113,128.318727,강원도 영월군 주천면 판운리 ,25,0,0,0,1,1,1,https://blog.naver.com/PostList.nhn?isHttpsRedirect=true&blogId=thsdhrhd9490
홍길동테마파크 야영장,자동차야영장,35.3185337,126.7271089,전라남도 장성군 황룡면 홍길동로 431 ,25,0,0,0,3,4,5,https://www.jangseong.go.kr/home/honggildong/
OK가족캠핑장,일반야영장,35.3168536,126.6011272,전남 영광군 대마면 영장로10길 4,25,0,0,0,2,2,1,https://cafe.naver.com/ygokcamp
피플앤독 느티캠핑장,일반야영장,36.6286325,126.8692211,충남 예산군 신양면 불원귀곡길 108,25,0,0,0,2,2,2,https://cafe.naver.com/doghealingcamp
가평 물골숲 계곡 캠핑장 ,자동차야영장,37.8367557,127.3143217,경기 가평군 상면 물골길 120,25,0,0,0,2,2,5,https://cafe.naver.com/mulgolcamping
내린천솔밭힐링캠핑장,자동차야영장,37.9102643,128.2908329,강원도 인제군 상남면 하남리 445,26,0,0,0,2,2,2,https://01053250560.modoo.at/?pc=1
도사곡자연휴양림야영장,자동차야영장,37.2243498,128.796431,강원도 정선군 사북읍 사북리 447-15 ,26,0,0,0,2,1,2,https://jsimc.or.kr/layout/basic/page/page1/page11.html
사슬치 캠핑장,자동차야영장,37.2213939,128.2953272,강원도 영월군 주천면 용석리 339,26,0,0,0,1,1,1,https://cafe.naver.com/saseulchi/
산과별 관광농원,일반야영장,36.5935184,127.0183811,공주시 사곡면 부곡리 274-3,26,0,0,0,2,2,6,https://www.gocamping.or.kr/bsite/camp/info/read.do?c_no=1471
약수골 캠프촌 숲속캠핑장 ,자동차야영장,38.1671426,128.0592207,강원도 양구군 동면 후곡리 ,26,0,0,0,2,1,2,http://www.xn--bb0bu51bqochvky3bqzp.com/index.php
영양수비별빛캠핑장 ,일반야영장,36.7909965,129.2647931,경상북도 영양군 본신로 213-0 ,26,0,0,0,1,1,1,http://www.xn--bm3bl1a9bz4r88egta75gp2truo.kr/
장남동산농원(캠핑브리지),"일반야영장,글램핑",37.9703631,126.8909971,경기도 연천군 장남면 원당리 ,26,0,4,0,2,2,1,https://cafe.naver.com/campingbridge
하늘그린캠프 ,자동차야영장,37.8215897,128.2166257,강원도 인제군 상남면 상남리 ,26,0,0,0,2,2,1,https://sgcamp.modoo.at/
행복한나드리캠핑장 ,자동차야영장,37.1735519,128.0923604,충청북도 제천시 봉양읍 옥전리 ,26,0,0,0,2,2,2,https://blissnadricamping.modoo.at/
힐링파크 ,일반야영장,35.1812443,127.7739019,경상남도 하동군 청암면 청학로 1235-19 ,26,0,0,0,2,1,2,https://www.thestayhealingpark.com/
비토 국민여가캠핑장,"일반야영장,카라반,글램핑",34.9656309,127.9825479,경남 사천시 서포면 용궁로 124,26,0,14,3,3,3,1,https://www.bitocamping.com/
조은자리 캠핑장,일반야영장,35.678157,128.984917,경북 청도군 운문면 신원리 398번지,26,0,0,0,2,2,1,https://gocamping.or.kr/bsite/camp/info/read.do?c_no=7052
황방농원 캠핑장,일반야영장,37.9214223,126.9968574,경기도 양주시 남면 양연로 173번길 49,26,0,0,0,2,2,1,https://www.gocamping.or.kr/bsite/camp/info/read.do?c_no=7098&viewType=read01
가마미야영장,"일반야영장,카라반",35.3980254,126.4077244,전남 영광군 홍농읍 계마길 120,26,0,0,10,2,1,2,http://gamamibeach.co.kr/index.php
몽돌바다캠핑장 ,일반야영장,34.8744903,126.1374313,전남 신안군 암태면 진작지길 139-63,26,0,0,0,1,2,1,https://cafe.naver.com/badacamping
캠핑어클락 ,"자동차야영장,카라반,글램핑",37.8472754,127.3775713,경기 가평군 조종면 연인산로474번길 27,26,0,6,0,2,2,12,http://www.campingoclock.com/
노꼬담꼬 ,"일반야영장,글램핑",35.8226325,129.0530513,경상북도 경주시 산내면 감산리 ,27,0,10,0,4,4,2,https://nodam2019.modoo.at/
무주 구천동 캠핑장 ,"일반야영장,자동차야영장",35.9313087,127.7576923,전라북도 무주군 설천면 심곡리 ,27,0,0,0,1,1,2,http://www.gucheondongcamp.com/
방태산 자연휴양림 캠핑장,자동차야영장,37.9242191,128.3970647,강원도 인제군 기린면 방동리 ,27,0,0,0,2,1,1,https://www.foresttrip.go.kr/indvz/main.do?hmpgId=0109
상순네 오토캠핑장 ,자동차야영장,37.1552007,128.6585157,강원도 영월군 중동면 고장골길 76-6 ,27,0,0,0,3,1,3,https://cafe.naver.com/sangsunne
청석들오토캠핑 ,일반야영장,35.7179541,129.0703874,경상북도 경주시 산내면 대현길 176-9 ,27,0,0,0,2,2,2,https://cafe.daum.net/csdpension
낭만가족 캠핑장 ,일반야영장,37.9310546,127.1219109,경기도 포천시 신북면 지동길 205 ,28,0,0,0,1,1,1,https://cafe.naver.com/nangmanjok
도고온천모두캠핑장 ,일반야영장,36.76604,126.8800202,충남 아산시 도고면 도고온천로 207-20,28,0,0,0,2,2,2,https://dogocamping.modoo.at/
마음이 머무는 곳 ,자동차야영장,38.0845316,127.4873438,강원도 화천군 사내면 포화로 653-76 ,28,0,0,0,2,2,2,https://heartpensioncamping.modoo.at/
문암생태공원 ,일반야영장,36.6744104,127.4477438,충청북도 청주시 흥덕구 문암동 ,28,0,0,0,2,2,2,https://munam.cheongju.go.kr/index.jsp
섬진강문화학교 캠핑장,일반야영장,35.1479527,127.3603551,전라남도 곡성군 죽곡면 동계리 ,28,0,0,0,1,1,2,http://www.dokdocamping.com/
송천떡마을야영장,자동차야영장,38.0501362,128.5543581,강원도 양양군 서면 송천리 203-2,28,0,0,0,3,1,1,https://www.gocamping.or.kr/bsite/camp/info/read.do?c_no=1803&viewType=read01
여수굴전여가캠핑장,"일반야영장,카라반",34.6921448,127.7650695,전라남도 여수시 돌산읍 돌산로 3017-15 ,28,0,0,10,0,0,0,http://www.yeosucamping.co.kr/main/index.html
춘천숲자연휴양림엔글램핑,"자동차야영장,글램핑",37.747726,127.7426862,강원도 춘천시 동산면 군자리 산403 ,28,0,45,0,0,1,1,http://www.ccforest.or.kr/
트리캠핑장 ,자동차야영장,37.2568236,126.5149936,인천광역시 옹진군 선재로306번길 27-55 ,28,0,0,0,1,1,3,http://treecamping.net/
농업회사법인주식회사 태신목장예산지점 (아그로랜드 태신목장),일반야영장,36.8019058,126.7082707,충청남도 예산군 고덕면 상몽리 ,29,0,0,0,2,2,1,http://www.agroland.co.kr/
매일민박캠핑장,자동차야영장,38.1933098,127.4668594,강원도 철원군 근남면 하오재로 1531 ,29,0,0,0,2,6,6,https://cafe.naver.com/meil53
뿌리공원캠핑장 ,자동차야영장,36.285408,127.384438,대전광역시 중구 안영동 ,29,0,0,0,1,1,1,https://www.gocamping.or.kr/bsite/camp/info/read.do?c_no=1451
영월약수터 오토캠핑장 ,자동차야영장,37.1460822,128.6763835,강원도 영월군 중동면 녹전리 ,29,0,0,0,2,2,2,https://cafe.naver.com/0wol
수덕 캠핑장,일반야영장,36.6719608,126.6492613,충남 예산군 덕산면 노곡길 15,29,0,0,0,0,0,0,https://sooduckcamp.modoo.at/
DMZ 마루캠핑,자동차야영장,38.135059,127.019045,경기도 연천군 중면 군중로 399,30,0,0,0,1,1,1,https://cafe.naver.com/marucamping
강촌하늘아래 (구 강촌캠핑장),"일반야영장,글램핑",37.8005486,127.641409,강원도 춘천시 남산면 방곡리 ,30,0,16,0,2,1,2,https://www.gocamping.or.kr/bsite/camp/info/read.do?c_no=167
국립용화산자연휴양림,자동차야영장,38.0141083,127.7606727,강원도 춘천시 사북면 사여골길 294,30,0,0,0,1,1,2,https://www.foresttrip.go.kr/indvz/main.do?hmpgId=0222
그린스톤 오토캠핑장 ,일반야영장,36.6830162,127.9773911,경상북도 문경시 완장길 103-63 ,30,0,0,0,1,1,3,https://greenstonecamp.modoo.at/
금강송 체험 야영장,일반야영장,37.010851,129.212661,경상북도 울진군 금강송면 소광리 173-2,30,0,0,0,2,2,1,https://cafe.daum.net/kkscamp
기산골캠핑장 ,일반야영장,37.7766651,126.935462,경기도 양주시 백석읍 기산로 413 ,30,0,0,0,3,2,2,http://ms.okkg.com/
덕동골 오토캠핑장 ,자동차야영장,37.217282,127.956877,충청북도 제천시 백운면 덕동로2길 23-26 ,30,0,0,0,2,2,5,https://www.gocamping.or.kr/bsite/camp/info/read.do?c_no=803&viewType=read01
로코코캠핑장 ,자동차야영장,37.7150112,127.2999638,경기도 남양주시 수동면 지둔로 358-4 ,30,0,0,0,2,2,2,https://cafe.naver.com/rocococamping
리앤파크,"일반야영장,글램핑",36.2559493,127.860136,충북 영동군 황간면 구룡로 321,30,0,10,0,2,2,2,http://www.leenpark.co.kr/niabbs5/
문경레저투어 캠핑장 ,일반야영장,36.6579174,128.1268687,경상북도 문경시 진남3길 6-0 ,30,0,0,0,2,2,2,http://www.yeyakwang.co.kr/index.php?ps_code=141002456
미시령계곡캠핑장 ,자동차야영장,38.21975,128.407737,강원도 인제군 북면 미시령옛길 30 ,30,0,0,0,1,1,1,https://blog.naver.com/jbk0309
범산골캠핑장 ,자동차야영장,37.8042187,126.9141046,경기도 양주시 광적면 비암리 ,30,0,0,0,2,2,1,https://bsgcamp.modoo.at/
비타민 캠핑장 ,일반야영장,37.7704096,126.9379027,경기도 양주시 백석읍 기산로440번길 110-43 ,30,0,0,0,4,4,2,https://vitaminpension.modoo.at/
새막골 캠프 ,자동차야영장,37.3236099,128.1785338,강원 영월군 무릉도원면 새막골길 72-115,30,0,0,0,1,1,1,https://cafe.naver.com/saemakgol
서천 춘장대캠핑장 ,일반야영장,36.1643093,126.5257078,충청남도 서천군 서면 도둔리 ,30,0,0,0,2,2,0,https://autocamp01.modoo.at/
솔티야영장 (단양솔티천캠핑&푸른솔펜션),일반야영장,36.9657713,128.4192692,충청북도 단양군 천동4길 10-7 ,30,0,0,0,4,4,2,https://gocamping.or.kr/bsite/camp/info/read.do?c_no=1785
송원글램핑파크 ,자동차야영장,37.1073868,127.1431214,경기도 용인시 처인구 남사면 봉무리 ,30,0,16,5,2,2,2,https://swglampingpark.modoo.at/
수봉야영장 ,자동차야영장,38.0781206,128.5114209,강원도 양양군 서면 오색리 3,30,0,0,0,2,2,1,https://gocamping.or.kr/bsite/camp/info/read.do?c_no=1829
신화가족목공체험 캠핑소,자동차야영장,37.4674158,127.4691004,경기도 양평군 강상면 강상로 326 ,30,0,0,0,2,1,1,https://cafe.naver.com/shinhwacamp
아리울캠핑장 ,자동차야영장,37.2373,128.164,강원도 원주시 신림면 황둔리 ,30,0,0,0,2,2,1,https://ariulcamping.modoo.at/
아트인아일랜드 ,자동차야영장,37.6209948,128.353734,강원도 평창군 봉평북로 193-28 ,30,0,0,0,3,2,2,http://www.irispension.co.kr/
삼척엘림캠핑장,일반야영장,37.3246826,129.2329649,강원도 삼척시 내평길 233-13 ,30,0,0,0,2,2,2,https://secamp.modoo.at/
여차울 캠핑장,"자동차야영장,글램핑",37.8605695,128.2799685,강원도 홍천군 내면 방내리 ,30,0,5,0,2,1,2,https://yeochaul.modoo.at/
용가리쌤 캠핑장 ,자동차야영장,37.7538442,127.9504961,강원도 홍천군 화촌면 설악로 2692 ,30,0,0,0,1,1,2,http://yongcem.kr/default/
인제아리캠핑장 ,"자동차야영장,카라반",38.1164566,128.1787967,강원도 인제군 인제읍 광치령로 306 ,30,0,0,3,1,1,1,https://aricamp.modoo.at/
자일랜드 ,"일반야영장,글램핑",38.1056379,127.309421,경기도 포천시 영북면 호국로4350번길 154-187 ,30,0,25,0,5,5,5,https://booking.naver.com/booking/3/bizes/164863
중바위캠핑장,자동차야영장,37.8879363,127.5379731,경기도 가평군 북면 제령아랫말길 70 ,30,0,0,0,9,6,7,http://www.jungbawi.com/contents/main.html
지리산산내들펜션야영장 ,일반야영장,35.4121408,127.6442642,전라북도 남원시 산내면 천왕봉로 892 ,30,0,0,0,2,2,3,http://www.xn--220bl3f42ejvia42hi44bcts.com/
진밭골향기관광농원 야영장,자동차야영장,37.3435285,127.7705244,강원도 원주시 문막읍 취병리 ,30,0,0,0,1,1,1,https://cafe.naver.com/jbgsscent
초평밤나무 ,자동차야영장,36.8163803,127.495401,충청북도 진천군 초평면 화산리 ,30,0,0,0,2,2,1,https://cafe.naver.com/bamcamp
축령산 자연휴양림 ,자동차야영장,37.7538975,127.3149823,경기도 남양주시 수동면 축령산로 299 ,30,0,0,0,2,2,2,https://www.foresttrip.go.kr/indvz/main.do?hmpgId=ID02030050
캠누리 오토캠핑장,자동차야영장,37.6925104,127.6322033,강원도 홍천군 서면 개야리 ,30,0,0,0,1,1,2,http://www.camn.co.kr/
통고산 자연휴양림야영장,일반야영장,36.9272959,129.1925235,경상북도 울진군 서면 불영계곡로 880 ,30,0,0,0,3,2,2,https://www.foresttrip.go.kr/indvz/main.do?hmpgId=0193
하얀여울,자동차야영장,37.3402855,128.2805874,강원 영월군 무릉도원면 무릉법흥로 932,30,0,0,0,2,4,2,https://gocamping.or.kr/bsite/camp/info/read.do?c_no=3369
하이캠핑장,"자동차야영장,글램핑",37.9689072,127.4163335,경기도 가평군 북면 적목리 ,30,0,2,0,4,2,12,http://hicamping.penbang.com/
학가산 우래 자연휴양림,일반야영장,36.6796935,128.5909076,경상북도 예천군 보문면 휴양림길 210 ,30,0,0,0,3,2,1,https://www.foresttrip.go.kr/indvz/main.do?hmpgId=ID04030009
화양 원탑캠핑장 ,자동차야영장,36.6807412,127.8139485,충청북도 괴산군 청천면 화양로 834-9 ,30,0,0,0,4,2,4,https://onetopcamp.modoo.at/
뱀사골 힐링야영장,일반야영장,35.3702199,127.5797402,전라북도 남원시 산내면 부운리 256번지 ,30,0,0,0,1,1,1,https://www.knps.or.kr/front/portal/visit/visitCourseMain.do?parkId=120100&menuNo=7020100
산골캠핑장,자동차야영장,37.3783625,128.2716925,강원도 영월군 수주면 법흥리 ,30,0,0,0,1,1,1,https://booking.ddnayo.com/booking-calendar-status?accommodationId=1531&groupId=
포천계곡캠핑장 ,일반야영장,38.0910275,127.3913733,경기도 포천시 이동면 금강로 6304 ,30,0,0,0,2,2,2,http://www.pocheon-camping.com/
황금박쥐캠핑장,자동차야영장,37.6796175,127.6451499,강원도 춘천시 남산면 산수리 ,30,0,0,0,2,1,2,https://batmancamp.modoo.at/
담양 금성산성 오토캠핑장 ,"일반야영장,글램핑",35.3677149,127.0344605,전남 담양군 금성면 새덕굴길 135-88,30,0,8,0,3,1,17,http://parapark.co.kr/
마루한관광농원,일반야영장,35.3151346,127.0579166,전남 담양군 금성면 상신기길 108,30,0,0,0,2,1,2,https://m.blog.naver.com/PostView.naver?isHttpsRedirect=true&blogId=chsm9727&logNo=221854962406
연미향마을 오토캠핑장 ,자동차야영장,37.1562776,127.3304432,경기 용인시 처인구 원삼면 백원로 128-7,30,0,0,0,4,2,2,http://www.yeonmihyang.net/xe/
은석힐링마을캠핑장,자동차야영장,37.2694614,128.6647383,강원도 정선군 신동읍 곰봉길 120,30,0,0,0,2,2,2,http://www.xn--9y2boa347csxgxa341w.com/index/index.html
해오름 야영장,일반야영장,35.3581755,129.3449996,울산 울주군 서생면 해맞이로 1109-17,30,0,0,0,0,0,0,http://horns.co.kr/
(주)대명호텔앤리조트 양평지점,일반야영장,37.4692252,127.5325829,경기 양평군 개군면 신내길7번길 55,30,0,0,0,1,0,2,https://www.sonohotelsresorts.com/yp/
산골펜션캠핑장 (구 무진펜션캠핑장),일반야영장,36.9507285,128.9967289,경상북도 봉화군 소천면 현동리 ,31,0,0,0,1,1,1,https://www.bonghwa.go.kr/open.content/tour/
영월캠프,자동차야영장,37.3621489,128.2772394,강원도 영월군 수주면 법흥리 ,31,0,0,0,1,1,1,https://www.sd.go.kr/reserve/contents.do?key=2170&
입화산 참살이 숲 야영장 ,자동차야영장,35.578739,129.2798866,울산광역시  중구 다운동 8번지,31,0,0,0,0,0,0,https://www.junggu.ulsan.kr/camping/index.do
속리산 사계절 캠핑장 ,일반야영장,36.6007295,127.8395519,경상북도 상주시 화북면 중벌리 ,32,0,0,0,2,2,2,http://www.sns-camping.co.kr/
아빠캠핑가 오토캠핑장 ,자동차야영장,36.8867424,127.3606509,충청북도 진천군 백곡면 안구수길 34-28 ,32,0,0,0,4,2,1,https://cafe.naver.com/daddy3
월악힐링캠핑장,자동차야영장,36.8686368,128.1547107,충청북도 제천시 덕산면 월악리 ,32,0,0,0,2,2,1,https://cafe.naver.com/cshj7680
캠프 예그리나 ,자동차야영장,37.777481,126.9096231,경기도 파주시 광탄면 기산리 ,32,0,0,0,0,0,0,http://campyegreena.com/
햇살아래 캠핑장 ,"자동차야영장,카라반",36.9229836,127.860459,충청북도 충주시 대소원면 창현로 809 ,32,0,0,4,2,2,2,https://cafe.daum.net/hsarsm
그린오토캠핑장 ,일반야영장,36.0612806,129.5739556,경상북도 포항시 남구 호미곶면 호미로 1178 ,32,0,0,0,2,2,2,http://greenautocamp.co.kr/
벨라캠핑장,자동차야영장,37.8984436,127.1178872,경기도 동두천시 탑동동 ,32,0,0,0,3,2,2,http://bellacamp.co.kr/new/index.php
월계수 캠핑장 ,일반야영장,35.696784,129.0575008,경상북도 경주시 산내면 문복로 758 ,32,0,0,0,2,2,3,http://wksoo.usweb.co.kr/
월드니스 오토캠핑장,일반야영장,37.2999296,128.220671,강원 영월군 무릉도원면 도원운학로 475-10,32,0,0,0,0,0,0,http://www.wncamp.com/wering/
달과별 캠핑장 ,"일반야영장,자동차야영장",37.095715,128.8102319,강원도 영월군 상동읍 덕구리 ,33,0,0,0,1,1,1,https://cafe.naver.com/moonstarcamping
덕동 산상낙원 ,자동차야영장,37.2135697,127.9460559,충청북도 제천시 덕동로 609-90 ,33,0,0,0,2,1,5,http://xn--989a5b73xdpa450fljjvxl.jdweb.kr/index.php
땅끝황토펜션야영장,일반야영장,36.0194369,129.5818391,경상북도 포항시 남구 구룡포읍 석병리 ,33,0,0,0,6,4,3,http://pensioncamp.com/
석교리 야영장,자동차야영장,38.1234993,128.5746709,강원도 양양군 강현면 석교리 34,33,0,0,0,2,0,1,https://www.gocamping.or.kr/bsite/camp/info/read.do?c_no=1638&viewType=read03
양주시 미술관옆 캠핑장,"일반야영장,카라반",37.7311454,126.9494098,경기 양주시 장흥면 권율로 185,33,0,0,8,6,6,3,https://camp.xticket.kr/web/main?shopEncode=aa49da0f8cd25851d5c139292c8aa729fd764d92fd786f4ff5efbb26ee087e34
장령산자연휴양림 야영장,자동차야영장,36.2461343,127.5551606,충청북도 옥천군 군서면 장령산로 519 ,33,0,0,0,4,2,2,https://www.foresttrip.go.kr/pot/rm/fa/selectCmpgrArmpListView.do?hmpgId=ID02030036&menuId=002002002
청운오토캠핑장,자동차야영장,37.5429069,127.702976,경기도 양평군 청운면 가현리 ,33,0,0,0,2,1,1,http://camplink.co.kr/gahyun2016/
하늘구름길 캠핑장 ,일반야영장,35.6259446,127.3878958,전라북도 임실군 성수면 왕방길 199-4 ,33,0,0,0,1,1,1,https://cafe.naver.com/skywaycamping
고창오토캠핑리조트 (고창군국민여가캠핑장),자동차야영장,35.5082068,126.6446676,전라북도 고창군 부안면 복분자로 531 ,33,0,0,10,1,1,1,http://www.gochangresort.com/view/main.php
대관령자연휴양림 (국립자연휴양림관리소),일반야영장,37.7102513,128.7871994,강원도 강릉시 성산면 삼포암길 133 ,33,0,0,0,2,1,2,https://www.foresttrip.go.kr/indvz/main.do?hmpgId=0111
백담고을캠핑장 ,일반야영장,38.192762,128.3554159,강원 인제군 북면 백담로 128,33,0,0,0,2,2,3,http://xn--299a78iy0icql4na095avxl.kr/
국민운문산자연휴양림야영장,일반야영장,35.6511492,129.024015,경상북도 청도군 운문면 운문로 763 ,34,0,0,0,3,1,3,https://www.foresttrip.go.kr/indvz/main.do?hmpgId=0195
꾸러기 캠핑장 ,일반야영장,35.1151762,128.182554,경상남도 진주시 금곡면 검암길 31 ,34,0,0,0,1,1,2,https://cafe.daum.net/jj-scamp
남원 자연휴양림 ,일반야영장,35.4596253,127.4163431,전라북도 남원시 갈치동 ,34,0,0,0,1,1,1,https://www.foresttrip.go.kr/indvz/main.do?hmpgId=ID04030003
박달재옛길캠핑장 ,자동차야영장,37.1411458,128.0637094,충청북도 제천시 원박길 245-0 ,34,0,0,0,8,6,2,https://cafe.naver.com/song4146941
오대산블루베리 야영장 (진부 오대산 관광농원),자동차야영장,37.5555278,128.5672147,강원도 평창군 진부면 수항리 ,34,0,0,0,1,1,2,https://odalsanyayoung.modoo.at/
청계동 솔바람야영장,일반야영장,35.3071016,127.2629603,전라남도 곡성군 곡성읍 신기리 산159-1,34,0,0,0,2,1,2,http://www.ckdcamp.kr/camp/
한실관광농원 야영장,일반야영장,35.233021,126.6538247,전라남도 장성군 삼서면 대곡한실길 68-17 ,34,0,2,0,1,1,2,https://cafe.naver.com/hansilcamp
횡성초보캠핑장,자동차야영장,37.4708557,127.8930241,강원도 횡성군 서원면 압곡리 ,34,0,0,0,1,1,1,https://cafe.naver.com/chobocamping13
장수방화동캠핑장 ,일반야영장,35.5706571,127.5309908,전라북도 장수군 번암면 사암리 ,34,0,0,0,1,1,2,http://xn--2q1bq1ng4ensgda538hvxle3b.kr/
강화도산들애농원캠핑수영장 ,자동차야영장,37.7408766,126.4601554,인천광역시 강화군 강화읍 국화리 ,35,0,0,0,2,2,2,https://sandeurae.modoo.at/
그린하우스캠핑장 ,일반야영장,35.7236193,129.0661432,경상북도 경주시 산내면 대현리 494-1,35,0,0,0,3,5,8,https://cafe.naver.com/autogreenhaus
노원힐링캠핑장 (넓은마당캠핑장),일반야영장,38.0679752,127.3875465,경기 포천시 이동면 화동로 2530,35,0,0,0,2,2,2,https://gocamping.or.kr/bsite/camp/info/read.do?c_no=598
다릿재농원캠핑장,자동차야영장,37.1139727,127.972329,충청북도 충주시 산척면 송강리 ,35,0,3,0,2,2,1,https://darijeacamping.modoo.at/
도토리캠프 ,일반야영장,35.2762843,128.0390364,경상남도 진주시 명석면 광제산로 737 ,35,0,0,0,1,1,1,https://cafe.naver.com/dottoricamp
명학산 캠핑장,자동차야영장,37.8510485,126.8312976,경기도 파주시 파주읍 향양리 ,35,0,0,0,2,2,1,http://www.myeonghakcamp.com/
문경히든벨리오토캠핑장 ,일반야영장,36.6490188,127.9906692,경상북도 문경시 가은읍 죽문리 ,35,0,0,0,2,1,2,http://www.xn--289a97mj4dgwbwwcn16e.com/
북상휴양관 빨간자전거 캠핑장 ,"일반야영장,카라반",35.4259938,126.8474788,전남 장성군 북하면 백양로 447,35,0,0,10,2,1,2,https://www.gocamping.or.kr/bsite/camp/info/read.do?c_no=1412&viewType=read01
산꽃벚꽃마을 오토캠핑장,일반야영장,36.1953438,127.5663217,충청남도 금산군 군북면 산안리 302,35,0,0,0,4,2,4,https://www.xn--js0ba853hr3dspi9lcn7sszfbsj.com/app/main/index
서종힐링캠핑장 ,자동차야영장,37.647816,127.4263787,경기도 양평군 화서로 532-6 ,35,0,0,0,1,1,2,https://booking.naver.com/booking/3/bizes/83676
씨사이드힐 캠핑장 ,일반야영장,37.6347315,126.3751477,인천광역시 강화군 화도면 해안남로 2680-12 ,35,0,0,0,2,2,2,https://seasidehillcamp.modoo.at/
을수민박야영,자동차야영장,37.8148664,128.4629712,강원도 홍천군 내면 광원리 ,35,0,0,0,2,2,2,https://eulsukamping.modoo.at/
포레스트12 (호텔드포레 텐트빌리지),자동차야영장,35.7880124,128.6361185,대구광역시 달성군 가창면 냉천리 ,35,0,0,0,2,2,1,http://forrest12.co.kr/facility/tentvillage.php
푸른숲캠핑장,자동차야영장,37.5970408,127.494631,경기 가평군 설악면 유명산길 61-108,35,0,0,0,2,2,6,http://www.woodcamp.co.kr/
워렉스야영장,일반야영장,34.9728435,127.0113365,전라남도 화순군 한천면 죽헌로 376-37,35,0,0,0,0,0,0,http://worecs.co.kr/
모야의숲 캠핑장 ,자동차야영장,37.5906754,128.2293356,강원도 횡성군 청일면 신대리 ,36,0,0,0,1,1,1,https://cafe.naver.com/forestinto
별찌 야영장,일반야영장,35.6672603,129.0007229,경상북도 청도군 운문면 신원4길 2 ,36,0,0,0,3,2,2,http://xn--bm3bu7f38kjzh.kr/
국립칠보산자연휴양림,일반야영장,36.6254034,129.3687864,경상북도 영덕군 병곡면 칠보산길 587 ,37,0,0,0,4,1,3,https://www.foresttrip.go.kr/indvz/main.do?hmpgId=0182
김삿갓 계곡 캠핑장 ,자동차야영장,37.1179954,128.6075203,강원도 영월군 김삿갓면 김삿갓로 216-30 ,37,0,0,0,5,5,4,http://xn--739a4mzcp0ep60c3ojnjmt5m.kr/
백담설화캠핑장 ,자동차야영장,38.2015573,128.3501726,강원도 인제군 북면 용대리 ,37,0,0,0,1,1,1,http://www.xn--jk1b58ow4dk3hjmjxnk0wb.com/
신어산자연숲캠핑장,일반야영장,35.2771149,128.9245414,경남 김해시 상동면 장척로462번길 140,37,0,0,0,2,1,3,https://www.sineosan.com/
주천강 자연휴양림 ,자동차야영장,37.460647,128.2084363,강원도 횡성군 둔내면 강변로영랑6길 115 ,37,0,0,0,1,1,1,http://jucheon.com/contents/main.html
청량산 나무네숲 캠핑장 ,일반야영장,36.8334798,128.8865062,경상북도 봉화군 명호면 청량로 763-81 ,37,0,0,0,2,2,1,https://cafe.naver.com/namunesup
(주)양촌여울체험캠프,"일반야영장,자동차야영장",35.1365006,128.3753007,경상남도 창원시 마산합포구 진전면 의산삼일로 60,38,0,0,0,1,1,1,http://yangchoncamp.co.kr/
가리산자연휴양림 야영장,자동차야영장,37.865122,127.9839063,강원도 홍천군 두촌면 가리산길 426 ,38,0,0,0,1,1,1,https://www.foresttrip.go.kr/indvz/main.do?hmpgId=ID02030002
국토정중앙천문대야영장,자동차야영장,38.068868,128.0298507,강원도 양구군 남면 국토정중앙로 127 ,38,0,0,0,2,2,2,http://yanggu.ticketplay.zone/portal/index
귤암리캠핑장 ,자동차야영장,37.3371048,128.6119646,강원도 정선군 정선읍 귤암리 ,38,0,0,0,2,2,2,http://www.js1.kr/
덕풍계곡마을야영장,자동차야영장,37.1223988,129.158668,강원도 삼척시 가곡면 풍곡리 ,38,0,0,0,1,1,2,http://valley.invil.org/index.html
소막골야영장 ,일반야영장,35.3494068,127.8168127,경상남도 산청군 삼장면 평촌리 ,38,0,0,0,1,0,1,https://reservation.knps.or.kr/information/campInfo.action?seqId=B011006
에브라임캠핑장 ,자동차야영장,38.1592666,127.1047292,경기도 연천군 신서면 연신로 866 ,38,0,0,0,2,2,1,https://ephraimcamping.modoo.at/
자작나무 펜션캠핑장,자동차야영장,37.9543715,128.009812,강원도 인제군 남면 수산리 ,38,0,0,0,1,1,2,https://ksc1853.modoo.at/
대명캠프 팜랜드(스칸디캠프팜),일반야영장,36.4670026,126.5691531,충청남도 보령시 청소면 신송리 455-4,38,0,0,0,2,2,1,http://www.campfarm.kr/main.php
내소힐링캠프 ,일반야영장,35.6100862,126.5824099,전북 부안군 진서면 원암길 49-6,38,0,0,0,1,1,1,http://xn--or3bi6l41bh8kz2i.kr/
물꽃 캠핑장 ,자동차야영장,38.0375605,127.0292456,경기도 연천군 군남면 청정로 2122 ,39,0,0,3,2,1,2,https://cafe.naver.com/waterbloomcamping
요기는캠핑장,"자동차야영장,글램핑",37.335115,128.195322,강원도 영월군 무릉도원면 도원운학로 1524-45,39,0,4,0,1,1,3,https://www.gocamping.or.kr/bsite/camp/info/read.do?c_no=2363&viewType=read01
죽도해수욕장 야영장,"일반야영장,글램핑",37.9736587,128.759746,강원도 양양군 현남면 시변리 12-4,39,0,3,0,1,1,1,http://les102180.koreafree.co.kr/
두리캠핑장,"일반야영장,글램핑",37.5705242,126.7630615,인천 계양구 장제로 1145 (귤현동),39,0,14,0,2,1,1,https://tickets.interpark.com/goods/21003403
구수곡 자연휴양림 ,일반야영장,37.0626254,129.2904522,경상북도 울진군 북면 십이령로 2721 ,40,0,0,0,2,2,4,https://www.foresttrip.go.kr/indvz/main.do?hmpgId=ID02030073
길캠프 ,자동차야영장,37.3027158,128.1541537,강원도 영월군 수주면 두산리 ,40,0,0,0,2,2,2,http://www.gilcamp.co.kr/
느티나무 캠핑장,일반야영장,37.0901044,128.7130461,강원도 영월군 김삿갓면 내리계곡로 1061 ,40,0,0,0,2,2,2,https://ntcamping.modoo.at/
느티나무그늘아래 캠핑장 ,자동차야영장,37.8730244,126.7545927,경기도 파주시 문산읍 사목리 ,40,0,0,0,2,2,1,https://cafe.naver.com/nearcamp
달숲 캠핑장,자동차야영장,37.0883805,128.1888493,충청북도 제천시 금성면 월림리 ,40,0,0,0,2,2,2,https://cafe.naver.com/dalsurp
덤바위 캠핑장 ,일반야영장,36.7861,127.4691005,충청북도 진천군 문백면 농다리로 615 ,40,0,0,0,2,2,1,https://cafe.daum.net/anotherstone
도림사오토캠핑장,"일반야영장,카라반",35.2620942,127.2668683,전남 곡성군 곡성읍 도림로 74,40,0,0,10,3,1,3,http://www.dorimsacamping.com/main/
무릉도원 오토캠핑장,"일반야영장,자동차야영장",35.4260851,128.9335584,경상남도 양산시 원동면 영포리 ,40,0,0,0,2,2,2,https://xn--hq1bk3iuobz1y.net/theme/IDEN02_2/mobile/intro.php
물내치기,자동차야영장,37.5689004,128.7302622,강원도 강릉시 노추산로 1151-5 ,40,0,0,0,2,2,2,http://www.mulnaechigi.com/index_m.php
미소가든펜션야영장,"자동차야영장,카라반",37.171724,128.1153075,충북 제천시 봉양읍 옥전리 59-4번지,40,0,0,2,5,3,5,http://www.xn--o39a91ov4fl1fmh040h.com/woori_m.asp
밀양사계절야영장,일반야영장,35.5133756,128.8425501,경상남도 밀양시 산외면 금곡리 ,40,0,0,0,1,1,1,https://cafe.naver.com/fourseasonscamping
속리산알프스야영장 ,자동차야영장,36.574495,127.7789908,충청북도 보은군 속리산로 1842-10 체험장 ,40,0,0,0,2,2,1,https://blog.naver.com/ljp6708
숲속의 샘물 캠핑장,자동차야영장,37.324498,128.179103,강원도 영월군 무릉도원면 도원운학로 1956-8,40,0,0,0,3,3,2,https://blog.naver.com/NBlogTop.naver?isHttpsRedirect=true&blogId=xtty9
용두산오토캠핑장 ,자동차야영장,37.1931003,128.1917657,충청북도 제천시 모산동 ,40,0,0,0,1,1,1,http://yongducamp.kr/
율곡 캠핑장 ,자동차야영장,37.8916298,126.8290065,경기도 파주시 파평면 장승배기로 390-217 ,40,0,0,0,2,2,2,http://www.ykcamping.co.kr/bbs/home/home/index.php?referer=https://www.google.com/
인제캠핑타운 ,자동차야영장,38.0724524,128.3164129,강원도 인제군 인제읍 가리산리 ,40,0,0,0,2,1,2,https://cafe.naver.com/injecamping
정원 캠핑장 ,자동차야영장,37.2926334,128.2050981,강원도 영월군 무릉도원면 도원운학로 871 ,40,0,0,0,4,6,2,https://jungwoncamping.modoo.at/
짱아 야영장,일반야영장,37.737558,127.1284768,경기도 남양주시 별내면 용암리 210번지,40,0,0,0,2,0,5,https://blog.naver.com/ekf20
춘장대나드리캠핑장 ,일반야영장,36.1628815,126.5253724,충청남도 서천군 서면 도둔리 ,40,0,0,0,2,2,1,http://nadricamping.co.kr/
침벽캠핑장 ,일반야영장,36.6281293,129.0884039,경상북도 영양군 영양읍 영양로 1154-35 ,40,0,0,0,1,1,2,https://cafe.naver.com/iljimaecamp/21
캠프리카캠핑장 ,"일반야영장,글램핑",37.7701966,126.9389785,경기도 양주시 백석읍 기산리 ,40,0,10,0,12,2,16,https://cafe.naver.com/ewellfood
토함산 자연휴양림 ,일반야영장,35.7570518,129.3720386,경상북도 경주시 양북면 불국로 1208-45 ,40,0,0,0,4,2,1,https://www.foresttrip.go.kr/indvz/main.do?hmpgId=ID02030027
패밀리야영장 ,일반야영장,35.3759516,127.5802572,전라북도 남원시 지리산로 823-0 ,40,0,0,0,1,1,1,https://cafe.daum.net/familyautocamp
해밀캠핑장,일반야영장,35.8594771,127.6792312,전라북도 무주군 안성면 덕산리 ,40,0,0,0,2,2,2,http://xn--pg3b06sfsf1nh6e.com/
해솔길 캠핑장 ,자동차야영장,37.2678313,126.5604937,경기도 안산시 단원구 대부북동 연목이길 15 ,40,0,0,0,2,2,1,https://dbhskcamping.modoo.at/
해오름 관광농원 ,,36.151053,126.530762,충청남도 서천군 서면 서인로 576 ,40,0,0,0,4,2,2,http://www.hormfarm.co.kr/home
행복빌리지 ,"일반야영장,자동차야영장",37.2512132,128.1361352,강원도 원주시 신림면 신림황둔로 662 ,40,0,0,0,1,1,1,https://happyvillage11.modoo.at/
동상힐링캠핑장 (힐링캠핑장),일반야영장,35.9597889,127.3068406,전라북도 완주군 동상면 신월리 ,40,0,0,0,1,1,1,http://dscamp.kr/
갯골캠핑장,자동차야영장,37.3894791,126.7619624,경기도 시흥시 월곶동 ,40,0,2,0,2,2,1,https://gocamping.or.kr/bsite/camp/info/read.do?c_no=6731
제암산자연휴양림 야영장,일반야영장,34.6998159,126.9874841,전남 보성군 웅치면 대산길 330,40,0,0,0,2,2,2,https://www.foresttrip.go.kr/pot/rm/fa/selectCmpgrArmpListView.do?hmpgId=ID02030090&menuId=002002002
농협회사법인 화봉(주) 바인밸리 수영장 캠핑장,"카라반,글램핑",36.5383312,127.0995145,충청남도 공주시 정안면 화봉리 ,41,0,2,3,2,2,2,http://m.vinevalley.co.kr/
무주수목원캠핑장,"일반야영장,글램핑",35.9089372,127.7606135,전북 무주군 설천면 구천동로 1092-34,41,0,10,0,1,1,3,http://mjcamp.net/
포천 화적연 캠핑장,일반야영장,38.1173648,127.2625592,경기 포천시 관인면 사정리 76-1,41,0,0,0,2,2,2,http://www.xn--ej5b84a3hy7uz2ikqb.com/
보경사힐링캠핑장,자동차야영장,36.2381167,129.3425505,포항시 북구 송라면 보경로 307,42,0,0,0,2,2,2,http://www.xn--289aw0wfoc36ebzkl0kvxlmle.com/
하마캠핑장,자동차야영장,37.9608521,126.8693874,경기도 파주시 적성면 국사로 297 ,42,0,0,0,2,2,1,https://booking.naver.com/booking/3/bizes/265731
호명산 캠프 ,자동차야영장,37.745918,127.4474549,경기도 가평군 청평면 하천리 ,42,0,0,0,2,2,1,http://hmcamping.co.kr/
횡성산울림오토캠핑장,자동차야영장,37.6022615,128.2230161,강원도 횡성군 청일면 신대리 ,42,0,0,0,2,2,2,http://r.camperstory.com/resMain.hbb?reserve_path=RP&campseq=1835
가족소풍캠핑장,"일반야영장,자동차야영장,카라반",35.4257346,127.034,전남 담양군 용면 용소길 6,42,0,0,6,1,3,4,https://www.gocamping.or.kr/bsite/camp/info/read.do?c_no=7110
하느제캠핑장,일반야영장,34.8436228,127.2331278,전남 보성군 벌교읍 옥전1길 480,42,0,0,0,3,1,2,http://xn--eq4b84h6ue89bzxn.xn--3e0b707e/
달빛고운병곡캠핑장 ,일반야영장,35.8097226,127.7753583,경상남도 거창군 북상면 병곡길 447-11 ,43,0,0,0,2,2,2,http://www.binggisil.com/
배너미오토캠핑장,"일반야영장,카라반",35.6658549,129.0026709,경상북도 청도군 운문면 신원리 ,43,0,0,2,2,2,1,http://www.bcamp.kr/
국립자연휴양림관리소 북부지역팀(산음 자연휴양림),일반야영장,37.5957698,127.5734551,경기 양평군 옥천면 중미산로 1152,43,0,0,0,3,1,2,https://www.gocamping.or.kr/bsite/camp/info/read.do?c_no=1513&viewType=read01
청주키즈캠핑장 ,일반야영장,36.6599077,127.5798498,충북 정주시 상당구 낭성면 갈산1길19 청주키즈캠핑장,43,0,0,0,1,1,1,http://r.camperstory.com/resMain.hbb?reserve_path=RP&campseq=1959
동화야영장 ,자동차야영장,35.992085,128.697415,대구광역시 동구 팔공산로 199길 6-1(용수동),44,0,0,0,1,1,1,https://yeyak.daegu.go.kr/yeyak/PageLink.do?link=/guide/fac_guide26
십이선녀탕 통나무집 야영장 ,자동차야영장,38.1830678,128.3027706,강원도 인제군 십이선녀탕길 81-0 ,44,0,0,0,2,2,3,http://www.xn--910blmt0wg7f3ncyskeneptrv1b.com/
천리안 캠프힐 ,"일반야영장,자동차야영장",35.6409377,129.0588156,울산광역시 울주군 상북면 삽재4길5 ,44,0,0,0,1,1,1,https://cafe.naver.com/chunrian
칠포오토캠핑장 ,일반야영장,36.1356207,129.3853074,경상북도 포항시 북구 흥해읍 금장리 ,44,0,0,0,4,2,3,http://74camp.co.kr/
줄포만갯벌생태공원 캠핑장 (구 마루아라힐링캠프),일반야영장,35.5830706,126.6741767,전북 부안군 줄포면 생태공원로 38,44,0,0,0,4,4,11,https://julpoman.buan.go.kr/home/
물동네힐링 야영장,"일반야영장,자동차야영장",37.7174539,127.3158468,경기 남양주시 수동면 비룡로 945,44,0,0,0,5,10,10,http://www.xn--950b94cwyhitbix3cqqiloe.com/
백미리 희망캠핑장,일반야영장,37.1473174,126.6828463,경기 화성시 서신면 백미길 210-24,44,0,0,0,0,0,0,http://www.hopecamping.co.kr/default/
별나무 캠핑장,일반야영장,35.7801235,128.2693287,경상북도 고령군 운수면 법승길 18-26 ,45,0,0,0,1,1,1,https://cafe.naver.com/purplel54sn
설매재 자연휴양림 야영장,자동차야영장,37.5568096,127.5090407,경기도 양평군 옥천면 용천로 510 ,45,0,0,0,3,1,3,https://www.foresttrip.go.kr/indvz/main.do?hmpgId=ID04030004
어라운드 빌리지 ,자동차야영장,36.4456179,127.7532375,충청북도 보은군 탄부면 사직리 ,45,0,0,0,2,2,2,http://www.aroundvillage.kr/default/
텐타우스 ,"자동차야영장,글램핑",35.967423,129.2910967,경상북도 경주시 강동면 왕신숲골안길 5 ,45,0,0,0,3,2,2,https://tentaus.modoo.at/
포항오토캠핑장 루트7 ,일반야영장,36.2458924,129.3710469,경상북도 포항시 북구 송라면 동해대로 3166 ,45,0,0,0,2,2,1,https://route7.modoo.at/
나라펜션캠핑장,일반야영장,37.1997701,126.5603735,경기 안산시 단원구 장불길 31-23 (대부남동),45,0,0,0,4,8,12,http://www.narapension.co.kr/
가온누리캠핑체험장 ,일반야영장,35.9811535,129.1374157,경상북도 경주시 안강읍 하곡리 ,46,0,0,0,2,2,1,https://www.gyeongju.go.kr/tour/page.do?mnu_uid=2339&con_uid=559&cmd=2
농협회사법인 봉좌마을 캠핑장 ,"일반야영장,카라반,글램핑",36.0777955,129.1700704,경상북도 포항시 북구 기계면 봉계리 262-1 ,46,0,8,0,4,2,2,http://bjmul.kr/
서천 늘푸른캠핑장 ,"일반야영장,글램핑",36.0852259,126.6451667,충청남도 서천군 마서면 한성리 ,46,0,7,0,2,2,2,http://xn--wh1bk4ki1t6kfcua.kr/
영천시 공예촌 캠핑체험장,"자동차야영장,카라반",36.080549,129.0191382,경상북도 영천시 자양면 포은로 1625-11 ,46,0,2,0,2,2,3,https://www.gocamping.or.kr/bsite/camp/info/read.do?c_no=2253&viewType=read01
용문산관광지 야영장,"자동차야영장,글램핑",37.5472919,127.5798267,경기도 양평군 용문산로 684-0 ,46,0,6,0,1,1,2,https://gocamping.or.kr/bsite/camp/info/read.do?c_no=2378
구만산장 캠핑장 ,일반야영장,35.6000451,128.8703639,경상남도 밀양시 산내면 봉의로 223-6 ,47,0,0,0,2,2,2,http://gumansan.co.kr/
중랑캠핑숲(중랑가족캠핑장),자동차야영장,37.6049896,127.1093075,서울특별시  중랑구 망우동 ,47,0,0,0,3,2,1,http://joongrangsoop.com/
초막골생태공원 느티나무야영장 ,"자동차야영장,글램핑",37.3473716,126.9186104,경기도 군포시 산본동 ,47,0,16,0,3,4,2,https://gocamping.or.kr/bsite/camp/info/read.do?c_no=2963
청천 화양동관광농원 초롱이캠핑장,일반야영장,36.6436068,127.88496,충청북도 괴산군 청천면 다보길 8 ,48,0,0,0,2,4,3,http://www.hwayangdong.co.kr/camp/
선재오토캠핑장,자동차야영장,37.2491558,126.5263717,인천 옹진군 영흥면 선재로186번길 86-22,48,0,0,0,1,1,2,https://sjautocamping.imweb.me/
완도 명사십리 오토캠핑장 ,일반야영장,34.3298246,126.8117379,전남 완도군 신지면 명사십리61번길 54,48,0,0,17,1,1,1,http://www.campwando.com/
화암약수 야영장 ,"자동차야영장,카라반",37.3288968,128.7853775,강원도 정선군 화암면 약수길 1300 ,49,0,0,20,3,1,2,https://www.watchticket.co.kr/html/main/main_hwaam.asp
강릉 노추산 힐링캠프,자동차야영장,37.570447,128.796319,강원도 강릉시 왕산면 대기리 ,50,0,0,0,2,1,1,https://nochusan.modoo.at/
강변오토캠핑장 ,일반야영장,36.8206892,127.8414386,충청북도 괴산군 괴산읍 검승리 ,50,0,0,0,2,2,1,http://www.dssiseol.or.kr/pages/yeyak_sports/page.html?mc=1186
고길동 캠핑장 ,자동차야영장,37.8276478,127.833961,강원도 홍천군 북방면 북방리 946,50,0,0,0,1,1,2,https://gogildongcamp.modoo.at/
구룡레져타운야영장,"일반야영장,카라반,글램핑",37.4400428,128.0546124,강원도 원주시 소초면 치악로 3403 ,50,0,5,15,2,2,2,http://www.xn--2e0b64rusa724boyboww.com/
꿈에그린 캠핑장 ,일반야영장,38.0139897,127.3711154,경기도 포천시 이동면 화동로1870번길 31 ,50,0,0,0,1,1,1,https://dreamgreencam.modoo.at/
노일강 캠핑장 ,자동차야영장,37.6887448,127.7332775,강원도 홍천군 노일로 344-14 ,50,0,0,0,2,2,4,https://www.gocamping.or.kr/bsite/camp/info/read.do?c_no=612&viewType=read01
러브팜캠핑장,자동차야영장,38.0577562,127.5324547,강원도 화천군 사내면 삼일리 ,50,0,0,0,3,1,6,https://lovefarm.modoo.at/
로하스 캠핑장 ,자동차야영장,38.1321962,127.0256313,경기도 연천군 중면 삼곶리 ,50,0,0,0,2,1,1,https://golohas.kr/
모꼬지캠핑장,일반야영장,35.7190767,127.0109391,전북 김제시 금산면 모악로 167-16,50,0,0,0,3,3,2,https://www.gocamping.or.kr/bsite/camp/info/read.do?c_no=1070&viewType=read01
반디캠프 ,일반야영장,37.7751154,126.9217065,경기도 파주시 광탄면 기산리 ,50,0,0,0,2,2,1,https://cafe.naver.com/ksm8558k
봉평마가리 캠핑장 ,자동차야영장,37.6457374,128.3695929,강원도 평창군 봉평면 원길리 ,50,0,0,0,2,2,2,https://magari.modoo.at/
삼장다목적캠핑장 ,"일반야영장,자동차야영장",35.3079167,127.8338141,경상남도 산청군 삼장면 친환경로 409-28 ,50,0,0,0,2,1,3,https://www.gocamping.or.kr/bsite/camp/info/read.do?c_no=1556&viewType=read01
아우라지관광지 ,자동차야영장,37.4754538,128.72394,강원도 정선군 여량면 여량리 ,50,0,0,0,2,2,2,http://www.auraji.net/board_read.asp?boardCode=tour&blang=&searchBoardField=&searchBoardText=&boardNumber=3&page=1&delMain=&cpSection=
양지생태마을캠핑장,"일반야영장,카라반",35.6951254,127.8605163,경남 거창군 마리면 진산길 157,50,0,0,2,3,1,3,https://cafe.naver.com/sunnycamp
예산 느티나무 캠핑장 ,일반야영장,36.5966729,126.90978,충청남도 예산군 신양면 차동송정길 2-71 ,50,0,0,0,4,2,2,http://nuticam.cafe24.com/
제주돌하르방 캠핑장,일반야영장,33.3238571,126.2389834,제주특별자치도 제주시 한경면 청수리 ,50,0,0,0,4,4,3,http://jejudolharbang.com/
중산리야영장 ,일반야영장,35.3079766,127.7486642,경상남도 산청군 시천면 지리산대로 320-2 ,50,0,0,0,1,0,1,https://reservation.knps.or.kr/information/campInfo.action?seqId=B011009
청송캠핑장 ,자동차야영장,37.3683199,128.2674725,강원 영월군 무릉도원면 무릉법흥로 1278-8,50,0,0,0,2,2,2,https://cscamping.co.kr/
패밀리 오토캠핑장 (한국전통문화 체험학교),일반야영장,36.8922136,128.1375076,충청북도 제천시 덕산면 월악리 ,50,0,0,0,1,1,1,https://www.gocamping.or.kr/bsite/camp/info/read.do?c_no=3222&viewType=read03
폭포가 있는 캠핑장 ,자동차야영장,38.2085933,128.3553512,강원도 인제군 북면 용대리 ,50,0,0,0,2,1,2,http://www.mannacamp.co.kr/
학마을캠프,자동차야영장,38.2360354,127.2211981,강원도 철원군 동송읍 도피동길,50,0,0,0,2,1,2,https://cafe.naver.com/hackcamp
골짜구니야영장,자동차야영장,37.9639747,128.5159794,강원도 양양군 서면 구룡령로 1807,50,0,0,0,1,1,2,https://www.gocamping.or.kr/bsite/camp/info/read.do?c_no=6740&viewType=read05
다누리골테마파크,자동차야영장,37.1293739,127.2435246,경기 용인시 처인구 이동읍 묘봉로277번길 41,50,0,0,0,2,2,7,http://www.danurigol.com/main/?load_popup=1
마운틴캠핑장 ,자동차야영장,37.1351799,127.3286221,경기 용인시 처인구 원삼면 후평로185번길 50,50,0,5,0,4,4,10,http://www.mtpension.com/
원동자연휴양림 ,일반야영장,35.3977583,128.9389714,경상남도 양산시 원동면 내포리 ,51,0,0,0,3,2,1,https://wondongforest.modoo.at/
괴강국민여가캠핑장 ,자동차야영장,36.8080239,127.824917,충북 괴산군 괴산읍 충민로검승3길 10,52,0,0,0,2,2,3,https://jwyccamp.kr/
백무동야영장 ,일반야영장,35.3580771,127.6813458,경상남도 함양군 마천면 강청리 ,52,0,0,0,0,0,0,https://www.gocamping.or.kr/bsite/camp/info/read.do?c_no=1266&viewType=read01
베어스 캠프,일반야영장,37.8292414,127.2717117,경기도 포천시 내촌면 금강로3046번길 106 ,52,0,0,0,4,4,2,http://bearscamp.co.kr/
정선국민여가캠핑장 (회동솔향캠핑장),일반야영장,37.4112323,128.5856789,강원도 정선군 정선읍 회동리 ,52,0,0,0,3,2,4,https://www.gocamping.or.kr/bsite/camp/info/read.do?c_no=2696&viewType=read01
백양사 가인야영장,일반야영장,35.4331068,126.881391,전라남도 장성군 북하면 약수리 108,52,0,0,0,2,0,3,https://reservation.knps.or.kr/information/campInfo.action?seqId=B041001
천황사 천황 야영장,일반야영장,34.7734182,126.718657,전라남도 영암군 영암읍 천황사로 280-73 ,52,0,0,0,2,1,1,https://reservation.knps.or.kr/information/campInfo.action?seqId=B201001
비로야영장 (소백산 비로오토파크캠핑&펜션),일반야영장,36.9220823,128.5046926,경상북도 영주시 풍기읍 삼가로 447-11 ,53,0,0,0,2,2,3,https://biroautopark.modoo.at/
사랑나무 캠핑장,자동차야영장,37.0725771,128.7448039,강원도 영월군 김삿갓면 내리계곡로 131-12 ,53,0,0,0,2,2,2,https://lovetreecamp.modoo.at/
웅이네캠핑장 ,"일반야영장,카라반",35.4086279,126.9492665,전라북도 순창군 복흥면 대방리 ,53,0,5,0,3,1,3,https://cafe.naver.com/woongcamping
국립삼봉자연휴양림 야영장,자동차야영장,37.8603759,128.4638393,강원도 홍천군 내면 상봉휴양길 276 ,55,0,0,0,2,1,2,https://www.foresttrip.go.kr/indvz/main.do?hmpgId=0107
서석캠핑장,자동차야영장,37.6968785,128.2506707,강원도 홍천군 서석면 생곡리 ,55,0,0,0,1,1,2,https://seoseokcamping.modoo.at/
망상오토캠핑리조트 제2오토캠핑장,"자동차야영장,카라반",37.5903965,129.0938782,강원도 동해시 망상동 ,56,0,0,41,2,2,2,https://www.mangsangcamping.or.kr/
산노리 캠핑장,자동차야영장,37.2443009,128.1653255,강원도 원주시 신림면 황둔리 1000,56,0,0,0,1,1,2,https://hdcps.modoo.at/
함양천자봉관광농원숲속애 ,일반야영장,35.5787042,127.6279683,경상남도 함양군 백전면 운산리 ,56,0,0,0,2,2,2,https://cafe.naver.com/soopsogae
둘레길관광농원,일반야영장,35.243576,127.7919829,경상남도 산청군 시천면 신천리 ,57,0,0,0,4,4,1,https://cafe.naver.com/jirisancamping
아잘리아 그린 ,일반야영장,36.9131452,126.4882269,충청남도 당진시 대호나루터길 105-75 ,57,0,0,0,4,4,2,https://booking.naver.com/booking/3/bizes/252030
속리산사나래캠핑장,자동차야영장,36.5738163,127.7710956,충청북도 보은군 산외면 속리산로 1770,58,0,0,0,2,2,2,https://booking.naver.com/booking/3/bizes/47335/items/2543048
웅포관광지 캠핑장 ,일반야영장,36.0658097,126.8754394,전라북도 익산시 웅포면 강변로 25 ,58,0,0,0,1,1,1,http://camping.iksan.go.kr/
담터맑은물 오토캠핑장,"일반야영장,글램핑",38.1481318,127.2068434,경기도 포천시 관인면 삼율리 6,58,0,6,0,2,1,2,https://cleanwatercamp.modoo.at/
감악산캠핑숲오토캠핑장,자동차야영장,37.2498068,128.1399087,강원도 원주시 신림면 황둔리 ,59,0,0,0,3,1,2,https://gcamping.modoo.at/
쿵쿵소 캠핑장 ,자동차야영장,37.6642633,128.4218853,강원도 평창군 봉평면 덕거리 ,59,0,0,0,1,1,1,https://kungkungso.modoo.at/
강촌달머리캠핑장,일반야영장,37.850929,127.5732255,강원도 춘천시 서면 안보리 ,60,0,0,0,1,0,1,http://www.yeyakwang.co.kr/index.php?ps_code=141002194
귀한농부학교 캠핑장 ,자동차야영장,37.8827823,126.8698541,경기도 파주시 법원읍 금곡리 ,60,0,0,0,3,2,3,https://fschool.modoo.at/
매화관광농원캠핑장,일반야영장,35.5854507,128.8006211,경상남도 밀양시 상동면 매화리 ,60,0,0,0,1,1,2,http://r.camperstory.com/resMain.hbb?reserve_path=RP&campseq=2191
반딧불이 캠핑장,일반야영장,35.7126254,129.0740716,경상북도 경주시 산내면 대현리 ,60,0,0,0,1,1,1,https://www.gyeongju.go.kr/tour/page.do?mnu_uid=2339&con_uid=566&cmd=2
별마로빌리지캠핑장,자동차야영장,37.1257108,128.585354,강원도 영월군 김삿갓면 영월동로 1954-40 ,60,0,0,0,2,3,4,https://www.starmaro.com/
산들래 야영장,일반야영장,37.2109376,126.8945754,경기도 화성시 비봉면 자청로207번길 21-73 ,60,0,0,0,1,1,1,http://www.3560768.com/
영종씨사이드캠핑장,"자동차야영장,카라반",37.478646,126.547031,인천시 중구 운남동 1640-1,60,0,0,22,3,3,3,https://www.xn--hy1b07tnrd1yac7cpi07cn9xruo.com:444/index.asp
맑은숲캠프,"일반야영장,자동차야영장",37.5636853,127.7325533,경기도 양평군 청운면 다대리 산45-2번지 외 4필지 ,60,0,0,0,2,1,2,http://hdgbcamp.com/
자연애캠핑장 ,일반야영장,36.8420634,127.8508729,충청북도 괴산군 괴산읍 능촌로 390,60,0,0,0,2,2,2,https://booking.naver.com/booking/3/bizes/238401
초전마을 캠핑장,일반야영장,34.7293609,128.0342924,경남 남해군 미조면 동부대로14번길 27-21,60,0,0,0,1,1,2,https://camplink.co.kr:444/index/0booking/m_calendar.php?camplink=cjcamp
풍혈산 캠핑장 ,일반야영장,38.0143099,127.2957006,경기도 포천시 일동면 수입리 ,60,0,6,0,2,2,2,http://phm.kr/main.htm
은빛물결캠핑장 (구)현리365캠핑랜드 ),"일반야영장,카라반",37.8031457,127.3659137,경기도 가평군 하면 대보리 506-1,60,0,0,0,2,2,1,https://campner.wixsite.com/365camp
싱글벙글 캠핑장 ,자동차야영장,37.2120767,127.1586644,경기 용인시 처인구 이동읍 상덕로 95-62,60,0,0,0,4,7,12,http://r.camperstory.com/resMain.hbb?reserve_path=RP&campseq=318
태안별빛오토캠핑장 ,일반야영장,36.7463585,126.1838497,충청남도 태안군 소원면 법산리 ,61,0,17,0,2,2,2,http://taeanstarcamp.com/
하늘빛계곡,일반야영장,38.0728584,128.5356046,강원도 양양군 서면 설악로 1760 ,61,0,0,0,0,0,0,http://www.yycamp.co.kr/
무릉계곡힐링캠핑장 ,자동차야영장,37.4643694,129.0271769,강원도 동해시 삼화로 467 무릉계곡 힐링캠프장,62,0,0,0,4,6,2,https://www.mureungvalley.or.kr/main/main.htm
조개섬 야영장,일반야영장,34.9924956,127.7829279,경남 하동군 고전면 월진길 115-77,63,0,0,0,2,2,2,https://www.gocamping.or.kr/bsite/camp/info/read.do?c_no=2739&viewType=read01
옥성 자연휴양림 ,일반야영장,36.2816583,128.2829633,경상북도 구미시 옥성면 휴양림길 150 ,64,0,0,0,4,2,2,https://www.foresttrip.go.kr/indvz/main.do?hmpgId=ID02030066
이포보웰빙캠핑장 ,일반야영장,37.3929435,127.5473431,경기도 여주군 대신면 여양로 1935-67 ,65,0,0,0,2,2,1,https://camp.yjcmc.or.kr/epoc
진안국제 캠핑장,일반야영장,35.9654932,127.4611194,전라북도 진안군 용담면 와룡리 ,65,0,0,0,1,1,1,http://mycamping.net/
산청지막계곡캠핑장 ,일반야영장,35.3850747,127.8190127,경남 산청군 금서면 왕등재로 307 ,66,0,0,0,3,1,2,http://zimakcamp.com/
내안의 숲 오토캠핑장 ,일반야영장,36.1837789,126.7457087,충청남도 부여군 옥산면 내대리 ,67,0,0,0,2,2,2,https://xn--220bt54ayhcmwc.com/
아산곡교천야영장,일반야영장,36.8063004,127.0009999,충남 아산시 곡교천로 407 (권곡동),67,0,0,0,3,1,2,https://asancamping.co.kr/_kor/index.asp?
이천캠핑랜드 ,"자동차야영장,글램핑",37.2519359,127.4417691,경기도 이천시 율현동 이섭대천로941번길 49-44 ,67,0,13,0,2,2,2,https://indiaround.co.kr/
자연애 품 캠핑장,"일반야영장,카라반",35.3005114,127.1448632,전라남도 곡성군 옥과면 주산리 ,67,0,0,4,2,2,8,https://bosomofnature.modoo.at/
한라산국립공원 관음사지구 야영장 ,일반야영장,33.4238713,126.5542236,제주특별자치도 제주시 오등동 산록북로 588 ,67,0,0,0,1,1,1,https://www.gocamping.or.kr/bsite/camp/info/read.do?c_no=3408&viewType=read01
꿈꾸는캠핑장 ,일반야영장,35.293488,127.365272,전남 곡성군 고달면 고산로 325,68,0,0,0,0,0,0,https://cafe.naver.com/goingdream.cafe
송도스포츠캠핑장 ,자동차야영장,37.3511626,126.6190968,인천광역시 연수구 송도동 인천신항대로892번길 50 ,68,0,0,0,2,1,3,https://www.eco-i.or.kr/sportsPark/reservation/camping_reserve.asp
프라임캠핑장 ,자동차야영장,38.0088734,127.7426435,강원 춘천시 사북면 사여골길 25,68,0,0,0,2,2,1,http://r.camperstory.com/resMain.hbb?reserve_path=RP&campseq=1325
내장산국립공원 내장야영장 ,일반야영장,35.4983233,126.9181089,전라북도 정읍시 내장동 내장산로 800(내장동 92-2),69,0,0,0,1,1,2,https://reservation.knps.or.kr/information/campInfo.action?seqId=B042001
덕유캠프농장 ,일반야영장,35.924679,127.759496,전라북도 무주군 설천면 구천동로 1262-4 ,70,0,8,0,2,2,2,http://www.mujucamp.com/
리버힐즈 캠핑장(푸른농원),자동차야영장,37.2959548,128.1883228,강원 영월군 무릉도원면 도원운학로 1043,70,0,0,0,2,2,2,https://cafe.naver.com/riverhills
문복산 캠핑장 ,일반야영장,35.6606015,129.05157,경상북도 경주시 산내면 대현리 ,70,0,0,0,4,2,2,http://www.munbok.co.kr/
웅천친수공원 야영장,일반야영장,34.742005,127.676396,전라남도 여수시 웅천동 ,70,0,0,0,1,1,1,https://www.gocamping.or.kr/bsite/camp/info/read.do?c_no=2459&viewType=read01
원주두리캠핑장 ,자동차야영장,37.248555,128.1687676,강원도 원주시 신림면 황둔리 ,70,0,0,0,2,1,2,https://cafe.naver.com/7942camp
소금강 장천마을 캠핑장,자동차야영장,37.8465243,128.7045774,강원도 강릉시 연곡면 진고개로 1502 ,70,0,0,0,2,2,4,https://samsan.modoo.at/
달궁힐링야영장,일반야영장,35.351983,127.5556128,전라북도 남원시 산내면 덕동리 287-3,70,0,0,0,1,1,1,https://reservation.knps.or.kr/information/campInfo.action?seqId=B012005
용인힐링캠핑장 ,자동차야영장,37.115621,127.3080335,경기 용인시 처인구 원삼면 보개원삼로 1361,70,0,0,0,4,4,12,http://r.camperstory.com/resMain.hbb?reserve_path=RP&campseq=1544
송정 자연휴양림 ,일반야영장,36.0235917,128.4466122,경상북도 칠곡군 석적면 반계리 ,73,0,0,0,3,2,2,https://www.foresttrip.go.kr/indvz/main.do?hmpgId=ID02030076
용봉산캠핑장 ,일반야영장,36.6324341,126.6446032,충청남도 홍성군 홍북면 상하리 ,75,0,0,0,4,5,4,http://yongcam.com/
문경새재국민여가캠핑장,카라반,36.7547637,128.0756159,경상북도 문경시 문경읍 하초리 ,76,0,0,9,1,1,3,https://www.mgtpcr.or.kr/web/index.do
숲이조아 오토캠핑장 ,일반야영장,36.5656209,127.9898533,경상북도 문경시 농암면 율수리 ,76,0,0,0,1,1,1,http://mwoodsna.dgweb.kr/
도레미 캠핑장 ,일반야영장,36.8573495,127.8205319,충청북도 괴산군 불정면 관동로세평4길 24 ,78,0,0,0,2,2,2,http://www.doremicamping.com/
iFA캠프운악 (아이에프에이 캠프운악),"일반야영장,글램핑",37.8946656,127.3058131,경기도 포천시 화현면 화현리 1090-2 ,78,0,3,0,1,1,1,https://www.campunak.co.kr/intro_main.aspx?ReturnUrl=%2f
너와두리농촌캠핑장,일반야영장,36.325784,127.7287446,충청북도 옥천군 청성면 한두레로 387 ,80,0,0,0,3,3,3,https://www.huiln.com/mitem/handure_camp
밤별 캠핑장 ,자동차야영장,37.1546762,127.7273548,충청북도 충주시 앙성면 모점1길 229 ,80,0,0,20,25,6,12,http://www.bambyul.co.kr/default/
오도산 자연휴양림 ,일반야영장,35.6686289,128.0542099,경상남도 합천군 봉산면 오도산휴양로 433 ,80,0,0,0,5,0,2,https://www.foresttrip.go.kr/indvz/main.do?hmpgId=ID02030068
원주참숯가마캠핑장(도도캠프),자동차야영장,37.2640568,128.2027943,강원도 원주시 신림면 솔치로 88 ,80,0,0,0,2,2,1,https://wonjucamp4793.modoo.at/
평산 오토캠핑 야영장 ,자동차야영장,37.2011666,127.9796003,충청북도 제천시 백운면 덕동로 205-4 ,80,0,0,0,1,1,3,https://www.gocamping.or.kr/bsite/camp/info/read.do?c_no=3233&viewType=read01
구봉산오토캠핑장 나인힐스,"자동차야영장,카라반",37.1177422,127.3131954,경기 용인시 처인구 원삼면 보개원삼로1372번길 41,80,0,8,1,4,2,16,https://ninehills.modoo.at/
단풍숲캠핑장 ,자동차야영장,37.1244409,127.3144633,경기 용인시 처인구 원삼면 보개원삼로1462번길 14-23,80,0,0,0,4,2,12,http://xn--6j1bz30au6dhmix1hx7a.jdweb.kr/
태안둘레길캠핑장,일반야영장,36.9319939,126.2939119,충청남도 태안군 이원면 내리 ,81,0,0,0,3,2,2,http://r.camperstory.com/resMain.hbb?reserve_path=RP&campseq=1537
썬빌리지펜션캠핑장,일반야영장,36.062427,129.5741744,경상북도 포항시 남구 호미곶면 호미로 1188 ,82,0,0,0,2,2,2,https://sunbillage.modoo.at/
국립유명산자연휴양림(일반),자동차야영장,37.5926571,127.49095,경기 가평군 설악면 유명산길 79-53,83,0,0,0,4,4,12,https://www.foresttrip.go.kr/indvz/main.do?hmpgId=0101
수승대야영장 ,일반야영장,35.7587062,127.8315083,경상남도 거창군 위천면 강천리 ,84,0,0,0,1,1,1,https://www.geochang.go.kr/tour/ssd/camping/reserve/Reserve.do?&pageCd=SD0603000000&siteGubun=ssd
성주봉 자연휴양림 ,일반야영장,36.5350634,128.0416819,경상북도 상주시 은척면 성주봉로 3 ,88,0,0,0,4,2,2,https://www.foresttrip.go.kr/indvz/main.do?hmpgId=ID02030039
쉬리마을,일반야영장,38.2469833,127.4209139,강원도 철원군 김화읍 청양리 9-6 ,90,0,0,0,1,3,8,https://www.swiripark.com/index.php
덕풍계곡솔밭야영장,자동차야영장,37.1008122,129.180074,강원도 삼척시 가곡면 풍곡리 ,92,0,0,0,1,1,2,http://tour.invil.com/front/tour/gds/data.do?contsNo=1703403
대가야농촌문화체험특구 캠핑장,일반야영장,35.7122326,128.2651114,경북 고령군 대가야읍 신남로 61,96,0,0,0,2,1,3,https://www.gocamping.or.kr/bsite/camp/info/read.do?c_no=6768&viewType=read01
칠곡보 오토캠핑장,자동차야영장,36.0202574,128.395463,경상북도 칠곡군 약목면 관호리 ,99,0,0,0,4,2,2,https://www.9749772.com/
강원도힐링캠핑장 ,자동차야영장,37.245979,128.157204,강원도 원주시 신림면 황둔리 ,100,0,0,0,2,2,2,http://r.camperstory.com/resMain.hbb?reserve_path=RP&campseq=394
곰섬야영장 ,일반야영장,36.5884564,126.2914386,충청남도 태안군 남면 신온리 ,100,0,0,0,2,1,4,https://www.gomsem.co.kr/
삼원레저타운,일반야영장,36.7770643,126.3497965,충남 서산시 팔봉면 진장서낭골길 203-14,100,0,0,0,4,2,4,http://samwonleisure.com/
설뫼충효테마파크야영장 ,일반야영장,35.4565999,128.3519947,경남 의령군 부림면 입산로 22-2 ,100,0,0,0,2,2,2,https://smcamping.com/
속리산 사내리 야영장 ,자동차야영장,36.531058,127.8251254,충청북도 보은군 속리산면 법주사로 248-46 ,100,0,0,0,4,2,4,https://sanaeri.modoo.at/
평화강변수목 캠핑장,자동차야영장,38.0189723,126.9779482,경기도 연천군 미산면 삼화리 ,100,0,0,0,3,2,3,
대운산 자연휴양림 ,일반야영장,35.4172798,129.2098495,경상남도 양산시 용당동 탑골길 208-124 ,101,0,0,0,3,0,2,
휴리조트 캠핑장 ,"일반야영장,카라반,글램핑",37.7845463,127.0993871,경기도 양주시 만송동 ,106,0,37,2,4,3,4,
땅에미소 오토캠핑장 ,자동차야영장,38.0547221,127.0871529,경기도 연천군 청산면 거저울길 339 ,110,0,0,0,3,1,3,
제천승마오토캠핑장,"자동차야영장,글램핑",37.1591587,128.1390573,충청북도 제천시 봉양읍 명도리 ,110,0,2,0,3,1,3,
운문산군립공원 소머리 야영장 ,일반야영장,35.6744938,128.9552361,경상북도 청도군 운문면 신원리 ,112,0,0,0,2,1,5,
창원휴양림 오토캠핑장,일반야영장,35.1111546,128.5705925,경상남도 창원시 마산합포구 구산면 석곡리 ,120,0,0,0,4,1,4,
팔봉산관광지 야영장,자동차야영장,37.7018759,127.6953124,강원도 홍천군 서면 한치골길 1122-48 ,120,0,0,0,2,0,2,
정양레포츠공원 오토캠핑장,일반야영장,35.5581982,128.1667524,경남 합천군 대양면 정양리 613,123,0,0,0,2,1,1,
금은모래 캠핑장,일반야영장,37.2939603,127.665852,경기도 여주시 강변유원지길 107 ,151,0,0,0,6,2,1,
구미 캠핑장,"일반야영장,카라반",36.1384962,128.3750556,경상북도 구미시 양호동 614-1,157,0,0,13,5,6,3,
한강공원 난지캠핑장,자동차야영장,37.5699862,126.8720578,서울특별시 마포구 한강난지로 28 ,180,0,0,0,2,4,6,
가산산성 야영장 ,일반야영장,36.0188551,128.6201675,경상북도 칠곡군 동명면 한티로 1034 ,200,0,0,0,5,0,5,
월악산국립공원 덕주야영장 ,자동차야영장,36.8674239,128.087888,충청북도 제천시 한수면 미륵송계로 1647 ,200,0,0,0,1,0,1,
함허동천야영장,자동차야영장,37.6113237,126.4522881,인천광역시 강화군 화도면 해안남로1196번길 38 ,200,0,0,0,6,6,6,
얼음골야영장 ,자동차야영장,37.9601729,128.5157115,강원도 양양군 서면 얼음골길 45 ,300,0,0,0,2,2,2,
용담댐 오토 캠핑장,"일반야영장,카라반",35.9366966,127.529745,전북 진안군 안천면 안용로 539,0,1,0,3,0,0,0,
경주글램존,"일반야영장,글램핑",35.9505185,129.1400306,경상북도 경주시 안강읍 강교리 877-1,0,2,9,0,2,2,2,
배모루캠핑장 ,일반야영장,38.0162074,127.146457,경기도 포천시 창수면 전영로 764 ,0,2,0,0,1,1,1,
교동아일랜드,"자동차야영장,카라반",37.7728422,126.3009741,강화군 교동면 읍내리 6-5번지,2,2,0,5,10,2,5,
캐나디언 카누클럽 야영장,자동차야영장,37.7223944,127.5870896,강원도 홍천군 서면 마곡리 ,2,2,0,0,1,1,1,
단호샌드파크 자동차야영장 ,"일반야영장,자동차야영장,카라반,글램핑",36.555699,128.6302903,경상북도 안동시 남후면 단호리 ,8,2,2,13,2,2,1,
해바라기캠핑장 (쌍용계곡 해바라기펜션&캠핑장),일반야영장,36.5710734,127.9749734,경상북도 문경시 농암면 청화로 695 ,31,2,0,0,2,2,2,
스톤힐 글램핑(글램핑힐),"일반야영장,글램핑",37.5002893,127.4864973,경기도 양평군 양평읍 양근골안길17번길 2-24 ,0,3,8,0,2,2,0,
비체올린,일반야영장,33.3496453,126.2178999,제주특별자치도 제주시 한경면 판포리 ,16,3,0,0,2,2,1,
신북온천글램핑장 (주식회사 신북리조트),글램핑,37.9735743,127.1025396,경기도 포천시 신북면 덕둔리 635-3,0,4,16,0,1,1,1,
청화산캠프관광농원 ,"일반야영장,카라반",36.3068386,128.4623468,경상북도 군위군 소보면 보현리 ,0,4,0,12,2,2,1,
카누글램핑펜션 ,"일반야영장,글램핑",38.0590064,127.5110893,강원도 화천군 사내면 삼일리 ,0,4,5,0,2,2,2,
의풍분교 온달캠프장,일반야영장,37.0665012,128.6123412,충청북도 단양군 영춘면 의풍리 760 ,16,4,0,2,2,1,2,
낭만캠프 ,"일반야영장,카라반,글램핑",38.0431019,127.7993317,강원도 화천군 간동면 유촌리 ,0,5,3,3,2,2,1,
Black tree (블랙트리캠핑장),"일반야영장,글램핑",37.2637704,126.4471352,인천광역시 옹진군 영흥면 내리 ,0,5,13,0,0,0,0,
비토섬오토캠핑장 ,"일반야영장,카라반,글램핑",34.984468,127.9664143,경상남도 사천시 토끼로 245-5 비토섬신우리조트 ,0,5,8,8,1,1,1,
자연과우리펜션자동차야영장 ,일반야영장,37.9403186,128.6461312,강원도 양양군 현북면 어성전리 ,0,5,0,0,2,1,3,
청옥산깨비마을야영장 ,"일반야영장,카라반",37.3674464,128.4852031,강원도 평창군 미탄면 회동리 ,0,5,0,3,1,1,1,
트윈스캠핑장,"일반야영장,카라반",36.7587076,126.8795419,충남 아산시 도고면 도고면로 117,0,5,0,7,2,2,1,
모험레포츠 연수원 캠핑장 ,"일반야영장,자동차야영장",38.0016471,128.231821,강원도 인제군 인제읍 원대리 ,10,5,0,0,2,2,1,
자우림캠핑장,"일반야영장,자동차야영장",37.9699307,127.4520459,경기 가평군 북면 가화로 2697-125,10,5,0,0,2,2,2,
파인트리 캠핑장 ,"일반야영장,카라반,글램핑",38.020662,127.3641366,경기도 포천시 이동면 연곡리 ,0,6,17,4,1,1,1,
동의보감촌 숲속글램핑 (구 한방자연휴양림),글램핑,35.4340358,127.8236808,경남 산청군 금서면 동의보감로555번길 167-23,6,6,23,0,4,3,4,
들꽃여울캠핑장 ,"일반야영장,자동차야영장",37.5972741,127.5055741,경기 가평군 설악면 어비산길 130-6,6,6,0,0,2,2,6,
용수 그린랜드,"자동차야영장,글램핑",37.8537932,127.3480863,경기 가평군 조종면 운악청계로491번길 87,6,6,15,0,4,2,6,
토토큰바위 캠핑장 ,일반야영장,37.9621768,127.5278742,경기 가평군 북면 화악산로 1246,7,6,9,1,4,2,2,
이우캠핑장 ,"자동차야영장,글램핑",37.8155511,127.3239698,경기도 가평군 원흥길 77-42 (주)이우 ,8,6,5,0,2,2,2,
아르보리아파크 캠핑장,자동차야영장,37.6104188,126.5074352,인천 강화군 길상면 장흥로101번길 65,17,6,0,0,3,4,4,
대도파라다이스 ,일반야영장,34.9313379,127.8319496,경상남도 하동군 금남면 대도리 ,0,7,0,0,1,1,1,
묘솔 캠핑장 ,일반야영장,36.9210157,128.5076008,경상북도 영주시 풍기읍 삼가로 423 ,0,7,0,0,2,2,1,
무주 솔밭야영장 ,"일반야영장,자동차야영장,카라반",35.8361305,127.6725427,전북 무주군 안성면 원통사로 294,5,7,0,0,3,2,2,
라곰 캠핑힐,"일반야영장,자동차야영장",35.181077,127.754772,경남 하동군 청암면 사동길 2,5,7,0,0,5,8,5,
가평 오렌지캠프 ,"자동차야영장,글램핑",37.9133831,127.5765247,경기 가평군 북면 멱골로272번길 7,22,7,22,0,4,4,6,
대장금파크 캠핑장,"일반야영장,자동차야영장,글램핑",37.1200207,127.3401086,경기 용인시 처인구 백암면 용천리 781,0,8,5,10,2,2,10,
통영캠핑스토리 ,일반야영장,34.7858711,128.4114622,경상남도 통영시 산양읍 봉전상촌길46번지,0,8,0,0,1,1,1,
한별도그파크,자동차야영장,35.3365448,128.3562289,경남 함안군 법수면 이묵골로 135,0,8,6,0,1,1,2,
가창농원 야영장 ,"일반야영장,자동차야영장",35.7270263,128.6791722,대구광역시 달성군 가창면 삼산리 ,8,8,0,0,1,1,1,
오류캠핑장 ,"일반야영장,카라반",35.8218166,129.5082435,경상북도 경주시 감포읍 감포로 ,8,8,0,28,2,2,1,
힐조캠핑장 ,"일반야영장,자동차야영장",37.7626395,127.3618555,경기 가평군 상면 수목원로164번길 16,14,8,0,0,2,2,8,
구마이오토캠핑장,일반야영장,36.4527077,128.0284674,경상북도 상주시 내서면 우서로 287-4 ,15,8,0,0,1,1,2,
강동 그린웨이 가족캠핑장 ,자동차야영장,37.5362549,127.1520941,서울특별시 강동구 둔촌동 동남로 660 ,72,8,0,0,2,2,2,
상주 경천대 오토캠핑장,"일반야영장,카라반",36.4547428,128.2443154,경상북도 상주시 사벌면 삼덕리 ,0,9,16,0,4,4,2,
숲속의 쉼터 ,"일반야영장,글램핑",37.9690192,127.0288582,경기도 연천군 전곡읍 양원로268번길 85 ,0,9,35,0,4,1,4,
개금불 어뮤니티 ,일반야영장,35.6346394,128.1105585,경상남도 합천군 묘산면 봉곡리 ,0,10,0,0,1,1,1,
농업법인주식회사 고운힐링팜 ,"일반야영장,글램핑",36.435692,126.7659453,충남 청양군 청양읍 식물원길 398-1 ,0,10,10,0,1,1,1,
대둔산글램핑캠핑장 ,"일반야영장,글램핑",36.0768729,127.2826543,전라북도 완주군 운주면 장선리 ,0,10,5,0,1,1,1,
덕유산 글램핑 ,"일반야영장,자동차야영장,카라반,글램핑",35.9095239,127.77856,전라북도 무주군 설천면 삼공리 ,0,10,12,2,1,1,1,
들꽃피는언덕 캠핑장,"일반야영장,글램핑",37.7761703,126.9600316,경기도 양주시 백석읍 권율로 870 ,0,10,4,0,5,5,1,
방태산 솔마루 오토캠핑장 ,일반야영장,37.9397149,128.3813017,강원도 인제군 기린면 방동리 ,0,10,0,0,1,1,2,
성동힐링센터 휴(休)영월캠프,"자동차야영장,글램핑",37.2692007,128.5263305,강원도 영월군 동강로 1488-23 봉래초교문산분교 ,0,10,5,0,2,2,2,
아빠의나무야영장,일반야영장,36.7237897,127.7400448,충북 괴산군 청천면 괴산로부성1길 15-22,0,10,0,0,4,2,1,
주문진글램핑오토캠핑장,"자동차야영장,카라반,글램핑",37.8800594,128.7344964,강원도 강릉시 주문진읍 삼교리 ,0,10,16,0,8,1,0,
채움 관광농원,"일반야영장,글램핑",38.0650584,127.3896367,경기도 포천시 이동면 도평리 94 외 2필지,0,10,10,0,1,1,1,
청산별곡 ,일반야영장,35.4357242,127.2670221,전라북도 순창군 수장2길 38-4 ,0,10,0,0,1,1,1,
춘천박사마을 어린이 글램핑장 (재단법인 강원정보문화 진흥원),"일반야영장,글램핑",37.8930335,127.6918678,강원 춘천시 서면 박사로 854,0,10,24,0,6,2,2,
테이스트캠프,일반야영장,38.06336,127.3892747,경기도 포천시 이동면 화동로 2498-1,0,10,0,0,1,1,0,
합천라온오토캠핑장 ,"일반야영장,자동차야영장,글램핑",35.5522695,128.0561628,경상남도 합천군 용주면 가호리 ,0,10,8,0,1,1,1,
별밤펜션 캠핑장,일반야영장,36.0894833,127.8812519,충북 영동군 상촌면 물한계곡로 896,0,10,0,0,2,2,1,
산중오토캠핑장,"일반야영장,자동차야영장",35.8259094,127.8047137,경상남도 거창군 북상면 송계사길 63-107,0,10,0,0,6,20,10,
물골삼화힐링타운캠핑장,"일반야영장,자동차야영장",37.836492,127.3153356,경기 가평군 상면 물골길 112,10,10,0,0,2,2,6,
녹천캠핑,"일반야영장,자동차야영장,글램핑",37.8447877,127.348642,경기 가평군 조종면 운악청계로333번길 55-51,10,10,9,0,2,2,7,
유명산힐링캠핑장,자동차야영장,37.590898,127.5131851,경기 가평군 설악면 어비산길 201-62,10,10,0,0,2,2,8,
80 SS 오토캠핑장,"일반야영장,자동차야영장,글램핑",36.0300417,128.6304762,경북 군위군 부계면 남산리 1138-4번지,14,10,7,0,2,2,2,
숲속의베리팜 (구 숲속의 팜핑),일반야영장,35.1799146,127.0992454,전라남도 화순군 북면 백아로 25-48,33,10,0,10,1,1,2,
황토와 통나무 캠핑장,"일반야영장,자동차야영장",37.3717342,128.2735785,강원 영월군 무릉도원면 백년계곡길 66-16,52,10,0,0,2,2,4,
좌구산오토캠핑장,일반야영장,36.7139424,127.6499702,충청북도 증평군 증평읍 율리 ,0,11,0,0,6,2,1,
트리독스 애견전용캠핑장(청산관광농원),일반야영장,35.6504808,128.2300669,경상북도 고령군 쌍림면 용당길 42-56 ,0,11,0,0,2,2,2,
캠프락캠핑장,"일반야영장,카라반,글램핑",37.8223436,127.3206037,가평군 상면 원흥리 514-2,0,11,3,2,4,4,4,
파인힐빌리지 캠핑장,일반야영장,37.92641,127.043898,경기도 동두천시 안흥로 65-42 (안흥동),0,11,0,0,2,2,2,
코끼리캠핑장,"자동차야영장,글램핑",37.958895,127.5270861,경기도 가평군 북면 화악리 1007번지/화악산로 1217-2,11,11,11,0,2,2,4,
팡팡캠핑장,"일반야영장,자동차야영장",37.181738,127.2913319,경기 용인시 처인구 원삼면 동부로 1041,11,11,0,0,2,2,6,
진밭골야영장,"일반야영장,자동차야영장",35.8169547,128.6602697,대구 수성구 진밭길 112 (범물동),11,11,0,5,2,10,20,
경주 힐링캠프,"일반야영장,글램핑",35.8156778,129.0408134,경상북도 경주시 산내면 감산리 1456번지,0,12,17,0,2,2,2,
달곡캠프 ,일반야영장,35.6093587,129.420125,울산광역시 북구 무룡동 ,0,12,0,0,1,1,1,
구절초마을 캠핑장,"일반야영장,자동차야영장",37.5146165,128.7320835,강원 정선군 여량면 노추산로 794,0,12,3,0,3,6,3,
부산 송도오토캠핑장,일반야영장,35.073339,129.016822,부산시 서구 송도해변로 36,0,12,0,20,0,0,0,
입화산 참살이숲 제2오토캠핑장,자동차야영장,35.5768743,129.2774288,울산광역시 중구 다운동 8번지,0,12,0,0,1,1,1,
산으로간 니모 캠핑장 ,"자동차야영장,글램핑",37.854851,127.396992,경기 가평군 조종면 연인산로 670-321,12,12,7,0,2,2,10,
태학산 자연휴양림 오토캠핑장,자동차야영장,36.7315705,127.0938931,충남 천안시 동남구 풍세면 삼태리 산28-1,21,12,0,0,2,1,2,
가학산 자연휴양림 ,일반야영장,34.6719718,126.6152381,전라남도 해남군 계곡면 산골길 306 ,0,13,0,0,2,2,2,
약수골 캠프촌 오토캠핑장 ,"일반야영장,카라반",38.1664813,128.0503854,강원도 양구군 동면 후곡리 ,0,13,0,4,1,1,1,
캠프수풀이,"일반야영장,자동차야영장,글램핑",37.7510277,127.3662988,경기도 가평군 상면 임초리 608외 1필지,0,13,1,0,2,2,6,
정원캠핑장 (강릉) ,일반야영장,37.879593,128.709623,강원도 강릉시 주문진읍 삼교리 ,0,13,0,0,4,6,3,
진북 편백골 관광농원 캠핑장 ,"일반야영장,자동차야영장",35.1546507,128.4441716,경상남도 창원시 마산합포구 진북면 금산리 ,46,13,0,0,1,1,1,
영덕 고래불 국민 야영장,"일반야영장,자동차야영장,카라반",36.5675773,129.4230584,경상북도 영덕군 병곡면 고래불로 12,110,13,0,25,10,6,4,
강변사리 캠핑장,일반야영장,35.4957407,127.190327,전라북도 임실군 덕치면 강동로 865-20,0,14,0,0,1,1,1,
고향펜션캠핑,일반야영장,37.012853,128.935833,경상북도 봉화군 소천면 고선리 558-1,0,14,0,0,1,1,1,
숲과펜션야영장,일반야영장,37.4414522,128.3588415,강원도 평창군 방림면 방림리 1775-2번지,0,14,0,0,1,1,1,
진도풍경오토캠핑장,일반야영장,34.4653393,126.294498,전라남도 진도군 의신면 의신사천길 15-21,0,14,0,0,1,1,1,
호연지기 관광농원 캠핑장,"일반야영장,자동차야영장",37.2523549,128.0823896,강원도 원주시 신림면 성남리 ,0,14,0,0,1,1,4,
깊이울관광농원(깊이울 캠핑장),"일반야영장,자동차야영장",37.9239705,127.175917,경기 포천시 신북면 깊이울로 139-8,8,14,0,0,3,1,7,
예그리나숲 (구 백년관광농원),"일반야영장,자동차야영장",37.3438487,128.30755,강원도 영월군 주천면 중선로 609-4 ,25,14,0,0,1,1,1,
낙산해변야영장 ,자동차야영장,38.1123773,128.6385323,강원도 양양군 양양읍 조산리 ,300,14,0,0,4,4,4,
(주)어반슬로우시티,"자동차야영장,글램핑",37.732632,127.5116915,강원도 춘천시 남면 가옹개길 108 ,0,15,32,0,2,2,1,
수승대 오토캠핑장,일반야영장,35.7628528,127.8301144,경상남도 거창군 위천면 은하리길 2 ,0,15,0,0,1,1,1,
예천군 곤충나라 사과테마파크 오토캠핑장,일반야영장,36.802707,128.453593,경상북도 예천군 효자면 제촌길 58-2,0,15,0,0,2,2,2,
큰마당캠핑장,일반야영장,38.0678773,127.3821633,경기도 포천시 이동면 도평리 471 외 2필지,0,15,0,0,2,2,2,
한천 자연휴양림 ,"일반야영장,카라반",34.9864287,127.0404256,전라남도 화순군 한천면 죽헌로 719,0,15,0,4,1,1,1,
화진포 오토캠핑장 ,일반야영장,38.4701443,128.4201068,강원도 고성군 현내면 모정2길 2 ,0,15,0,0,2,2,3,
수리덤 캠핑장,일반야영장,35.6492752,129.0305305,경상북도 청도군 운문면 신원리 산2-3 ,0,15,0,0,2,2,3,
캠플레이 캠핑장 ,자동차야영장,38.1647214,127.6160072,경기 가평군 상면 비룡로 1610-15,0,15,0,0,2,2,3,
국립검봉산자연휴양림야영장,"일반야영장,자동차야영장",37.2373646,129.2993868,강원도 삼척시 원덕읍 임원안길 525-145 ,7,15,0,0,3,2,2,
계곡풍경캠핑장,자동차야영장,37.952825,127.4758301,경기 가평군 북면 가화로 2389-38,15,15,0,0,4,4,3,
달서별빛캠프 캠핑장,"일반야영장,카라반",35.8232437,128.5570421,대구 달서구 앞산순환로 248 (송현동),26,15,0,8,3,2,2,
(주)데일리랜드 ,자동차야영장,37.7608264,127.8469049,강원도 춘천시 동산면 봉명리 35,0,16,0,0,2,1,2,
클럽레드존캠핑장 ,"일반야영장,자동차야영장",37.7600198,127.5410009,경기 가평군 가평읍 북한강변로 360-69,0,16,0,0,4,4,2,
의령나루캠프,일반야영장,35.2582718,128.2705036,경남 의령군 화정면 화정로14길 16-5,0,16,0,0,1,1,1,
가지산 자연캠핑장 ,"일반야영장,자동차야영장",35.6366866,129.0561062,울산광역시 울주군 삽재로 279-22 가지산자연 ,16,16,0,0,1,1,1,
내원자동차야영장 ,"자동차야영장,카라반",35.2967767,127.8124104,경상남도 산청군 삼장면 대포리 ,32,16,0,0,0,0,0,
예원캠핑장 ,일반야영장,35.9264673,127.2579565,전라북도 완주군 동상면 송광수만로 1079-126 ,0,17,0,0,1,1,1,
놀터캠핑장,"일반야영장,카라반",35.070153,128.450113,경남 고성군 동해면 외산로 353,0,17,0,0,1,1,1,
달재오토캠핑장,일반야영장,37.2161693,127.9570033,충북 제천시 백운면 덕동로2길 23-13,0,17,0,0,2,2,1,
장호비치캠핑장,"일반야영장,자동차야영장,카라반",37.2845337,129.3121934,강원도 삼척시 근덕면 삼척로 2116,17,17,0,8,3,2,2,
숲속에안뜰 캠핑장,자동차야영장,37.1830845,127.3083987,경기 용인시 처인구 원삼면 원양로 250-23,17,17,0,0,2,2,2,
충북대학교 천문대천문체험학교,일반야영장,36.7815397,127.475429,충청북도 진천군 문백면 은탄리 ,0,18,0,0,9,12,12,
푸른바다와 캠핑 ,일반야영장,34.8344317,128.3935342,경상남도 통영시 인평동 국치1길 49 ,0,18,0,0,1,1,1,
황방산 생태야영장,"일반야영장,카라반",35.58846,129.3289857,울산광역시 중구 장현동 469번지 일원,0,18,0,3,1,1,1,
용천토리 오토캠핑장,일반야영장,35.7010795,129.0775029,경북 경주시 산내면 대현길 390,0,18,0,0,2,2,1,
이지캠핑장 ,"일반야영장,글램핑",37.695407,127.4600518,경기도 가평군 설악면 유명로 2110 ,18,18,26,0,4,2,1,
홍천강 오토캠핑장 ,"일반야영장,자동차야영장",37.690326,127.7872082,강원도 홍천군 북방면 굴지강변로 322 ,32,18,0,0,2,2,2,
와룡자연휴양림 자동차야영장,"일반야영장,자동차야영장,카라반",35.6762189,127.4772179,전라북도 장수군 천천면 비룡리 ,100,18,0,0,5,5,7,
순천국민여가캠핑장,일반야영장,35.0432702,127.4773057,전라남도 순천시 서면 청소년수련원길 170 ,0,19,0,0,2,2,2,
장수누리파크 오토캠핑장,일반야영장,35.6438009,127.5227239,전라북도 장수군 장수읍 논개사당길 65,0,19,0,0,1,1,1,
충주카누캠핑장 ,일반야영장,36.9758362,128.0209169,충청북도 충주시 동량면 화암리 ,0,19,0,0,2,2,4,
해인캠핑장,일반야영장,35.5393762,127.9778434,경상남도 합천군 대병면 대지리 296번지,0,19,0,0,1,1,1,
가야산국립공원 삼정자동차야영장 ,"일반야영장,자동차야영장",35.7834326,128.0782632,경남 합천군 가야면 치인리 산16-1 ,0,19,0,0,1,1,1,
제천 명암 오토캠핑장,일반야영장,37.1874314,128.1310456,충청북도 제천시 봉양읍 명암로 5길 1,0,19,0,0,6,2,4,
The Star 오토캠핑장,"일반야영장,자동차야영장,카라반",34.718507,127.781276,전남 여수시 돌산읍 상하동길 268,9,19,0,2,2,2,1,
광주시민의 숲 야영장 ,"일반야영장,자동차야영장",35.2343087,126.8672217,광주광역시 북구 월출동 968번지,38,19,0,0,2,1,2,
Najost Camp(나조스트 캠프),일반야영장,37.1103264,128.6037991,강원 영월군 김삿갓면 김삿갓로 638,0,20,0,0,2,1,3,
국립유명산자연휴양림(자동차),일반야영장,37.5817426,127.4838359,경기도 가평군 설악면 가일리 산58-1,0,20,0,0,2,2,5,
양평 키즈 글램핑 (구 꿈의 마을 캠핑장),"일반야영장,글램핑",37.5568939,127.7245394,경기도 양평군 청운면 용두리 ,0,20,10,0,3,2,2,
마루펜션 캠핑장 ,자동차야영장,37.2987559,128.344633,강원 영월군 주천면 평창강로 221,0,20,0,0,1,1,1,
소금강마을에코센터 오토캠핑장 ,일반야영장,37.8479465,128.7413289,강원도 강릉시 연곡면 퇴곡리 ,0,20,0,0,1,1,2,
아늑한쉼터 ,일반야영장,37.5759578,128.0447855,강원도 횡성군 갑천면 어답산로 162 ,0,20,0,0,1,1,1,
어섬캠핑장 ,일반야영장,37.2447531,126.6528072,경기도 화성시 송산면 고포리 ,0,20,0,0,1,1,2,
어성전야영장,일반야영장,37.9470777,128.6631731,강원도 양양군 현북면 어성전길 182-20,0,20,0,0,2,2,1,
월악 한울 오토캠핑장 ,일반야영장,36.9139799,128.1097107,충청북도 제천시 덕산면 월악산로 13 ,0,20,0,0,1,1,1,
은빛초원 캠핑장 ,일반야영장,37.2226794,126.8006489,경기도 화성시 원천동 672-1 ,0,20,0,0,1,1,1,
자연애스토리 ,일반야영장,35.0969951,126.6617229,전남 나주시 문평면 학교평전길 122,0,20,0,0,1,1,1,
정이품송관광농원 ,일반야영장,36.471447,127.7916075,충청북도 보은군 장안면 개안리 ,0,20,0,0,2,5,3,
추억만들기캠핑장 ,일반야영장,37.3485926,127.7165956,경기도 여주시 북내면 중암리 ,0,20,0,0,1,1,1,
칠갑산 자연휴양림 ,일반야영장,36.4314933,126.8425,충청남도 청양군 대치면 광대리 ,0,20,0,0,1,1,1,
하늘연캠핑장 ,"일반야영장,글램핑",37.9508383,126.9211406,경기도 파주시 적성면 마지리 ,0,20,7,0,2,2,1,
호호캠핑장 ,"일반야영장,글램핑",37.2518183,128.0825071,강원도 원주시 신림면 무시정길 16 ,0,20,6,0,1,1,1,
서후리캠핑장,일반야영장,37.5727667,127.4195528,경기 양평군 서종면 서차남1길 4,0,20,0,0,1,1,2,
얼음골애플 오토캠핑장 ,일반야영장,35.5780035,128.9612671,경남 밀양시 산내면 얼음골옛길 92-37 ,0,20,0,2,1,1,2,
왕피천관광농원 ,자동차야영장,36.9287439,129.3460923,경상북도 울진군 근남면 구산리 ,0,20,0,0,3,3,1,
상주 감꽃마을 서울캠핑장,자동차야영장,36.330108,128.21345,경북 상주시 낙동면 선상서로 1587,0,20,0,0,0,0,0,
경기도청소년야영장,"자동차야영장,글램핑",37.4221293,127.3767294,경기 광주시 퇴촌면 천진암로 1243,0,20,13,0,3,8,22,
들살이행복 오토캠핑장 ,일반야영장,35.6431968,128.8503712,경상북도 청도군 매전면 온장길 123-46 ,20,20,0,0,1,1,1,
문라이트캠핑장 ,자동차야영장,37.6014209,126.4929712,인천광역시 강화군 길상면 해안남로 654 ,20,20,0,0,2,2,1,
황학동캠핑장 ,자동차야영장,37.208693,128.0453687,강원도 원주시 신림면 구학리 ,20,20,0,0,3,2,3,
문수산 캠핑장 ,자동차야영장,37.1622209,127.2534755,경기 용인시 처인구 이동읍 이원로 637-3,20,20,0,0,9,4,9,
브라보캠핑장 ,"일반야영장,자동차야영장",37.9719504,127.4552605,경기 가평군 북면 가화로 2670-71,20,20,0,0,2,2,4,
하늘땅 별땅 쉼터 ,"일반야영장,자동차야영장",37.9512003,127.5332378,경기 가평군 북면 화악산로 1135-47,20,20,0,0,4,5,5,
홀리데이캠핑장 ,"일반야영장,자동차야영장",37.6034978,127.4945078,경기 가평군 설악면 유명로 654-82,20,20,0,0,2,2,6,
한스캠핑장 ,"일반야영장,자동차야영장",37.2550297,128.1783628,강원도 원주시 신림면 황둔리 ,22,20,0,0,2,2,3,
엉클캠프 ,"일반야영장,자동차야영장",37.1727194,128.1096505,충청북도 제천시 봉양읍 옥전리 ,24,20,0,0,2,2,2,
국립가리왕산자연휴양림 ,"일반야영장,자동차야영장",37.4249326,128.5745045,강원도 정선군 정선읍 가리왕산로 707 ,25,20,0,0,1,2,2,
피노키오 자연휴양림 야영장 (치악산관광농원캠핑장),"일반야영장,자동차야영장",37.258394,128.1654343,강원도 원주시 신림면 황둔리 ,80,20,0,0,6,6,6,
고포수변공원 캠핑장,일반야영장,34.9657959,127.7715275,경남 하동군 금성면 고포큰골길19-37,0,21,0,0,2,1,1,
괴강관광농원 카라반&캠핑장,"일반야영장,자동차야영장,카라반",36.7985563,127.8244031,충북 괴산군 칠성면 괴강로 354-14,0,21,0,10,0,0,0,
캠핑 뜨락 오토캠핑장,일반야영장,36.0141064,128.0828277,경상북도 김천시 조마면 강곡리 917-1 ,21,21,0,0,2,2,2,
해창만 수변공원 오토캠핑장,일반야영장,34.5797402,127.3941965,전라남도 고흥군 포두면 팔영로 405 ,27,21,0,0,0,0,0,
가람관광농원,일반야영장,35.584137,128.052596,경남 합천군 봉산면 인덕로 930,0,22,0,0,1,1,1,
계룡산동학사자동차야영장,일반야영장,36.3583238,127.2410248,충청남도 공주시 반포면 동학사2로 115-16 ,0,22,0,0,1,1,1,
선녀와 나무꾼 캠핑장,일반야영장,37.0049206,128.1510108,충북 제천시 청풍면 신리 214-4번지,0,22,0,0,2,2,2,
춘장대 중앙솔밭캠핑,일반야영장,36.1634585,126.5252458,충남 서천군 서면 도둔리 1273,0,22,0,0,2,4,1,
단양 무지개 오토캠핑장,자동차야영장,37.044597,128.4121427,충북 단양군 가곡면 가대리 55,22,22,0,0,2,2,2,
광릉숲 이야기 관광농원 ,"일반야영장,카라반",37.7664661,127.1706732,경기도 포천시 소흘읍 직동리 ,0,23,0,0,1,1,3,
대천오토캠핑장(상양관광농원),일반야영장,36.369724,126.591838,충청남도 보령시 주교면 문화마을길 178-58 ,0,23,0,0,2,2,1,
만정캠핑장,일반야영장,37.5160908,126.5481618,인천광역시 중구 중산동 ,0,23,0,0,2,2,2,
아이비캠핑장,"일반야영장,자동차야영장,카라반",35.6067305,128.9245914,경상남도 밀양시 산내면 원서3길 47 ,0,23,0,0,1,1,1,
가평 사계절캠핑장 ,"일반야영장,자동차야영장",37.8833509,127.5489707,경기도 가평군 가화로 988-0 ,25,23,0,0,2,3,4,
구천계곡야영장,"일반야영장,자동차야영장",35.5367912,128.9229496,경상남도 밀양시 단장면 구천리 ,0,24,0,0,1,1,1,
도리돌 캠핑장 ,일반야영장,38.0612852,127.3868178,경기도 포천시 이동면 도평리 ,0,24,0,0,1,1,1,
바다가 보이는 부산항 힐링 야영장,일반야영장,35.11493,129.0453984,부산광역시 동구 초량동 1185-1(舊 부산항 3부두) 지선,0,24,0,0,1,1,1,
십자봉오토캠핑장 ,일반야영장,37.2143533,127.9544927,충청북도 제천시 백운면 덕동리 ,0,24,0,0,2,2,2,
충주호캠핑월드(충주호캠핑장),"자동차야영장,글램핑",37.0272913,128.0418349,충청북도 충주시 동량면 호반로 696-1 ,0,24,7,0,2,2,1,
향림오토캠핑장,일반야영장,35.5797474,128.9801761,경상남도 밀양시 산내면 삼양리 ,0,24,0,0,1,1,1,
목사골 야영장,일반야영장,35.1059221,127.3125246,전남 곡성군 목사동면 용봉리 425,0,24,0,0,1,1,1,
용추밸리 캠프 야영장,자동차야영장,35.6724788,127.7842052,경남 함양군 안의면 매바위길 14,0,24,0,0,1,1,1,
파계 오토캠핑장 (파계야영장),자동차야영장,35.9930818,128.6371694,대구광역시 동구 파계로 707-14 ,0,24,0,0,1,1,1,
파인힐캠프(파인힐관광농원) ,일반야영장,36.643923,126.6029133,충남 예산군 덕산면 외라2길 60-24,0,24,0,0,1,1,1,
임하호 수상레저타운캠핑장,"일반야영장,자동차야영장,카라반,글램핑",36.5666883,128.9210806,경상북도 안동시 임동면 중평리 1040,24,24,8,11,2,2,1,
팜스퀘어 하늘타리 ,"일반야영장,자동차야영장",37.3841692,127.5005916,경기도 여주시 금사면 도곡리 ,24,24,0,0,2,2,4,
씨밀레자연관광농원,자동차야영장,37.1633605,127.2491161,경기 용인시 처인구 이동읍 이원로601번길 1-5,24,24,0,0,2,2,7,
드림이벤트 (구 꿈꾸는 캠핑장),"일반야영장,자동차야영장,글램핑",35.6258784,128.0425891,경남 합천군 봉산면 김봉리 351-1,0,25,10,0,2,2,2,
둔내캠프 ,일반야영장,37.5354346,128.2549846,강원도 횡성군 둔내면 용현로 429 ,0,25,0,0,1,1,2,
방아텃골 관광농원 ,"일반야영장,글램핑",37.938396,127.2767968,경기도 포천시 일동면 길명리 ,0,25,2,0,1,1,1,
제주벨리타캠핑장,자동차야영장,33.507783,126.6980007,제주특별자치도 제주시 조천읍 중산간동로 1194 ,0,25,0,0,1,1,1,
양양 죽도오토캠핑장,"자동차야영장,카라반",37.9735701,128.7596988,강원도 양양군 현남면 인구중앙길 88 ,0,25,5,18,2,2,2,
힐빙스토리자동차야영장,일반야영장,35.6492042,127.6713392,경상남도 함양군 서상면 옥산리 ,0,25,0,0,2,2,1,
연천 사미천 캠핑장,자동차야영장,37.996091,126.890469,경기도 연천군 장남면 장백로 330번길 236,0,25,0,0,2,2,1,
마리원관광농원캠핑장 ,자동차야영장,37.615425,126.5106207,인천광역시 강화군 길상면 장흥리 ,25,25,0,0,4,4,1,
그린콩 캠핑장 (또와캠핑장),"일반야영장,자동차야영장",37.8972873,127.5539975,경기도 가평군 북면 소법리 627-54 ,25,25,0,0,2,2,7,
개울가오토캠핑장 ,"일반야영장,자동차야영장",37.6030031,127.4949246,경기 가평군 설악면 유명로 654-58,25,25,0,0,4,4,4,
연곡해변 솔향기캠핑장 ,"일반야영장,자동차야영장",37.8588053,128.8533563,강원도 강릉시 연곡면 동덕리 ,122,25,0,0,6,6,16,
고성패밀리캠핑장,"일반야영장,글램핑",34.9940595,128.2201195,경상남도 고성군 상리면 상정대로 1186,0,26,5,0,4,2,2,
산여울캠핑장 ,"일반야영장,자동차야영장,카라반",35.5430289,128.8566995,경상남도 밀양시 산외면 밀양대로 3480 ,0,26,0,0,1,1,1,
수레의산 국민여가 캠핑장,일반야영장,37.0393686,127.6526551,음성군 생극면 차곡리 151,0,26,0,0,2,2,2,
가야산국립공원 백운동 자동차야영장 ,"일반야영장,자동차야영장",35.8036003,128.1438279,경상북도 성주군 수륜면 백운리 ,0,26,0,0,1,1,2,
가야산국립공원 치인자동차야영장,일반야영장,35.7956874,128.0840614,경상남도 합천군 가야면 치인리 ,0,26,0,0,1,1,1,
고성 남산공원 오토캠핑장 ,"일반야영장,카라반,글램핑",34.9559321,128.3277671,경상남도 고성군 고성읍 공룡로 3165 ,0,27,3,6,2,1,1,
꿈의대화캠핑장 ,일반야영장,37.5017856,128.4514503,강원도 평창군 대화면 대화리 1152-4 ,0,27,11,0,2,2,2,
물안개 오토캠핑장,일반야영장,35.4918601,128.9264812,경남 밀양시 단장면 고례리 1491 외 1필지,0,27,0,0,1,1,1,
예산군 예당관광지야영장 (예당관광지 국민여가캠핑장),"일반야영장,자동차야영장",36.6374233,126.7999875,충청남도 예산군 응봉면 예당관광로 123 ,0,27,0,0,2,2,1,
증산수도계곡캠핑장,일반야영장,35.8612594,127.9964744,김천시 증산면 수도길 25,0,27,0,0,4,2,3,
백운산 자연휴양림 자동차야영장,"일반야영장,자동차야영장",35.0559529,127.5930809,전라남도 광양시 옥룡면 백계로 337 ,33,27,0,3,0,0,0,
VIP오토캠핑장 ,자동차야영장,35.4972561,128.9267335,경상남도 밀양시 단장면 고례리 ,0,28,0,0,1,1,2,
꿈애 오토캠핑장 ,일반야영장,35.9986012,128.4541987,경상북도 칠곡군 왜관읍 봉계리 400-1 ,0,28,0,0,2,2,2,
문장대오토캠핑장 ,"일반야영장,자동차야영장,카라반",36.5441356,127.9247206,경상북도 상주시 화북면 상오리 ,0,28,0,3,2,2,2,
보물섬 캠핑장 ,일반야영장,34.7445445,127.8602586,경상남도 남해군 남면 남면로1229번길 10-34 ,0,28,0,0,1,1,1,
위정캠핑장 ,일반야영장,36.5498161,129.3263126,경상북도 영덕군 창수면 영양창수로 3032-9 ,0,28,0,0,2,2,2,
장좌리캠핑장 ,일반야영장,35.0096808,128.4495543,경상남도 고성군 동해면 장좌리 구절로,0,28,0,0,2,2,6,
함양 용추 오토캠핑장,자동차야영장,35.6751971,127.7724302,경상남도 함양군 안의면 상원리 ,0,28,0,0,2,2,1,
주암 오토캠핑장 ,"일반야영장,자동차야영장",35.0698606,127.2379395,전남 순천시 주암면 구산리 797-2 ,7,28,0,0,2,1,1,
땅끝황토나라테마촌 ,일반야영장,34.3216232,126.519902,전라남도 해남군 송지면 땅끝해안로 1730 ,28,28,0,0,0,0,0,
낙동강 레포츠밸리 강변오토캠핑장,일반야영장,35.6734661,128.3663172,대구시 달성군 구지면 오설리 873번지,0,29,0,0,2,1,1,
달콤한 캠핑장 ,"일반야영장,글램핑",37.7927968,128.1250697,강원도 홍천군 내촌면 와야리 ,0,29,5,0,1,1,2,
도래재별빛마을캠핑장 ,일반야영장,35.5601046,128.9393506,경남 밀양시 단장면 구천리 1852-7외1필지 ,0,29,0,0,2,2,2,
백경오토캠핑장 ,일반야영장,35.9098477,129.5254042,경상북도 포항시 남구 장기면 영암리 ,0,29,0,0,2,2,1,
별난독서캠핑장 ,자동차야영장,37.8849478,126.8777463,경기도 파주시 술이홀로 1315-0 거든산업 ,0,29,0,0,2,0,1,
인제 연가리 오토캠핑장 ,자동차야영장,37.9739973,128.4349274,강원도 인제군 기린면 조침령로 1418-7 ,0,29,0,0,2,2,6,
하오재캠핑장,"일반야영장,자동차야영장",38.1745122,127.4610384,강원도 철원군 근남면 하오재로 1235 ,0,29,0,0,1,1,1,
해담구룡령 야영장,자동차야영장,37.9834628,128.5293391,강원도 양양군 서면 구룡령로 2066 ,0,29,0,0,1,1,2,
도학 오토캠핑장 (도학야영장),자동차야영장,35.9817252,128.7036497,대구광역시 동구 도학동 110,0,29,0,0,1,1,1,
그루터기캠핑장 ,자동차야영장,37.9554535,128.508799,강원도 양양군 서면 구룡령로 1694 ,0,30,0,0,1,1,2,
백마강오토캠핑장 ,"일반야영장,카라반",36.302196,126.9159298,충청남도 부여군 규암면 호암리 ,0,30,0,33,1,1,1,
선야봉 캠핑장 ,일반야영장,36.0522257,127.3433942,전라북도 완주군 운주면 고당리 ,0,30,0,0,2,1,2,
섬지골 캠핑장,자동차야영장,37.1223144,128.7451714,강원 영월군 상동읍 섬지골길 19,0,30,0,0,1,1,2,
성덕댐 수달 캠핑장,"일반야영장,카라반",36.2435603,128.9643954,청송군 안덕면 성덕댐로 1291-70,0,30,0,3,2,2,1,
솔바람오토캠핑장 ,"일반야영장,자동차야영장,카라반",35.5469513,128.8585932,경상남도 밀양시 산외면 희곡리 ,0,30,0,0,1,1,1,
솔밭체육공원오토캠핑장 ,일반야영장,37.5622773,127.9547878,강원도 횡성군 공근면 도곡리 ,0,30,0,0,2,2,0,
솔섬오토캠핑장 ,자동차야영장,34.987387,127.9661896,경남 사천시 서포면 토끼로245-29,0,30,0,0,1,1,1,
수목화 송정마을 오토캠핑장,"자동차야영장,글램핑",38.440232,128.423956,강원도 고성군 건봉사로 1504,0,30,10,0,3,2,2,
수산아카데미 ,일반야영장,37.7191572,127.2651659,경기도 남양주시 수동면 철마산로 316-31 ,0,30,0,0,8,1,2,
숲속가든 캠핑장,일반야영장,34.978017,128.1331596,경상남도 사천시 사남면 계양리 ,0,30,0,0,1,1,1,
씨앤씨레져(주),"일반야영장,자동차야영장,카라반",37.7052864,127.5161765,경기도 가평군 청평면 고재길 274-25외 10필지,0,30,0,4,2,2,34,
아빠가 만든 캠핑장 ,일반야영장,37.2558095,128.3929791,강원도 영월군 북면 덕상리 ,0,30,0,0,2,2,2,
에코오토캠핑장(동상),일반야영장,35.9803277,127.3031416,전라북도 완주군 동상면 대아수목로 144-1 ,0,30,0,0,1,1,1,
온새미캠핑장,일반야영장,37.8796383,127.0977457,경기도 동두천시 천보산로 537 ,0,30,0,0,1,1,1,
용골송어와 캠핑 ,자동차야영장,37.6926822,128.4657671,강원도 평창군 용평면 운두령로 767-17 ,0,30,0,2,2,2,3,
우물동산 관광농원,일반야영장,38.0659809,127.3236845,경기도 포천시 영북면 산정리 777-3,0,30,0,0,2,2,2,
일영무두리캠핑장 ,일반야영장,37.7005282,126.9471166,경기도 양주시 장흥면 유원지로 176-77 ,0,30,0,0,2,2,2,
전원일기마을 오토캠핑장,일반야영장,37.6724583,126.9104578,경기도 양주시 장흥면 삼하리 210-1,0,30,0,0,2,2,1,
천태산 오토캠핑장 ,일반야영장,35.4320914,128.9275253,경상남도 양산시 원동면 영포리 ,0,30,0,0,1,1,2,
초록슈피아오토캠핑장 ,"일반야영장,자동차야영장",35.5871833,128.9570731,경상남도 밀양시 산내면 남명리 ,0,30,0,0,1,1,1,
캠프ing 오토캠핑장,일반야영장,35.9687551,129.2527879,경상북도 경주시 강동면 호명큰골길 47 ,0,30,0,0,2,2,1,
큐브존캠핑장 ,일반야영장,37.2248413,128.3513942,강원도 영월군 한반도면 한반도로 794-22 ,0,30,0,0,2,2,2,
티피 캠핑장 ,일반야영장,38.295909,128.5486623,강원도 고성군 죽왕면 문암진리 ,0,30,0,0,1,1,1,
두산 캠핑장,자동차야영장,37.317839,128.1614936,강원 영월군 무릉도원면 새막골길 165-13,0,30,0,0,1,1,1,
캠핑엔비치 [(주)이랜드파크 켄싱턴리조트 설악비치],자동차야영장,38.2410455,128.5723909,강원도 고성군 토성면 중앙로 646 ,0,30,0,0,2,2,1,
별빛야영장 (보현산 별빛테마마을 야영장),"일반야영장,자동차야영장,글램핑",36.1402922,128.996493,경상북도 영천시 화북면 별빛로 681-32,0,30,7,0,2,2,2,
솔바람캠핑장 ,"자동차야영장,글램핑",37.9041288,127.3746013,경기 가평군 조종면 명지산로 337-62,0,30,7,0,2,2,7,
김포 황토테마파크 ,"일반야영장,자동차야영장",37.7009941,126.655448,경기도 김포시 하성면 전류리 ,3,30,0,0,2,2,2,
유치 자연휴양림 ,"일반야영장,자동차야영장",34.7691476,126.8328031,전라남도 장흥군 유치면 휴양림길 154 ,9,30,0,0,3,2,3,
피아골오토캠핑장,"일반야영장,카라반,글램핑",35.227583,127.5894465,전라남도 구례군 토지면 원기양지길 26 ,14,30,1,3,1,1,1,
강화캠핑파크 ,"일반야영장,글램핑",37.6263487,126.5163708,인천광역시 강화군 길상면 신촌로146번길 14-11 ,30,30,15,0,2,2,1,
구름계곡캠핑장,"일반야영장,자동차야영장",37.8879007,127.538741,경기도 가평군 북면 제령리 219-2번지,30,30,0,0,9,8,7,
두산분교 캠핑장,"일반야영장,자동차야영장",37.3082565,128.1710679,강원 영월군 무릉도원면 두산길 237-4,30,30,0,0,4,4,2,
천등산캠핑장 ,"일반야영장,자동차야영장",37.0728441,128.039613,충청북도 충주시 산척면 명서리 ,30,30,0,0,1,1,1,
소풍캠핑장 ,"일반야영장,자동차야영장,글램핑",37.5951487,127.5084698,경기 가평군 설악면 어비산길 184-147,30,30,5,0,2,2,8,
이레캠핑장 ,자동차야영장,37.8547779,127.2407345,경기 포천시 군내면 청군로2985번길 148,30,30,14,3,10,10,9,
하늘계곡 캠핑장 ,"일반야영장,자동차야영장",37.6162787,127.5391017,경기 가평군 설악면 봉미산안길 190-27,30,30,0,0,2,2,8,
솔봉계곡쉼터야영장,자동차야영장,37.8429042,128.6714714,강원도 강릉시 연곡면 삼산리 ,60,30,0,0,8,12,10,
가마실캠핑장 ,일반야영장,37.1214901,128.2965596,충청북도 제천시 자작동 ,0,31,0,0,1,1,1,
남원 백두대간 국민여가캠핑장,일반야영장,35.3999038,127.5076174,전북 남원시 운봉읍 주촌3길 49-4,0,31,0,0,1,1,1,
달천공원오토캠핑장 ,"일반야영장,자동차야영장,카라반",35.2822939,128.5998171,경상남도 창원시 의창구 북면 달천길 150 ,0,31,0,4,1,1,1,
범도오토캠핑장 ,일반야영장,35.5232228,128.9098524,경상남도 밀양시 단장면 표충로 860 ,0,31,0,0,1,1,1,
소도캠핑장,일반야영장,37.9571666,127.3345082,경기도 포천시 일동면 무리울길 28-25,0,31,0,0,1,1,1,
자연속캠핑장,"일반야영장,자동차야영장,카라반",35.5520704,128.8623832,경상남도 밀양시 산내면 용전리 403-1,0,31,0,0,2,2,8,
지리산오토캠핑장 ,일반야영장,35.3308948,127.4514518,전라남도 구례군 산동면 수락폭포로 170-5 ,0,31,0,0,1,1,1,
충효테마관광농원야영장 (대충캠핑장),자동차야영장,35.0255898,128.2904588,경상남도 고성군 대가면 유흥갈천길 240,0,31,4,0,2,2,2,
하이원추추파크 자동차야영장,자동차야영장,37.1822894,129.0391078,강원도 삼척시 도계읍 심포리 ,0,31,0,0,2,2,1,
솔담길 오토캠핑장,"일반야영장,자동차야영장,카라반,글램핑",36.0627154,128.654645,경상북도 군위군 부계면 한밤 8길 2 ,31,31,1,5,20,12,1,
정읍시 내장산 국민여가캠핑장,"일반야영장,카라반,글램핑",35.5249589,126.8948546,전라북도 정읍시 내장산로 390 ,37,31,6,3,3,2,3,
킨텍스캠핑장 ,"일반야영장,자동차야영장",37.6633637,126.7392536,경기도 고양시 일산서구 대화동 2720번지 ,45,31,0,10,4,4,2,
캠프 안단테,"일반야영장,자동차야영장",35.5758525,128.792329,경북 청도군 청도읍 청매로 283-47,49,31,0,0,4,2,1,
국립미천골자연휴양림,"일반야영장,자동차야영장",37.9488231,128.5122647,강원도 양양군 서면 미천골길 115 ,53,31,0,0,0,3,3,
덕동 산마루캠핑장 ,일반야영장,37.1980227,127.9836665,충청북도 제천시 백운면 덕동리 ,0,32,0,0,2,2,4,
산아래캠핑장 ,일반야영장,37.9712916,127.1056858,포천시 관인면 삼율리 12,0,32,0,0,2,2,1,
요카카 관광농원 (요카카 오토캠핑장),자동차야영장,36.9954153,127.8956385,충청북도 충주시 금가면 강변길 11-37 ,0,32,0,0,4,4,2,
월드니스 ,"일반야영장,글램핑",37.3004067,128.2217049,강원도 영월군 수주면  도원운학로 475-10 ,0,32,20,0,2,2,2,
태안라온캠핑장 ,"일반야영장,카라반",36.8862935,126.2021541,충청남도 태안군 원북면 황촌리 ,0,32,0,3,2,2,1,
추암오토캠핑장,"일반야영장,자동차야영장",37.4783662,129.1581726,강원도 동해시 촛대바윗길 6,10,32,0,0,2,2,1,
아버지의숲 산정캠프,일반야영장,38.0503676,127.3242195,경기도 포천시 영북면 산정호수로 558,0,33,0,0,2,1,1,
옥계오토캠핑장(옥계마을영농회조합법인),일반야영장,34.9814589,128.6439094,경남 거제시 하청면 칠천로 265-17,0,33,0,0,1,1,1,
송하루 오토캠핑장,일반야영장,36.2796698,128.2663874,경북 구미시 옥성면 주아령로 192-1,0,33,0,0,4,4,2,
청풍호오토캠핑장 ,"일반야영장,카라반",37.0287695,128.1854139,충청북도 제천시 금성면 성내리 ,0,34,0,3,2,2,3,
캠핑월드 ,일반야영장,35.6267988,129.0556758,울산광역시 울주군 상북면 덕현리 ,0,34,5,0,1,1,1,
뜨란솔 캠핑장,"일반야영장,자동차야영장",37.331839,128.2765429,강원 영월군 무릉도원면 무릉법흥로 782-26,20,34,0,0,2,2,2,
느티나무쉼터,일반야영장,37.1040435,128.6786909,강원도 영월군 김삿갓면 내리계곡로 1106 ,0,35,0,0,2,2,3,
들살이오토캠핑장 ,"일반야영장,자동차야영장,카라반",35.5346107,129.0108651,울산광역시 울주군 상북면 배내로 1064-4 ,0,35,0,0,1,1,1,
벌곡오토캠핑장 ,일반야영장,36.1927363,127.291481,충청남도 논산시 벌곡면 수락로517번길 36-5 ,0,35,0,0,4,2,4,
영월 동강오토캠핑장,일반야영장,37.2019262,128.5041327,강원도 영월군 영월읍 둥글바위길 33 ,0,35,0,0,1,1,3,
지리산반내골오토캠핑장,"일반야영장,카라반",35.1460773,127.5024295,전라남도 구례군 문척면 중산리 ,0,35,0,0,2,2,2,
청도 그린나래 오토캠핑장,일반야영장,35.6162297,128.8038677,경상북도 청도군 매전면 송원리 ,0,35,0,0,8,4,2,
파주기산캠프,일반야영장,37.7753163,126.9220592,경기도 파주시 광탄면 기산리 ,0,35,0,0,2,2,1,
해지개캠핑장,일반야영장,38.018829,126.971325,경기도 연천군 미산면 어삼로 391-102,0,35,0,0,31,31,31,
해피캠핑장,일반야영장,37.780183,126.943574,경기도 양주시 백석읍 기산로 471번길 110,0,35,0,0,6,4,3,
무창포 솔원캠핑장,"일반야영장,자동차야영장",36.2495289,126.5480878,충청남도 보령시 웅천읍  삼정골길 102 ,0,35,0,0,4,2,2,
초안산캠핑장,"일반야영장,자동차야영장",37.6277451,127.0568215,018-66/서울시 노원구 월계동 750번지,16,35,0,0,2,2,2,
캠핑스마일,자동차야영장,37.8456294,127.3850743,경기 가평군 조종면 연인산로474번길 91-27,35,35,0,0,9,2,12,
대왕암공원 캠핑장,"일반야영장,카라반",35.4882061,129.4391545,울산시 동구 등대로 80-61,0,36,0,17,1,1,1,
렛츠고 강화캠핑 ,일반야영장,37.620496,126.4068601,인천광역시 강화군 화도면 장화리 ,0,36,0,0,2,2,3,
마이산 풍혈냉천 캠핑장 ,"일반야영장,글램핑",35.7208543,127.3028273,전북 진안군 성수면 용포로 345,0,36,5,0,1,1,1,
황산문화체육공원 국민여가캠핑장,자동차야영장,35.3013757,128.9876945,경상남도 양산시 물금읍 물금리 ,75,36,0,0,6,4,3,
섬진강향가오토캠핑장 ,일반야영장,35.3390801,127.1920558,전라북도 순창군 풍산면 대가리 ,0,37,10,0,1,1,1,
영월 외룡 캠핑장,일반야영장,37.1137601,128.6662364,강원도 영월군 김삿갓면 영월동로 2696 ,0,37,0,0,1,1,3,
용추그린하우스 ,일반야영장,35.6449079,127.806068,경상남도 함양군 안의면 신안리 ,0,37,0,0,2,1,1,
캠핑라운지 ,"일반야영장,자동차야영장,카라반,유무선인터넷,난방기구,취사도구",38.0474239,127.3694239,경기도 포천시 이동면 성장로1289번길 155-76 ,12,37,20,0,3,3,3,
무안황토갯벌랜드 오토캠핑장,"일반야영장,카라반",35.1037694,126.3321981,전남 무안군 해제면 만송로 36,37,37,0,14,2,1,3,
유명산라온캠핑장 ,"일반야영장,자동차야영장",37.5920107,127.485588,경기 가평군 설악면 유명산길 124-29,37,37,0,0,2,3,6,
계곡과소나무 오토캠핑장 ,일반야영장,37.9516198,127.3598873,경기도 포천시 일동면 무리울길 283 ,0,38,0,0,14,14,12,
대강오토캠핑장 (구 두음리 야영장) ,일반야영장,36.9193344,128.355206,충청북도 단양군 대강면 두음리 560-1,0,38,0,0,4,2,1,
솔내음캠핑장,일반야영장,37.689529,126.5810315,경기도 김포시 통진읍 절골로127번길 32-90 ,0,38,0,0,2,2,1,
연화산 반딧불이 캠핑장 ,일반야영장,35.052865,128.204432,경상남도 고성군 영현면 봉림리 ,0,38,0,0,1,1,2,
위천수변 테마파크,자동차야영장,36.1761825,128.5852903,경북 군위군 효령면 간동유원지길 8,0,38,0,0,6,0,0,
에코유 캠핑장 ,"일반야영장,자동차야영장",37.8646402,127.1074225,경기도 동두천시 탑동동 ,10,38,0,0,2,2,1,
솔뜰 캠핑장 ,"일반야영장,자동차야영장",37.5414233,127.4689533,경기도 양평군 옥천면 사기점길 49-15 ,56,38,0,20,2,2,2,
가야권역 소리마실 영농조합법인 ,일반야영장,35.7724993,128.128841,경상남도 합천군 가야면 야천리 ,0,39,0,0,2,2,2,
경호강 캠핑장 ,일반야영장,35.357555,127.9162539,경상남도 산청군 단성면 방목리 627 ,0,39,0,0,2,2,2,
닥박골 휴양림 ,일반야영장,37.9296714,127.1770984,경기도 포천시 신북면 심곡리 ,0,39,0,0,1,1,3,
천동오토캠핑장,"일반야영장,자동차야영장",36.9744049,128.4187431,충청북도 단양군 단양읍 천동리 ,0,39,0,0,3,3,5,
F1 오토캠핑장 ,일반야영장,34.7367086,126.3935277,전라남도 영암군 삼호읍 삼포리 ,0,40,0,6,5,2,4,
광릉솔개캠핑장,일반야영장,37.7647335,127.1451227,경기도 포천시 소흘읍 이곡리 ,0,40,0,0,3,2,4,
금방아 민박캠핑장,일반야영장,37.317754,128.2602109,강원도 영월군 수주면 법흥리 ,0,40,0,0,2,2,2,
늘푸른 체험학교,"일반야영장,글램핑",35.858013,128.9198158,경상북도 영천시 대창면 영지길 100 ,0,40,9,0,3,3,2,
지리산 대경캠핑장,자동차야영장,35.2727502,127.7781867,경상남도 산청군 시천면 동당리 577,0,40,0,0,2,2,1,
메가오토캠핑장 (메가관광농원),일반야영장,37.9954235,127.3159267,경기도 포천시 일동면 수입리 700-8 외 2필지,0,40,0,0,1,1,1,
밀양댐오토캠핑장 ,"일반야영장,자동차야영장",35.4934197,128.9284847,경상남도 밀양시 단장면 고례리 ,0,40,0,0,1,1,1,
삼정오토캠핑장,일반야영장,37.9791858,127.1354706,경기도 포천시 신북면 삼정리 ,0,40,0,0,1,1,1,
수원산 오토캠핑장 ,일반야영장,37.862785,127.2393902,경기도 포천시 군내면 직두리 ,0,40,0,0,1,1,2,
얼음골까투리캠핑장 ,일반야영장,35.5797758,128.9785338,경상남도 밀양시 산내면 얼음골로 134-22 ,0,40,0,0,2,1,3,
용인 미르힐 ,자동차야영장,37.3154866,127.2651339,경기도 용인시 처인구 초부로 215-7 ,0,40,0,0,2,2,2,
정든 캠핑장,일반야영장,37.3249581,128.2630525,강원 영월군 무릉도원면 무릉법흥로 644-9,0,40,0,0,4,2,4,
청광새들녘캠핑,일반야영장,35.1150709,128.3086561,경상남도 고성군 개천면 영회로 1296 ,0,40,0,0,1,1,1,
청담 관광농원 ,일반야영장,37.8860365,127.284532,경기도 포천시 화현면 명덕리 ,0,40,0,0,2,2,2,
청산 캠프 ,자동차야영장,37.3308928,128.2747312,강원 영월군 무릉도원면 무릉법흥로 782-10,0,40,0,0,0,0,0,
키즈드림 캠핑장,일반야영장,36.5441339,127.6536035,충북 보은군 내북면 남부로 5825-6,0,40,0,0,2,2,1,
한터팜오토캠핑장 ,일반야영장,37.2606826,127.2526302,경기도 용인시 처인구 양지면 한터로 432-12 ,0,40,0,0,2,2,2,
로하스 가족공원 캠핑장,일반야영장,36.4558916,127.4746423,대청로424번길 200 ,0,40,5,5,0,0,0,
각흘계곡 캠핑장 (관광농원),"자동차야영장,카라반",38.101442,127.393008,경기도 포천시 이동면 금강로 6439,0,40,0,4,2,1,1,
아트엔체험캠프 ,"일반야영장,글램핑",34.9994631,128.2860981,경상남도 고성군 대가면 연지리 ,0,40,8,0,2,1,3,
힐링가평오토캠핑장 ,"자동차야영장,글램핑",37.7568926,127.4035868,경기 가평군 상면 청군로 316,0,40,2,0,2,2,7,
핏들캠핑장 (물한계곡 핏들캠핑장 삼산관광농원),일반야영장,36.0818212,127.8822534,충청북도 영동군 상촌면 물한리 ,5,40,0,0,2,2,8,
폭포골자연휴양림야영장,자동차야영장,37.8486886,128.7482696,강원도 강릉시 연곡면 퇴곡리 ,20,40,0,0,5,2,5,
소나무와 계곡 캠핑장 ,"일반야영장,자동차야영장",37.3726964,128.2723521,강원 영월군 무릉도원면 백년계곡길 88-3,34,40,0,0,4,4,5,
마루노리,자동차야영장,37.3807404,127.7921003,강원도 원주시 지정면 판대리 ,40,40,4,0,2,2,2,
(주)수동자연마을 힐링별밤수목원캠핑장,"일반야영장,자동차야영장",37.7496744,127.2736544,경기도 남양주시 수동면 비룡로 1516-19 ,40,40,0,0,2,2,2,
쿼크밸리 캠프,자동차야영장,37.6913112,127.294079,경기도 남양주시 화도읍 가곡리 401번지 일원,40,40,0,0,2,2,10,
에뜨유명산캠핑장,"일반야영장,자동차야영장",37.5919751,127.4862949,경기 가평군 설악면 유명산길 124-17,40,40,0,0,4,5,10,
경주초우오토캠핑장 ,일반야영장,35.8084803,129.2567128,경상북도 경주시 동방동 산업로 3549-30 ,0,41,0,0,12,10,6,
산장관광지,"자동차야영장,글램핑",37.7542993,127.412328,경기도 가평군 상면 덕현리 ,0,41,18,0,3,3,20,
상황오토캠핑장 ,일반야영장,36.5849333,126.4764272,충청남도 홍성군 서부서길 633-60 ,0,41,0,0,2,2,2,
깊은골캠핑장,"일반야영장,자동차야영장",35.9260337,127.7607566,전라북도 무주군 구천동로 1284-6 ,0,42,0,0,1,1,1,
마령큰시내들캠핑장 ,"일반야영장,글램핑",35.7386448,127.3443765,전북 진안군 마령면 강정리 655-1 ,0,42,10,0,2,2,3,
청도 힐링 오토캠핑장 ,자동차야영장,35.6137,128.8071383,경상북도 청도군 매전면 지전리 ,0,42,0,0,2,1,2,
청양 동강리 오토캠핑장 ,일반야영장,36.3394,126.979775,충청남도 청양군 청남면 천내리 ,0,42,0,0,2,2,4,
봉강 하조 오토캠핑장,자동차야영장,35.0761015,127.562502,전라남도 광양시 봉강면 성불로 1097 ,0,42,0,0,1,1,1,
한다리골 야영장 ,일반야영장,37.4261787,128.0634619,강원도 원주시 소초면 학곡리 ,0,42,0,0,1,1,1,
광명도덕산캠핑장,일반야영장,37.4592422,126.8607682,경기도 광명시 하안동 ,42,42,0,0,4,4,2,
별빛오토캠핑장 ,"일반야영장,자동차야영장",37.6476195,127.5005264,경기 가평군 설악면 묵안로 219-15,42,42,0,0,2,2,14,
청도신화랑 풍류마을 오토캠핑장,일반야영장,35.7168101,128.9212409,경상북도 청도군 운문면방지리 150-7,0,43,0,0,1,1,1,
망상 오토캠핑리조트,"자동차야영장,카라반",37.5994459,129.0807175,강원도 동해시 동해대로6370 ,0,44,0,19,2,2,2,
문경수예리오토캠핑장 ,일반야영장,36.5999957,128.0537121,경상북도 문경시 가은읍 수예리 ,0,44,0,0,2,2,1,
바다애 오토캠핑장 ,일반야영장,37.6213882,126.3765532,인천광역시 강화군 화도면 장화리 ,0,44,0,0,2,2,2,
옛서당캠핑농원 ,일반야영장,35.2855577,126.6445768,전라남도 장성군 삼계면 화산길 1 ,0,44,0,0,1,1,1,
고성잔디캠핑장,일반야영장,34.952402,128.2145347,경남 고성군 하일면 용태리 479,0,45,0,0,2,2,2,
(주)도산도방 관성체험학교 오토캠핑장,자동차야영장,37.0330089,127.5795389,충청북도 음성군 생극면 관성리 ,0,45,0,0,4,4,2,
라라솔캠핑장,일반야영장,37.5233697,127.8670611,강원도 횡성군 서원면 유현리 ,0,45,0,0,2,2,1,
래미안밸리캠핑장 ,일반야영장,36.0612426,127.340758,전라북도 완주군 운주면 금고당로 617 ,0,45,0,0,2,2,2,
산마루캠핑장 ,"일반야영장,글램핑",38.111963,127.3996608,경기도 포천시 이동면 금강로 6584-20 ,0,45,21,0,2,2,4,
상아골계곡오토캠핑장,"일반야영장,자동차야영장",37.9445735,127.1272298,경기도 포천시 신북면 금동리 247-1,0,45,0,0,1,1,1,
송가네 오가리캠핑장 ,일반야영장,38.0228461,127.1655687,경기도 포천시 창수면 전영로1023번길 115 ,0,45,0,0,1,1,1,
안태울캠핑장 (안태울영농조합법인),일반야영장,37.8720043,126.9503361,경기도 양주시 광적면 화합로81번길 375-66 ,0,45,0,0,2,2,1,
치악신림오토캠핑장 ,일반야영장,37.2623535,128.0845693,강원도 원주시 신림면 성남로 194 ,0,45,0,0,2,2,2,
태화연캠핑장,일반야영장,35.5610025,129.2867345,울산광역시 중구 태화동 281번지 일원,0,45,0,0,1,1,1,
에이제이 ,"일반야영장,자동차야영장",37.7647234,127.2839791,경기도 남양주시 수동면 내방리 ,45,45,0,3,4,2,11,
은석캠핑장 ,"일반야영장,자동차야영장",37.5978837,127.4947152,경기 가평군 설악면 유명산길 61-75,45,45,0,0,2,2,12,
땅끝오토캠핑장 ,"일반야영장,카라반",34.3097516,126.5208703,전라남도 해남군 송지면 갈산길 25-15 ,0,46,0,16,0,0,0,
알프스캠핑장 ,일반야영장,35.5420512,128.8557742,경상남도 밀양시 산외면 밀양대로 3468-7 ,0,46,0,0,2,1,2,
양주송천캠핑장 ,일반야영장,37.773762,126.9382402,경기 양주시 백석읍 기산로440번길 74-19,0,46,0,0,6,4,3,
산으로 캠핑장 ,일반야영장,37.7145801,127.5678493,강원도 홍천군 서면 마곡리 ,0,47,0,0,2,1,1,
흥정계곡 캠핑 700 ,일반야영장,37.6518298,128.3135726,강원도 평창군 봉평면 흥정계곡4길 91 ,0,47,0,0,2,2,1,
소리길 오토캠핑장 ,"일반야영장,자동차야영장,카라반",35.7752991,128.1270691,경상남도 합천군 가야면 매화산로 670 ,0,48,0,0,2,2,2,
한티별빛아래관광농원 야영장 ,일반야영장,36.0345423,128.6142847,경상북도 칠곡군 가산면 응추리 ,0,48,0,0,4,2,2,
문화관광농원 오토캠핑장,"일반야영장,자동차야영장",34.7894635,128.5795813,경상남도 거제시 동부면 가배오송길 123,0,49,0,0,3,2,3,
대장경오토캠핑장,일반야영장,35.7666465,128.1309314,경상남도 합천군 가야면 야천리 896,0,50,0,0,1,1,2,
몬테비얀코 캠핑장 ,"일반야영장,자동차야영장",38.0294047,127.3864808,경기도 포천시 이동면 장암리 ,0,50,0,0,2,2,3,
민들레동산 캠핑장 ,"일반야영장,카라반",36.0135418,127.2410846,전라북도 완주군 화산면 종리 ,0,50,0,5,2,2,4,
산여울캠핑장,"일반야영장,카라반",37.3770757,128.271781,강원 영월군 무릉도원면 백년계곡길 142,0,50,0,10,2,2,2,
산울림관광농원,일반야영장,37.3930539,127.7599287,경기도 양평군 양동면 삼산리 ,0,50,0,0,1,1,1,
산촌오토캠핑장,"일반야영장,자동차야영장",37.900933,127.1207106,경기도 동두천시 탑동동 탑신로237번길 111 ,0,50,0,0,2,2,2,
삼봉자동차야영장,자동차야영장,36.5705952,126.3160369,충청남도 안면읍 삼봉길 209-3 ,0,50,0,0,3,2,1,
상소오토캠핑장 ,일반야영장,36.2373729,127.4690661,대전광역시 동구 상소동 ,0,50,0,0,4,2,2,
서포리 관광지 오토캠핑장 ,일반야영장,37.2236824,126.1135371,인천 옹진군 덕적면 덕적남로587번길 28,0,50,0,0,2,1,2,
순창향 관광농원&오토캠핑장,일반야영장,35.4317796,127.0591936,전라북도 순창군 구림면 구림로 3-2 ,0,50,0,0,2,1,1,
양주산막골캠핑장 ,일반야영장,37.7748547,126.9375993,경기도 양주시 백석읍 기산로 414-20 ,0,50,0,0,4,2,9,
얼음골 야영장,일반야영장,34.9831554,128.1778029,경상남도 고성군 상리면 삼상로 1411,0,50,0,0,3,2,6,
일영모자농원캠핑장,일반야영장,37.7083474,126.953516,경기도 양주시 장흥면 삼상리 10-17,0,50,0,0,3,2,1,
장터추어탕 캠핑장,일반야영장,37.3998584,127.8444201,강원도 원주시 지정면 월송리 904-3,0,50,0,0,2,2,1,
(주)밀모 빨강치마자동차야영장 ,"일반야영장,자동차야영장,카라반,글램핑",35.9324066,127.6696108,전라북도 무주군 적상면 사산리 ,0,50,15,11,2,2,2,
청보리오토캠핑장 ((주)청보리),자동차야영장,34.6396511,128.2308605,경상남도 통영시 욕지면 욕지일주로 896-71 ,0,50,0,0,1,1,1,
낭만에코파크,일반야영장,37.7016913,126.4286229,인천광역시 강화군 양도면 인산리 ,50,50,0,0,4,2,2,
무지개서는 마을 ,"일반야영장,자동차야영장",37.9105561,127.4934872,경기도 가평군 북면 가화로 1725 ,50,50,0,0,4,4,16,
솔밭펜션캠핑장,자동차야영장,37.8532049,127.3506794,경기 가평군 조종면 운악청계로371번길 58-34,50,50,0,0,4,4,10,
마실 야영장,"일반야영장,자동차야영장",37.6894864,127.2303052,경기도 남양주시 오남읍 팔현로216번길 24-1,50,50,10,0,4,4,2,
늘푸른쉼터,"일반야영장,자동차야영장",37.5973391,127.4999888,경기 가평군 설악면 어비산길 76,50,50,0,0,4,4,30,
양달캠핑장,"자동차야영장,카라반",37.1491297,127.2870068,경기 용인시 처인구 원삼면 학일로 100-2,50,50,0,1,2,2,16,
패밀리오토캠핑장,자동차야영장,35.5462727,128.8588712,경상남도 밀양시 산외면 희곡리 ,0,51,0,0,1,1,1,
김천부항댐 산내들 오토캠핑장 ,일반야영장,35.9779879,128.0112684,경상북도 김천시 지례면 도곡리 ,0,52,0,0,2,2,2,
법흥 캠핑장 ,일반야영장,37.3661261,128.2737967,강원 영월군 무릉도원면 백년계곡길 14-3,0,52,0,0,2,2,2,
상주 우산캠핑장 ,일반야영장,36.4720356,128.0656557,경상북도 상주시 외서면 채릉산로 752 ,0,52,0,0,2,2,2,
평화누리캠핑장,"일반야영장,자동차야영장",37.8920434,126.7447929,경기 파주시 문산읍 임진각로 148-40,62,52,0,15,9,6,6,
영산강 승촌보캠핑장,일반야영장,35.0650947,126.7576031,광주광역시  남구 승촌동 577 ,0,53,0,0,3,3,1,
월악산억수캠핑장,일반야영장,36.8731559,128.1504104,충청북도 제천시 덕산면 월악리 ,0,53,0,0,2,2,3,
수목원프로방스 캠핑장,일반야영장,37.9413879,127.135621,경기도 포천시 신북면 금동리 ,0,54,0,0,3,3,3,
캠핑홀리데이 성주오토캠핑장(청파관광농원),"일반야영장,카라반",35.854207,128.1978072,경상북도 성주군 수륜면 신정리 ,0,54,0,3,2,2,1,
꿈엔들 캠프장,"자동차야영장,글램핑",37.3431516,128.2806178,강원 영월군 무릉도원면 무릉법흥로 968-12,0,55,8,0,2,1,3,
완주소양캠핑장 ,일반야영장,35.8631022,127.2700648,전라북도 완주군 소양면 해월리 ,0,55,0,0,2,2,2,
인삼골오토캠핑장,일반야영장,36.0926338,127.5850191,충청남도 금산군 제원면 용화리 ,0,55,0,0,4,4,2,
양양 고인돌오토캠핑장,자동차야영장,38.0535244,128.5739362,강원도 양양군 서면 고인돌길 200-47 ,0,56,0,0,2,2,2,
속초해변 국민여가캠핑장 ,자동차야영장,38.18886,128.6025045,강원도 속초시 조양동 해오름로 186 ,0,56,0,0,2,2,1,
웰리힐리파크 오토캠핑장 ,일반야영장,37.4908373,128.2505391,강원도 횡성군 둔내면 두원리 ,0,57,0,0,1,1,1,
THATS CAMPING 횡성자연휴양림야영장,"일반야영장,글램핑",37.5390902,128.1110517,강원도 횡성군 갑천면정포로430번길 113 ,0,60,5,0,3,2,2,
나무새 관광농원,일반야영장,37.9695114,127.1505417,경기도 포천시 신북면 삼정리 98-3,0,60,0,0,2,1,2,
대궐오토캠핑장 ,"일반야영장,글램핑",37.7689833,126.93915,경기도 양주시 백석읍 기산로440번길 177 ,0,60,17,0,4,2,4,
도마치캠핑장 ,"일반야영장,자동차야영장",38.0499382,127.3823506,경기도 포천시 이동면 화동로 2318-6 ,0,60,0,0,2,2,2,
매봉힐링쉼터오토캠핑장,일반야영장,37.2604897,128.1386278,강원도 원주시 신림면 황둔리 ,0,60,0,0,2,2,2,
서정오토캠핑장,"일반야영장,자동차야영장",37.9959407,126.8867549,경기도 연천군 장남면 원당리 ,0,60,0,0,2,2,1,
주왕산국립공원 상의자동차 야영장 ,일반야영장,36.3938364,129.142102,경상북도 청송군 부동면 상의리 ,0,60,0,0,6,6,3,
충주반딧불 오토캠핑장,"일반야영장,카라반",37.1252613,127.9259788,충청북도 충주시 엄정면 가춘리길 19 ,0,60,0,3,2,2,1,
풍경,자동차야영장,37.3267138,128.2658526,강원 영월군 무릉도원면 무릉법흥로 674-14,0,60,0,0,2,2,1,
탄도항 노을 캠핑장,"자동차야영장,카라반,글램핑",37.1944116,126.6454899,경기도 안산시 단원구 대부황금로 17-2 ,0,60,16,5,2,2,2,
철원가산농원캠핑장 ,"일반야영장,자동차야영장,카라반",38.2249605,127.2654877,강원도 철원군 갈말읍 상사리 ,5,60,0,15,4,2,2,
상주보 오토캠핑장,"일반야영장,자동차야영장",36.448402,128.258389,경상북도 상주시 도남동 120-4,20,60,0,0,8,4,4,
대관령솔내음오토캠핑장,"일반야영장,카라반",37.7165781,128.7942944,강원도 강릉시 성산면 어흘리 ,60,60,0,1,2,2,2,
스카이 운학 오토캠핑장 ,"일반야영장,자동차야영장",37.210391,128.0009971,충청북도 제천시 백운면 운학길 87 ,60,60,0,0,1,1,3,
밀양스쿨 오토캠핑장 ,일반야영장,35.5108577,128.8409016,경상남도 밀양시 산외면 단산길 2-5 ,0,61,0,0,4,2,3,
팔영산야영장,자동차야영장,34.6355253,127.4179385,전라남도 고흥군 점암면 팔봉길 19-51 ,0,62,0,0,1,0,1,
삼락생태공원 오토캠핑장,"일반야영장,자동차야영장",35.1670019,128.9671984,부산광역시  사상구 삼락동 29-59 ,50,62,0,0,2,2,2,
덕산국민여가캠핑장,자동차야영장,37.717486,126.3801841,인천시 강화군 내가면 강화서로 227번길 91,62,62,0,0,2,2,4,
벽계야영장 ,자동차야영장,35.4261677,128.2086625,경상남도 의령군 궁류면 벽계로 201 ,0,63,0,0,0,0,0,
휴앤락캠핑장,일반야영장,35.8632033,129.1836673,경북 경주시 석현로 110-49 (석장동),0,64,0,0,2,2,2,
힐사이드캠핑장 ,일반야영장,36.820146,127.4323782,충청북도 진천군 문백면 태락리 ,0,65,0,0,2,2,2,
구름아래 캠핑장,일반야영장,35.663101,129.002477,경북 청도군 운문면 운문로 1033-14,0,67,0,0,2,2,1,
동강전망휴양림오토캠핑장,일반야영장,37.2595994,128.6079023,강원 정선군 신동읍 동강로 916-212,0,67,0,0,2,1,2,
비발디 캠핑파크 ,일반야영장,37.6641163,127.612295,강원도 홍천군 서면 한서로 1031-11,0,70,0,0,3,3,3,
솔밭 캠프장 ,"일반야영장,자동차야영장",37.3282194,128.2712844,강원 영월군 무릉도원면 무릉법흥로 740,0,70,0,0,15,15,3,
써니밸리 오토캠핑장,일반야영장,36.6808452,127.8009144,충청북도 괴산군 청천면 화양리 ,0,70,0,0,2,2,2,
영농조합법인 김포관광 (김포캠핑파크(주)),"일반야영장,자동차야영장,카라반,글램핑",37.7472873,126.5587378,경기도 김포시 월곶면 용강리 315-156번지 ,0,70,38,3,3,1,1,
포시즌스 오토캠핑장,일반야영장,37.9508415,127.1163168,포천시 신북면 탑신로 1259-68 ,0,70,0,0,1,1,2,
한울오토캠핑장,일반야영장,37.2521346,128.1751496,강원도 원주시 신림면 신림황둔로 1032 ,0,70,0,0,2,2,0,
양평 다목적캠핑장,"일반야영장,글램핑",37.4264014,127.7876691,경기 양평군 양동면 양서동로 224,0,70,10,0,3,2,2,
메사캠핑장 ,일반야영장,38.0781228,127.3876997,경기도 포천시 이동면 도평리 498-1  등 8필지,0,70,0,0,1,1,1,
화강 수변 오토캠핑장,자동차야영장,38.2478724,127.4182002,강원도 철원군 김화읍 학사리 680,0,72,0,0,2,1,4,
블루마린 캠핑장 (구 흙의 사랑 캠핑장),일반야영장,37.3035056,127.5813962,경기 여주시 능서면 중부대로 2545-74,0,72,0,0,2,2,1,
금수문화공원 야영장,"일반야영장,자동차야영장",35.9174557,128.1214504,경상북도 성주군 금수면 무학리 47 ,73,73,0,0,4,2,4,
금산산림문화타운,"일반야영장,자동차야영장",36.0677603,127.3690928,충청남도 금산군 남이면 건천리 ,0,74,0,0,6,6,3,
미르오토캠핑장 ,일반야영장,35.543533,128.8602127,경상남도 밀양시 산외면 밀양대로 3400-127 ,0,75,0,0,0,0,0,
이포보오토캠핑장 ,일반야영장,37.3865253,127.5491891,경기도 여주군 대신면 여양로 1935-177 ,0,75,0,0,2,2,1,
대저생태공원 캠핑장,"일반야영장,자동차야영장",35.215809,128.9718533,부산광역시 강서구 대저1동 1-5번지,36,75,0,0,3,3,3,
나린오토캠핑장 ,일반야영장,38.018629,126.9719973,경기도 연천군 어삼로 391-81 ,0,78,0,0,2,2,2,
알프스밸리 캠핑장,"일반야영장,자동차야영장",37.7472158,128.044471,강원도 홍천군 화촌면 군업리 ,0,79,0,0,1,1,1,
포천 비둘기낭 캠핑장,일반야영장,38.0771566,127.220635,경기도 포천시 영북면 대회산리 ,0,79,0,0,4,2,3,
서해땅끝파도리아치내캠핑장 ,일반야영장,36.719717,126.1274524,충청남도 태안군 소원면 파도리 ,0,80,0,0,2,2,1,
황매산 국민여가 캠핑장 (황매산 오토캠핑장),자동차야영장,35.4819189,128.0036224,경상남도 합천군 가회면 둔내리 ,0,80,0,0,3,1,4,
와이캠핑장 ,"자동차야영장,글램핑",37.7317102,127.4247901,경기도 가평군 청평면 강변로 115 ,80,80,18,0,4,2,50,
고산 무궁화 오토캠핑장,"일반야영장,카라반",35.9735698,127.2333925,전라북도 완주군 고산면 오산리 ,0,81,0,8,2,2,2,
안산화랑오토캠핑장 ,일반야영장,37.3226948,126.8166798,경기도 안산시 단원구 초지동 동산로 268 ,0,81,0,1,2,2,2,
학암포 오토 캠핑장,일반야영장,36.8978235,126.2074126,충청남도 태안군 원북면 옥파로 1152-37 ,0,86,0,0,4,2,4,
양평드림캠핑장 ,일반야영장,37.5001679,127.6231495,경기도 양평군 용문면 금곡리 ,0,87,0,0,2,2,2,
보보스캇 캠핑장 ,일반야영장,37.2913345,128.3264167,강원도 영월군 주천면 미다리길 50-24 ,0,90,0,0,3,3,3,
송지호 오토 캠핑장 ,일반야영장,38.3381838,128.5054975,강원도 고성군 죽왕면 동해대로 6090 ,0,90,0,0,2,2,11,
생림 오토 캠핑장 ,일반야영장,35.3664367,128.8124517,경상남도 김해시 생림면 마사리 ,0,93,0,0,3,2,3,
김포한강오토캠핑장 ,"일반야영장,카라반,글램핑",37.7030591,126.6544393,경기도 김포시 하성면 전류리 ,98,98,16,4,3,3,2,
계방산 오토캠핑장 (노동계곡 오토캠핑장),일반야영장,37.7049218,128.4836316,강원도 평창군 용평면 이승복생가길 160 ,0,100,0,0,3,1,3,
구만동오토캠핑장 ,일반야영장,38.1930849,128.3261184,강원도 인제군 북면 만해로 221 ,0,100,0,0,3,1,5,
연천재인폭포오토캠핑장,"일반야영장,카라반",38.0652635,127.1273661,경기도 연천군 연천읍 고문리 117-1번지,0,100,0,20,4,2,2,
호수산장관광농원 ,일반야영장,37.2322552,127.5417531,경기도 여주시 가남읍 신해리 ,0,100,0,0,2,2,2,
또올래캠핑장 ,"일반야영장,자동차야영장",37.9745263,127.4477491,경기 가평군 북면 가화로 2745-70,100,100,0,0,6,6,18,
용인랜드 숲속캠핑장 ,"일반야영장,자동차야영장",37.2588591,127.2580518,경기도 용인시 처인구 양지면 대대리 ,100,100,0,0,6,2,6,
공수전리 마을 휴향지,"일반야영장,자동차야영장",38.0419569,128.5559108,강원도 양양군 서면 공수전리 335,200,100,0,0,5,2,5,
한탄강관광지 오토캠핑장 ,"일반야영장,카라반",38.0085191,127.0591325,경기도 연천군 전곡읍 전곡리 ,0,105,0,58,2,2,3,
밀양표충오토캠핑장 ,일반야영장,35.5228502,128.9262857,경상남도 밀양시 단장면 바드리길 7 ,0,106,0,0,2,2,2,
세종 합강캠핑장,"일반야영장,카라반",36.5158721,127.3371065,세종특별자치시 연동면 태산로 ,0,114,0,29,6,6,6,
당항포 오토캠핑장,일반야영장,35.053844,128.3952321,경상남도 고성군 회화면 당항리 당항포관광단지 ,0,118,0,0,2,2,2,
양평 힐인힐 야영장 ,"일반야영장,카라반",37.4495426,127.6124744,경기도 양평군 지평면 옥현리 1504-5외 12필지 ,0,119,0,5,2,2,3,
월악산국립공원 닷돈재 자동차야영장 ,일반야영장,36.8445408,128.0925548,충청북도 제천시 한수면 송계리 ,0,119,0,0,2,1,2,
산야초 자연캠핑장 ,일반야영장,37.9073979,127.1018498,경기도 동두천시 광암동 쇠목길 320 ,0,120,0,0,3,3,3,
알멕스랜드캠핑장,"일반야영장,카라반",38.074565,127.0072391,경기도 연천군 왕징면 왕산로 218번길 25-100,0,120,0,20,1,1,1,
학동자동차 야영장 ,자동차야영장,34.7774188,128.6415014,경남 거제시 동부면 거제대로 981,0,123,0,0,2,2,3,
사계절오토캠핑장,일반야영장,36.6390866,126.9670665,충청남도 공주시 유구읍 무드리길 64 ,0,130,0,0,3,2,2,
영주호오토캠핑장,"자동차야영장,카라반",36.7173358,128.660003,경상북도 영주시 평은면 문평로 758-24,0,130,0,18,4,4,2,
(주)자연에너지-드림랜드오토캠핑장,일반야영장,35.9840344,129.0005945,경상북도 영천시 고경면 고도길 38 ,135,135,0,0,3,1,3,
대회산캠핑장 ,"일반야영장,글램핑",38.0674355,127.2402569,경기도 포천시 영북면 대회산리 ,0,150,5,0,2,2,2,
태백소원지오토캠핑장,일반야영장,37.1335996,128.9614134,강원도 태백시 소도동 60번지 외6,0,150,0,0,4,2,2,
몽산포 자동차 야영장,자동차야영장,36.6697203,126.2886497,충청남도 태안군 남면 몽산포길 54 ,0,155,0,0,0,0,0,
송림캠핑장 ,일반야영장,36.7473517,126.1368654,충청남도 태안군 소원면 파도리 ,0,160,0,0,3,3,3,
소금강자동차야영장,일반야영장,37.814817,128.7084704,강원도 강릉시 연곡면 소금강길 449 ,0,169,0,0,3,1,5,
오시아노 오토캠핑리조트,일반야영장,34.6695225,126.2604877,전라남도 해남군 화원면 화봉리 ,0,170,0,10,4,2,2,
설악산국립공원 설악동자동차야영장,"일반야영장,자동차야영장,카라반",38.1630072,128.5438624,강원도 속초시 설악동 ,24,172,0,8,6,6,6,
강나루 오토캠핑장 ,일반야영장,35.3930913,128.5085477,경상남도 함안군 칠서면 이룡리 998,0,190,0,0,5,4,4,
자라섬캠핑장 ,"일반야영장,자동차야영장,카라반",37.8189368,127.5218127,경기도 가평군 가평읍 자라섬로 60 ,191,191,0,40,3,3,3,
춘장대오토캠핑장,일반야영장,36.1615659,126.5267737,충청남도 서천군 서면 춘장대로 106 ,0,200,0,0,2,4,3,
밀양아리랑 오토캠핑장 ((구)미르피아 오토캠핑장 ),자동차야영장,35.3545101,128.7593248,경상남도 밀양시 하남읍 명례리 1046-2,0,200,0,0,3,3,3,
캠프원 관광농원,"일반야영장,글램핑",35.6364811,128.850716,경상북도 청도군 매전면 호화리 ,0,227,4,0,3,2,3,
올덴캠핑장,"일반야영장,자동차야영장,카라반,글램핑",37.7022064,127.5169624,경기 가평군 청평면 고재길 262-46,1652,1652,1,4,2,2,1,
